{
  "data": {
    "distrito": "Braga",
    "concelho": "Braga",
    "freguesia": "União das freguesias de Real, Dume e Semelhe",
    "OBJECTID": 573,
    "BGRI2021": "03037900517",
    "DT21": "03",
    "DTMN21": "0303",
    "DTMNFR21": "030379",
    "DTMNFRSEC21": "030379005",
    "SECNUM21": "005",
    "SSNUM21": "17",
    "SECSSNUM21": "00517",
    "OBJECTID_1": 22486,
    "DT": "03",
    "CC": "03",
    "fr": "79",
    "SEC": "005",
    "SS": "17"
  },
  "addresses": [
    {
      "id": "pt.ine.add.PTCONT.461192",
      "street": "R D LUCINDA BARBOSA",
      "house": "40",
      "postcode": "4700-266",
      "city": "BRAGA",
      "lon": "-8.448029300118401",
      "lat": "41.5582107610208"
    },
    {
      "id": "pt.ine.add.PTCONT.462248",
      "street": "R DR FRANCISCO FERNANDES DUARTE",
      "house": "35",
      "postcode": "4700-267",
      "city": "BRAGA",
      "lon": "-8.44822647940622",
      "lat": "41.558511567107836"
    },
    {
      "id": "pt.ine.add.PTCONT.465296",
      "street": "R TAPADA",
      "house": "22",
      "postcode": "4700-482",
      "city": "BRAGA",
      "lon": "-8.44651772950025",
      "lat": "41.55586122270462"
    },
    {
      "id": "pt.ine.add.PTCONT.468066",
      "street": "R ARMENIO REIS",
      "house": "B3",
      "postcode": "4700-267",
      "city": "BRAGA",
      "lon": "-8.447763104437376",
      "lat": "41.5580727429622"
    },
    {
      "id": "pt.ine.add.PTCONT.468094",
      "street": "R RIBEIRA",
      "house": "10",
      "postcode": "4700-483",
      "city": "BRAGA",
      "lon": "-8.446011594765206",
      "lat": "41.555304368733886"
    },
    {
      "id": "pt.ine.add.PTCONT.468441",
      "street": "R BARRAL",
      "house": "13",
      "postcode": "4705-340",
      "city": "BRAGA",
      "lon": "-8.450766138242233",
      "lat": "41.554444980338054"
    },
    {
      "id": "pt.ine.add.PTCONT.483636",
      "street": "R 5 DE OUTUBRO",
      "house": "341",
      "postcode": "4700-260",
      "city": "BRAGA",
      "lon": "-8.446565739862402",
      "lat": "41.558355129243466"
    },
    {
      "id": "pt.ine.add.PTCONT.486254",
      "street": "R 5 DE OUTUBRO",
      "house": "243",
      "postcode": "4700-260",
      "city": "BRAGA",
      "lon": "-8.445508266025675",
      "lat": "41.5578177824225"
    },
    {
      "id": "pt.ine.add.PTCONT.489161",
      "street": "R ARMENIO REIS",
      "house": "",
      "postcode": "4700-267",
      "city": "BRAGA",
      "lon": "-8.448503855218984",
      "lat": "41.557566503930914"
    },
    {
      "id": "pt.ine.add.PTCONT.494038",
      "street": "R DR FRANCISCO FERNANDES DUARTE",
      "house": "23",
      "postcode": "4700-267",
      "city": "BRAGA",
      "lon": "-8.44807883535391",
      "lat": "41.55890922664397"
    },
    {
      "id": "pt.ine.add.PTCONT.495172",
      "street": "R 5 DE OUTUBRO",
      "house": "295",
      "postcode": "4700-260",
      "city": "BRAGA",
      "lon": "-8.446181063643715",
      "lat": "41.55813108363901"
    },
    {
      "id": "pt.ine.add.PTCONT.498033",
      "street": "R NASCIMENTO PONTES",
      "house": "",
      "postcode": "4700-129",
      "city": "BRAGA",
      "lon": "-8.44846557443112",
      "lat": "41.55708941045904"
    },
    {
      "id": "pt.ine.add.PTCONT.500916",
      "street": "R DR FRANCISCO FERNANDES DUARTE",
      "house": "53",
      "postcode": "4700-267",
      "city": "BRAGA",
      "lon": "-8.448816745034586",
      "lat": "41.557817750130894"
    },
    {
      "id": "pt.ine.add.PTCONT.500925",
      "street": "R 5 DE OUTUBRO",
      "house": "353",
      "postcode": "4700-260",
      "city": "BRAGA",
      "lon": "-8.446745808814246",
      "lat": "41.558408660694816"
    },
    {
      "id": "pt.ine.add.PTCONT.500926",
      "street": "R 5 DE OUTUBRO",
      "house": "353",
      "postcode": "4700-260",
      "city": "BRAGA",
      "lon": "-8.446745808814246",
      "lat": "41.558408660694816"
    },
    {
      "id": "pt.ine.add.PTCONT.506700",
      "street": "R 5 DE OUTUBRO",
      "house": "305",
      "postcode": "4700-260",
      "city": "BRAGA",
      "lon": "-8.446313226514306",
      "lat": "41.55819374993533"
    },
    {
      "id": "pt.ine.add.PTCONT.509637",
      "street": "R 5 DE OUTUBRO",
      "house": "323",
      "postcode": "4700-260",
      "city": "BRAGA",
      "lon": "-8.446397354009154",
      "lat": "41.55823853947572"
    },
    {
      "id": "pt.ine.add.PTCONT.517523",
      "street": "R DR FRANCISCO FERNANDES DUARTE",
      "house": "47",
      "postcode": "4700-267",
      "city": "BRAGA",
      "lon": "-8.448410497019431",
      "lat": "41.558088977100745"
    },
    {
      "id": "pt.ine.add.PTCONT.517524",
      "street": "R DR FRANCISCO FERNANDES DUARTE",
      "house": "53",
      "postcode": "4700-267",
      "city": "BRAGA",
      "lon": "-8.44827981960559",
      "lat": "41.55833243641533"
    },
    {
      "id": "pt.ine.add.PTCONT.517525",
      "street": "R 5 DE OUTUBRO",
      "house": "",
      "postcode": "4700-260",
      "city": "BRAGA",
      "lon": "-8.445267831099057",
      "lat": "41.55767437547364"
    },
    {
      "id": "pt.ine.add.PTCONT.517526",
      "street": "R TOURIDO",
      "house": "50",
      "postcode": "4700-298",
      "city": "BRAGA",
      "lon": "-8.445014887110101",
      "lat": "41.554928919159664"
    },
    {
      "id": "pt.ine.add.PTCONT.523646",
      "street": "R TOURIDO",
      "house": "",
      "postcode": "4700-298",
      "city": "BRAGA",
      "lon": "-8.445231133496046",
      "lat": "41.557521411433946"
    },
    {
      "id": "pt.ine.add.PTCONT.524957",
      "street": "R DEVESA DE TOURIDO",
      "house": "6",
      "postcode": "4700-484",
      "city": "BRAGA",
      "lon": "-8.446479594864108",
      "lat": "41.55541113926332"
    },
    {
      "id": "pt.ine.add.PTCONT.530808",
      "street": "R ARMENIO REIS",
      "house": "10",
      "postcode": "4700-267",
      "city": "BRAGA",
      "lon": "-8.448107321197133",
      "lat": "41.55736950849854"
    },
    {
      "id": "pt.ine.add.PTCONT.542709",
      "street": "R D LUCINDA BARBOSA",
      "house": "2",
      "postcode": "4700-266",
      "city": "BRAGA",
      "lon": "-8.448173465493118",
      "lat": "41.558647858870025"
    },
    {
      "id": "pt.ine.add.PTCONT.547599",
      "street": "R TAPADA",
      "house": "43",
      "postcode": "4700-482",
      "city": "BRAGA",
      "lon": "-8.445654988939516",
      "lat": "41.55592659713697"
    },
    {
      "id": "pt.ine.add.PTCONT.548614",
      "street": "R DEVESA DE TOURIDO",
      "house": "14",
      "postcode": "4700-484",
      "city": "BRAGA",
      "lon": "-8.446454230057697",
      "lat": "41.55512308844784"
    },
    {
      "id": "pt.ine.add.PTCONT.554094",
      "street": "R ARMENIO REIS",
      "house": "25",
      "postcode": "4700-267",
      "city": "BRAGA",
      "lon": "-8.447631769825644",
      "lat": "41.55818114719258"
    },
    {
      "id": "pt.ine.add.PTCONT.557876",
      "street": "R D LUCINDA BARBOSA",
      "house": "23",
      "postcode": "4700-266",
      "city": "BRAGA",
      "lon": "-8.447861404153008",
      "lat": "41.558567679803446"
    },
    {
      "id": "pt.ine.add.PTCONT.557877",
      "street": "R TOURIDO",
      "house": "44",
      "postcode": "4700-298",
      "city": "BRAGA",
      "lon": "-8.44532918054271",
      "lat": "41.55547729486337"
    },
    {
      "id": "pt.ine.add.PTCONT.557878",
      "street": "R TOURIDO",
      "house": "44",
      "postcode": "4700-298",
      "city": "BRAGA",
      "lon": "-8.44532918054271",
      "lat": "41.55547729486337"
    },
    {
      "id": "pt.ine.add.PTCONT.560594",
      "street": "R 5 DE OUTUBRO",
      "house": "389",
      "postcode": "4700-260",
      "city": "BRAGA",
      "lon": "-8.447095111233939",
      "lat": "41.55860913645651"
    },
    {
      "id": "pt.ine.add.PTCONT.560606",
      "street": "R 5 DE OUTUBRO",
      "house": "277",
      "postcode": "4700-260",
      "city": "BRAGA",
      "lon": "-8.44604842326542",
      "lat": "41.557969377308055"
    },
    {
      "id": "pt.ine.add.PTCONT.563323",
      "street": "R 5 DE OUTUBRO",
      "house": "473",
      "postcode": "4700-260",
      "city": "BRAGA",
      "lon": "-8.447931096042455",
      "lat": "41.55927083164239"
    },
    {
      "id": "pt.ine.add.PTCONT.563324",
      "street": "R 5 OUTUBRO",
      "house": "465",
      "postcode": "4700-260",
      "city": "BRAGA",
      "lon": "-8.447931096042455",
      "lat": "41.55927083164239"
    },
    {
      "id": "pt.ine.add.PTCONT.565164",
      "street": "R 5 DE OUTUBRO",
      "house": "473",
      "postcode": "4700-260",
      "city": "BRAGA",
      "lon": "-8.447931096042455",
      "lat": "41.55927083164239"
    },
    {
      "id": "pt.ine.add.PTCONT.567948",
      "street": "R DEVESA DE TOURIDO",
      "house": "8",
      "postcode": "4700-484",
      "city": "BRAGA",
      "lon": "-8.44646717335293",
      "lat": "41.55532113563515"
    },
    {
      "id": "pt.ine.add.PTCONT.569044",
      "street": "R RIBEIRA",
      "house": "12",
      "postcode": "4700-483",
      "city": "BRAGA",
      "lon": "-8.445999304189835",
      "lat": "41.55524137594107"
    },
    {
      "id": "pt.ine.add.PTCONT.569045",
      "street": "TV TOURIDO",
      "house": "5",
      "postcode": "4700-486",
      "city": "BRAGA",
      "lon": "-8.445860022175589",
      "lat": "41.55618714832382"
    },
    {
      "id": "pt.ine.add.PTCONT.570764",
      "street": "R RIBEIRA",
      "house": "6",
      "postcode": "4700-483",
      "city": "BRAGA",
      "lon": "-8.446036175988661",
      "lat": "41.55543035431323"
    },
    {
      "id": "pt.ine.add.PTCONT.577741",
      "street": "R 5 DE OUTUBRO",
      "house": "335",
      "postcode": "4700-260",
      "city": "BRAGA",
      "lon": "-8.446541373976348",
      "lat": "41.55827416197281"
    },
    {
      "id": "pt.ine.add.PTCONT.577743",
      "street": "R RIBEIRA",
      "house": "11",
      "postcode": "4700-483",
      "city": "BRAGA",
      "lon": "-8.445592193086755",
      "lat": "41.555332520463"
    },
    {
      "id": "pt.ine.add.PTCONT.583736",
      "street": "R DR FRANCISCO FERNANDES DUARTE",
      "house": "61",
      "postcode": "4700-267",
      "city": "BRAGA",
      "lon": "-8.448589472093449",
      "lat": "41.55791741507923"
    },
    {
      "id": "pt.ine.add.PTCONT.586598",
      "street": "R MONTE DE BARRAL",
      "house": "",
      "postcode": "4700-280",
      "city": "BRAGA",
      "lon": "-8.445983149330882",
      "lat": "41.55437706001292"
    },
    {
      "id": "pt.ine.add.PTCONT.588460",
      "street": "R NASCIMENTO PONTES",
      "house": "14",
      "postcode": "4700-129",
      "city": "BRAGA",
      "lon": "-8.448838352941447",
      "lat": "41.55733148861793"
    },
    {
      "id": "pt.ine.add.PTCONT.589285",
      "street": "R DR FRANCISCO FERNANDES DUARTE",
      "house": "31",
      "postcode": "4700-267",
      "city": "BRAGA",
      "lon": "-8.448210176971948",
      "lat": "41.55860295925394"
    },
    {
      "id": "pt.ine.add.PTCONT.592275",
      "street": "R D LUCINDA BARBOSA",
      "house": "41",
      "postcode": "4700-266",
      "city": "BRAGA",
      "lon": "-8.44813406834039",
      "lat": "41.55811602837653"
    },
    {
      "id": "pt.ine.add.PTCONT.592276",
      "street": "R D LUCINDA BARBOSA",
      "house": "31",
      "postcode": "4700-266",
      "city": "BRAGA",
      "lon": "-8.447952047839399",
      "lat": "41.5583636445377"
    },
    {
      "id": "pt.ine.add.PTCONT.609351",
      "street": "TOURIDO",
      "house": "",
      "postcode": "4700-487",
      "city": "BRAGA",
      "lon": "-8.446467651710241",
      "lat": "41.555420175558126"
    },
    {
      "id": "pt.ine.add.PTCONT.601042",
      "street": "R 5 DE OUTUBRO",
      "house": "283",
      "postcode": "4700-260",
      "city": "BRAGA",
      "lon": "-8.446084775549112",
      "lat": "41.558050312063976"
    },
    {
      "id": "pt.ine.add.PTCONT.604059",
      "street": "R D LUCINDA BARBOSA",
      "house": "42",
      "postcode": "4700-266",
      "city": "BRAGA",
      "lon": "-8.4479085665899",
      "lat": "41.558405483326766"
    },
    {
      "id": "pt.ine.add.PTCONT.607198",
      "street": "R DR FRANCISCO FERNANDES DUARTE",
      "house": "51",
      "postcode": "4700-267",
      "city": "BRAGA",
      "lon": "-8.448541830138701",
      "lat": "41.55798057198443"
    },
    {
      "id": "pt.ine.add.PTCONT.613083",
      "street": "R ARMENIO REIS",
      "house": "13",
      "postcode": "4700-267",
      "city": "BRAGA",
      "lon": "-8.448073589566958",
      "lat": "41.55782879185234"
    },
    {
      "id": "pt.ine.add.PTCONT.618123",
      "street": "R DR FRANCISCO FERNANDES DUARTE",
      "house": "65",
      "postcode": "4700-267",
      "city": "BRAGA",
      "lon": "-8.448684449136675",
      "lat": "41.5577280758426"
    },
    {
      "id": "pt.ine.add.PTCONT.618997",
      "street": "R RIBEIRA",
      "house": "5",
      "postcode": "4700-483",
      "city": "BRAGA",
      "lon": "-8.445593147132778",
      "lat": "41.555530600323465"
    },
    {
      "id": "pt.ine.add.PTCONT.628325",
      "street": "R NASCIMENTO PONTES",
      "house": "",
      "postcode": "4700-129",
      "city": "BRAGA",
      "lon": "-8.44858588175493",
      "lat": "41.5571791179022"
    },
    {
      "id": "pt.ine.add.PTCONT.631331",
      "street": "R ARMENIO REIS",
      "house": "",
      "postcode": "4700-267",
      "city": "BRAGA",
      "lon": "-8.447679412814821",
      "lat": "41.55811799066299"
    },
    {
      "id": "pt.ine.add.PTCONT.631332",
      "street": "R NASCIMENTO PONTES",
      "house": "",
      "postcode": "4700-129",
      "city": "BRAGA",
      "lon": "-8.448333105513962",
      "lat": "41.55696372124754"
    },
    {
      "id": "pt.ine.add.PTCONT.636022",
      "street": "R ARMENIO REIS",
      "house": "27",
      "postcode": "4700-267",
      "city": "BRAGA",
      "lon": "-8.44754807797151",
      "lat": "41.5582263947977"
    },
    {
      "id": "pt.ine.add.PTCONT.636163",
      "street": "TV TOURIDO",
      "house": "9",
      "postcode": "4700-486",
      "city": "BRAGA",
      "lon": "-8.446183448120992",
      "lat": "41.55614124947221"
    },
    {
      "id": "pt.ine.add.PTCONT.638524",
      "street": "R 5 DE OUTUBRO",
      "house": "439",
      "postcode": "4700-260",
      "city": "BRAGA",
      "lon": "-8.447626653650788",
      "lat": "41.5590885412622"
    },
    {
      "id": "pt.ine.add.PTCONT.642520",
      "street": "R 5 DE OUTUBRO",
      "house": "289",
      "postcode": "4700-260",
      "city": "BRAGA",
      "lon": "-8.446144798086902",
      "lat": "41.55806815616607"
    },
    {
      "id": "pt.ine.add.PTCONT.642564",
      "street": "R TOURIDO",
      "house": "52",
      "postcode": "4700-298",
      "city": "BRAGA",
      "lon": "-8.445002597575176",
      "lat": "41.554865926252575"
    },
    {
      "id": "pt.ine.add.PTCONT.649838",
      "street": "R 5 DE OUTUBRO",
      "house": "261",
      "postcode": "4700-260",
      "city": "BRAGA",
      "lon": "-8.445880386617809",
      "lat": "41.55792481577551"
    },
    {
      "id": "pt.ine.add.PTCONT.653022",
      "street": "R 5 DE OUTUBRO",
      "house": "385",
      "postcode": "4700-260",
      "city": "BRAGA",
      "lon": "-8.446804569251016",
      "lat": "41.558165399339124"
    },
    {
      "id": "pt.ine.add.PTCONT.653895",
      "street": "R DR FRANCISCO FERNANDES DUARTE",
      "house": "63",
      "postcode": "4700-267",
      "city": "BRAGA",
      "lon": "-8.448756590577302",
      "lat": "41.557772896553786"
    },
    {
      "id": "pt.ine.add.PTCONT.653918",
      "street": "R TAPADA",
      "house": "8",
      "postcode": "4700-482",
      "city": "BRAGA",
      "lon": "-8.445882693535323",
      "lat": "41.55591697425344"
    },
    {
      "id": "pt.ine.add.PTCONT.656756",
      "street": "R D LUCINDA BARBOSA",
      "house": "14",
      "postcode": "4700-266",
      "city": "BRAGA",
      "lon": "-8.448315387409568",
      "lat": "41.558251305234215"
    },
    {
      "id": "pt.ine.add.PTCONT.656757",
      "street": "R TAPADA",
      "house": "21",
      "postcode": "4700-482",
      "city": "BRAGA",
      "lon": "-8.44676788364581",
      "lat": "41.555536405722215"
    },
    {
      "id": "pt.ine.add.PTCONT.664611",
      "street": "R NASCIMENTO PONTES",
      "house": "",
      "postcode": "4700-129",
      "city": "BRAGA",
      "lon": "-8.44856160136164",
      "lat": "41.55711615829996"
    },
    {
      "id": "pt.ine.add.PTCONT.664840",
      "street": "R TAPADA",
      "house": "18",
      "postcode": "4700-482",
      "city": "BRAGA",
      "lon": "-8.446338059046099",
      "lat": "41.555888723505596"
    },
    {
      "id": "pt.ine.add.PTCONT.665765",
      "street": "R ARMENIO REIS",
      "house": "3",
      "postcode": "4700-267",
      "city": "BRAGA",
      "lon": "-8.448408177721992",
      "lat": "41.55761178503991"
    },
    {
      "id": "pt.ine.add.PTCONT.665769",
      "street": "R 5 DE OUTUBRO",
      "house": "373",
      "postcode": "4700-260",
      "city": "BRAGA",
      "lon": "-8.446912564898328",
      "lat": "41.55854991654778"
    },
    {
      "id": "pt.ine.add.PTCONT.667816",
      "street": "R 5 DE OUTUBRO",
      "house": "379",
      "postcode": "4700-260",
      "city": "BRAGA",
      "lon": "-8.446959462312336",
      "lat": "41.55860822374582"
    },
    {
      "id": "pt.ine.add.PTCONT.672790",
      "street": "R D LUCINDA BARBOSA",
      "house": "11",
      "postcode": "4700-266",
      "city": "BRAGA",
      "lon": "-8.447724468477341",
      "lat": "41.55886794490307"
    },
    {
      "id": "pt.ine.add.PTCONT.680533",
      "street": "R D LUCINDA BARBOSA",
      "house": "39",
      "postcode": "4700-266",
      "city": "BRAGA",
      "lon": "-8.448007373368657",
      "lat": "41.55826962721794"
    },
    {
      "id": "pt.ine.add.PTCONT.680607",
      "street": "R 5 DE OUTUBRO",
      "house": "397",
      "postcode": "4700-260",
      "city": "BRAGA",
      "lon": "-8.447356286144554",
      "lat": "41.5588436565741"
    },
    {
      "id": "pt.ine.add.PTCONT.680608",
      "street": "R ARMENIO REIS",
      "house": "15",
      "postcode": "4700-267",
      "city": "BRAGA",
      "lon": "-8.448001972978002",
      "lat": "41.55789201420156"
    },
    {
      "id": "pt.ine.add.PTCONT.683423",
      "street": "R TOURIDO",
      "house": "48",
      "postcode": "4700-298",
      "city": "BRAGA",
      "lon": "-8.44517166505053",
      "lat": "41.55512657626594"
    },
    {
      "id": "pt.ine.add.PTCONT.686416",
      "street": "R ARMENIO REIS",
      "house": "",
      "postcode": "4700-267",
      "city": "BRAGA",
      "lon": "-8.448288788443355",
      "lat": "41.55771115352903"
    },
    {
      "id": "pt.ine.add.PTCONT.686431",
      "street": "R NASCIMENTO PONTES",
      "house": "",
      "postcode": "4700-129",
      "city": "BRAGA",
      "lon": "-8.448393433953411",
      "lat": "41.557044589556575"
    },
    {
      "id": "pt.ine.add.PTCONT.688610",
      "street": "R TOURIDO",
      "house": "38",
      "postcode": "4700-298",
      "city": "BRAGA",
      "lon": "-8.445416164375748",
      "lat": "41.55611632471075"
    },
    {
      "id": "pt.ine.add.PTCONT.689471",
      "street": "R D LUCINDA BARBOSA",
      "house": "13",
      "postcode": "4700-266",
      "city": "BRAGA",
      "lon": "-8.447738552847795",
      "lat": "41.558843791643376"
    },
    {
      "id": "pt.ine.add.PTCONT.689473",
      "street": "R ARMENIO REIS",
      "house": "4",
      "postcode": "4700-267",
      "city": "BRAGA",
      "lon": "-8.447772907961259",
      "lat": "41.55762252894277"
    },
    {
      "id": "pt.ine.add.PTCONT.689476",
      "street": "R NASCIMENTO PONTES",
      "house": "",
      "postcode": "4700-129",
      "city": "BRAGA",
      "lon": "-8.448658022515025",
      "lat": "41.557223938681894"
    },
    {
      "id": "pt.ine.add.PTCONT.689491",
      "street": "R TAPADA",
      "house": "20",
      "postcode": "4700-482",
      "city": "BRAGA",
      "lon": "-8.446421922669792",
      "lat": "41.55587949128479"
    },
    {
      "id": "pt.ine.add.PTCONT.693085",
      "street": "R 5 DE OUTUBRO",
      "house": "257",
      "postcode": "4700-260",
      "city": "BRAGA",
      "lon": "-8.445748224711778",
      "lat": "41.55786214897545"
    },
    {
      "id": "pt.ine.add.PTCONT.693086",
      "street": "R TOURIDO",
      "house": "42",
      "postcode": "4700-298",
      "city": "BRAGA",
      "lon": "-8.445366007194576",
      "lat": "41.55565726981909"
    },
    {
      "id": "pt.ine.add.PTCONT.694715",
      "street": "R ARMENIO REIS",
      "house": "",
      "postcode": "4700-267",
      "city": "BRAGA",
      "lon": "-8.448133262664216",
      "lat": "41.557774605923015"
    },
    {
      "id": "pt.ine.add.PTCONT.695418",
      "street": "R ARMENIO REIS",
      "house": "",
      "postcode": "4700-267",
      "city": "BRAGA",
      "lon": "-8.447834896181924",
      "lat": "41.55804553525825"
    },
    {
      "id": "pt.ine.add.PTCONT.695438",
      "street": "R RIBEIRA",
      "house": "15",
      "postcode": "4700-483",
      "city": "BRAGA",
      "lon": "-8.445555582798642",
      "lat": "41.55519756372331"
    },
    {
      "id": "pt.ine.add.PTCONT.698324",
      "street": "R ARMENIO REIS",
      "house": "6",
      "postcode": "4700-267",
      "city": "BRAGA",
      "lon": "-8.447928346345977",
      "lat": "41.557541069785174"
    },
    {
      "id": "pt.ine.add.PTCONT.703201",
      "street": "R ARMENIO REIS",
      "house": "8",
      "postcode": "4700-267",
      "city": "BRAGA",
      "lon": "-8.447999962621665",
      "lat": "41.55747784747901"
    },
    {
      "id": "pt.ine.add.PTCONT.710244",
      "street": "R 5 DE OUTUBRO",
      "house": "361",
      "postcode": "4700-260",
      "city": "BRAGA",
      "lon": "-8.446790816142412",
      "lat": "41.558493612492875"
    },
    {
      "id": "pt.ine.add.PTCONT.713378",
      "street": "R DR FRANCISCO FERNANDES DUARTE",
      "house": "49",
      "postcode": "4700-267",
      "city": "BRAGA",
      "lon": "-8.448458182948716",
      "lat": "41.558034823873896"
    },
    {
      "id": "pt.ine.add.PTCONT.715286",
      "street": "R 5 DE OUTUBRO",
      "house": "275",
      "postcode": "4700-260",
      "city": "BRAGA",
      "lon": "-8.44594062607302",
      "lat": "41.557987678113975"
    },
    {
      "id": "pt.ine.add.PTCONT.716263",
      "street": "R ARMENIO REIS",
      "house": "13",
      "postcode": "4700-267",
      "city": "BRAGA",
      "lon": "-8.448384509927026",
      "lat": "41.55767487614346"
    },
    {
      "id": "pt.ine.add.PTCONT.716266",
      "street": "R D LUCINDA BARBOSA",
      "house": "17",
      "postcode": "4700-266",
      "city": "BRAGA",
      "lon": "-8.447790266977321",
      "lat": "41.55872994186923"
    },
    {
      "id": "pt.ine.add.PTCONT.718691",
      "street": "R TAPADA",
      "house": "16",
      "postcode": "4700-482",
      "city": "BRAGA",
      "lon": "-8.446242208666966",
      "lat": "41.55589798830758"
    },
    {
      "id": "pt.ine.add.PTCONT.719073",
      "street": "R ARMENIO REIS",
      "house": "17",
      "postcode": "4700-267",
      "city": "BRAGA",
      "lon": "-8.447834459373892",
      "lat": "41.55795549901773"
    },
    {
      "id": "pt.ine.add.PTCONT.719256",
      "street": "R DEVESA DE TOURIDO",
      "house": "26",
      "postcode": "4700-484",
      "city": "BRAGA",
      "lon": "-8.446441939088276",
      "lat": "41.555060095701755"
    },
    {
      "id": "pt.ine.add.PTCONT.719257",
      "street": "R TAPADA",
      "house": "12",
      "postcode": "4700-482",
      "city": "BRAGA",
      "lon": "-8.446062494559968",
      "lat": "41.55591648504978"
    },
    {
      "id": "pt.ine.add.PTCONT.725297",
      "street": "R RIBEIRA",
      "house": "16",
      "postcode": "4700-483",
      "city": "BRAGA",
      "lon": "-8.445974549438889",
      "lat": "41.55507937582829"
    },
    {
      "id": "pt.ine.add.PTCONT.731047",
      "street": "R RIBEIRA",
      "house": "9",
      "postcode": "4700-483",
      "city": "BRAGA",
      "lon": "-8.445592540011479",
      "lat": "41.55540454950395"
    },
    {
      "id": "pt.ine.add.PTCONT.731048",
      "street": "R TOURIDO",
      "house": "54",
      "postcode": "4700-298",
      "city": "BRAGA",
      "lon": "-8.444990221502158",
      "lat": "41.55478492608036"
    },
    {
      "id": "pt.ine.add.PTCONT.737180",
      "street": "R RIBEIRA",
      "house": "3",
      "postcode": "4700-483",
      "city": "BRAGA",
      "lon": "-8.445617510785123",
      "lat": "41.555611567841396"
    },
    {
      "id": "pt.ine.add.PTCONT.742226",
      "street": "R RIBEIRA",
      "house": "27",
      "postcode": "4700-483",
      "city": "BRAGA",
      "lon": "-8.44544497266267",
      "lat": "41.55463062804918"
    },
    {
      "id": "pt.ine.add.PTCONT.746987",
      "street": "R 5 DE OUTUBRO",
      "house": "453",
      "postcode": "4700-260",
      "city": "BRAGA",
      "lon": "-8.447744457776308",
      "lat": "41.55917125058788"
    },
    {
      "id": "pt.ine.add.PTCONT.749224",
      "street": "R 5 DE OUTUBRO",
      "house": "427",
      "postcode": "4700-260",
      "city": "BRAGA",
      "lon": "-8.447530294025626",
      "lat": "41.55903225948677"
    },
    {
      "id": "pt.ine.add.PTCONT.749230",
      "street": "R DEVESA DE TOURIDO",
      "house": "12",
      "postcode": "4700-484",
      "city": "BRAGA",
      "lon": "-8.44645453445193",
      "lat": "41.55518611385587"
    },
    {
      "id": "pt.ine.add.PTCONT.755271",
      "street": "R DR FRANCISCO FERNANDES DUARTE",
      "house": "37",
      "postcode": "4700-267",
      "city": "BRAGA",
      "lon": "-8.448257535335335",
      "lat": "41.558444748055855"
    },
    {
      "id": "pt.ine.add.PTCONT.757989",
      "street": "R 5 DE OUTUBRO",
      "house": "255",
      "postcode": "4700-260",
      "city": "BRAGA",
      "lon": "-8.445616236550999",
      "lat": "41.557835496526934"
    },
    {
      "id": "pt.ine.add.PTCONT.762368",
      "street": "R DEVESA DE TOURIDO",
      "house": "4",
      "postcode": "4700-484",
      "city": "BRAGA",
      "lon": "-8.446491885938679",
      "lat": "41.555474132001216"
    },
    {
      "id": "pt.ine.add.PTCONT.764328",
      "street": "R ARMENIO REIS",
      "house": "29",
      "postcode": "4700-267",
      "city": "BRAGA",
      "lon": "-8.447488403970327",
      "lat": "41.558280580422206"
    },
    {
      "id": "pt.ine.add.PTCONT.773261",
      "street": "R RIBEIRA",
      "house": "13",
      "postcode": "4700-483",
      "city": "BRAGA",
      "lon": "-8.445567872934923",
      "lat": "41.555260556565564"
    },
    {
      "id": "pt.ine.add.PTCONT.776202",
      "street": "TV TOURIDO",
      "house": "",
      "postcode": "4700-486",
      "city": "BRAGA",
      "lon": "-8.446160691049407",
      "lat": "41.55639341633126"
    },
    {
      "id": "pt.ine.add.PTCONT.785166",
      "street": "R 5 DE OUTUBRO",
      "house": "11F",
      "postcode": "4700-260",
      "city": "BRAGA",
      "lon": "-8.447439108094493",
      "lat": "41.55898458276962"
    },
    {
      "id": "pt.ine.add.PTCONT.785174",
      "street": "R 5 DE OUTUBRO",
      "house": "237",
      "postcode": "4700-260",
      "city": "BRAGA",
      "lon": "-8.445376104695173",
      "lat": "41.557755115191554"
    },
    {
      "id": "pt.ine.add.PTCONT.786939",
      "street": "R 5 DE OUTUBRO",
      "house": "413",
      "postcode": "4700-260",
      "city": "BRAGA",
      "lon": "-8.447383660001373",
      "lat": "41.55892913622099"
    },
    {
      "id": "pt.ine.add.PTCONT.791055",
      "street": "R 5 DE OUTUBRO",
      "house": "347",
      "postcode": "4700-260",
      "city": "BRAGA",
      "lon": "-8.446649737189587",
      "lat": "41.558372907723125"
    },
    {
      "id": "pt.ine.add.PTCONT.793110",
      "street": "R ARMÉNIO REIS",
      "house": "A5",
      "postcode": "4700-267",
      "city": "BRAGA",
      "lon": "-8.448192979391987",
      "lat": "41.55772942358676"
    },
    {
      "id": "pt.ine.add.PTCONT.795706",
      "street": "R D LUCINDA BARBOSA",
      "house": "19",
      "postcode": "4700-266",
      "city": "BRAGA",
      "lon": "-8.447820889058848",
      "lat": "41.55868007817183"
    },
    {
      "id": "pt.ine.add.PTCONT.795707",
      "street": "R 5 DE OUTUBRO",
      "house": "327",
      "postcode": "4700-260",
      "city": "BRAGA",
      "lon": "-8.446457376806396",
      "lat": "41.55825638341312"
    },
    {
      "id": "pt.ine.add.PTCONT.799207",
      "street": "R NASCIMENTO PONTES",
      "house": "",
      "postcode": "4700-129",
      "city": "BRAGA",
      "lon": "-8.448850646680164",
      "lat": "41.55739448107332"
    },
    {
      "id": "pt.ine.add.PTCONT.800203",
      "street": "R D LUCINDA BARBOSA",
      "house": "1",
      "postcode": "4700-266",
      "city": "BRAGA",
      "lon": "-8.448100826364632",
      "lat": "41.558868995308906"
    },
    {
      "id": "pt.ine.add.PTCONT.809630",
      "street": "R NASCIMENTO PONTES",
      "house": "16",
      "postcode": "4700-129",
      "city": "BRAGA",
      "lon": "-8.448730294786687",
      "lat": "41.55729577028887"
    },
    {
      "id": "pt.ine.add.PTCONT.812454",
      "street": "R ARMENIO REIS",
      "house": "12",
      "postcode": "4700-267",
      "city": "BRAGA",
      "lon": "-8.448214941809326",
      "lat": "41.55731519116612"
    },
    {
      "id": "pt.ine.add.PTCONT.812462",
      "street": "R DEVESA DE TOURIDO",
      "house": "10",
      "postcode": "4700-484",
      "city": "BRAGA",
      "lon": "-8.446478812069257",
      "lat": "41.555249073933815"
    },
    {
      "id": "pt.ine.add.PTCONT.817304",
      "street": "R 5 DE OUTUBRO",
      "house": "479",
      "postcode": "4700-260",
      "city": "BRAGA",
      "lon": "-8.447983031813004",
      "lat": "41.55929426753508"
    },
    {
      "id": "pt.ine.add.PTCONT.817626",
      "street": "R D LUCINDA BARBOSA",
      "house": "15",
      "postcode": "4700-266",
      "city": "BRAGA",
      "lon": "-8.447745481000167",
      "lat": "41.558819203274346"
    },
    {
      "id": "pt.ine.add.PTCONT.818795",
      "street": "R ARMENIO REIS",
      "house": "2",
      "postcode": "4700-267",
      "city": "BRAGA",
      "lon": "-8.447689347904868",
      "lat": "41.55769478752622"
    },
    {
      "id": "pt.ine.add.PTCONT.818796",
      "street": "R 5 DE OUTUBRO",
      "house": "301",
      "postcode": "4700-260",
      "city": "BRAGA",
      "lon": "-8.446288904471386",
      "lat": "41.55812178623277"
    },
    {
      "id": "pt.ine.add.PTCONT.823691",
      "street": "R TAPADA",
      "house": "14",
      "postcode": "4700-482",
      "city": "BRAGA",
      "lon": "-8.446158344992996",
      "lat": "41.555907220397465"
    },
    {
      "id": "pt.ine.add.PTCONT.827244",
      "street": "R 5 DE OUTUBRO",
      "house": "317",
      "postcode": "4700-260",
      "city": "BRAGA",
      "lon": "-8.446397006156323",
      "lat": "41.558166510475914"
    },
    {
      "id": "pt.ine.add.PTCONT.830171",
      "street": "R TOURIDO",
      "house": "56",
      "postcode": "4700-298",
      "city": "BRAGA",
      "lon": "-8.444954002264536",
      "lat": "41.55473100181634"
    },
    {
      "id": "pt.ine.add.PTCONT.830172",
      "street": "R TAPADA",
      "house": "10",
      "postcode": "4700-482",
      "city": "BRAGA",
      "lon": "-8.445978587415686",
      "lat": "41.55591671337981"
    },
    {
      "id": "pt.ine.add.PTCONT.831975",
      "street": "R RIO TORTO",
      "house": "52",
      "postcode": "4705-360",
      "city": "BRAGA",
      "lon": "-8.452175328217209",
      "lat": "41.5558186522383"
    },
    {
      "id": "pt.ine.add.PTCONT.832316",
      "street": "R RIBEIRA",
      "house": "14",
      "postcode": "4700-483",
      "city": "BRAGA",
      "lon": "-8.44598697021864",
      "lat": "41.55516937951607"
    },
    {
      "id": "pt.ine.add.PTCONT.833109",
      "street": "R 5 DE OUTUBRO",
      "house": "445",
      "postcode": "4700-260",
      "city": "BRAGA",
      "lon": "-8.44767555339655",
      "lat": "41.55914004756108"
    },
    {
      "id": "pt.ine.add.PTCONT.833112",
      "street": "R D LUCINDA BARBOSA",
      "house": "43",
      "postcode": "4700-266",
      "city": "BRAGA",
      "lon": "-8.447885072777739",
      "lat": "41.55850458881445"
    },
    {
      "id": "pt.ine.add.PTCONT.833124",
      "street": "R TOURIDO",
      "house": "46",
      "postcode": "4700-298",
      "city": "BRAGA",
      "lon": "-8.44528041079903",
      "lat": "41.5553063560616"
    },
    {
      "id": "pt.ine.add.PTCONT.836221",
      "street": "TV TOURIDO",
      "house": "3",
      "postcode": "4700-486",
      "city": "BRAGA",
      "lon": "-8.445655856446068",
      "lat": "41.55610666971792"
    },
    {
      "id": "pt.ine.add.PTCONT.839772",
      "street": "R RIBEIRA",
      "house": "",
      "postcode": "4700-483",
      "city": "BRAGA",
      "lon": "-8.44560483022406",
      "lat": "41.55546754233971"
    },
    {
      "id": "pt.ine.add.PTCONT.843426",
      "street": "R RIBEIRA",
      "house": "8",
      "postcode": "4700-483",
      "city": "BRAGA",
      "lon": "-8.446023885364816",
      "lat": "41.55536736152459"
    },
    {
      "id": "pt.ine.add.PTCONT.847118",
      "street": "R TOURIDO",
      "house": "58",
      "postcode": "4700-298",
      "city": "BRAGA",
      "lon": "-8.44495365605691",
      "lat": "41.55465897276254"
    }
  ]
}