{
  "data": {
    "distrito": "Braga",
    "concelho": "Vila Nova de Famalicão",
    "freguesia": "Fradelos",
    "OBJECTID": 1466,
    "BGRI2021": "03121500227",
    "DT21": "03",
    "DTMN21": "0312",
    "DTMNFR21": "031215",
    "DTMNFRSEC21": "031215002",
    "SECNUM21": "002",
    "SSNUM21": "27",
    "SECSSNUM21": "00227",
    "OBJECTID_1": 30603,
    "DT": "03",
    "CC": "12",
    "fr": "15",
    "SEC": "002",
    "SS": "27"
  },
  "addresses": [
    {
      "id": "pt.ine.add.PTCONT.463734",
      "street": "TV LAMEIRAS",
      "house": "",
      "postcode": "4760-485",
      "city": "FRADELOS VNF",
      "lon": "-8.608158731492887",
      "lat": "41.37520269628431"
    },
    {
      "id": "pt.ine.add.PTCONT.472602",
      "street": "R GAGO COUTINHO",
      "house": "56",
      "postcode": "4760-485",
      "city": "FRADELOS VNF",
      "lon": "-8.609874717693925",
      "lat": "41.3711978190045"
    },
    {
      "id": "pt.ine.add.PTCONT.475816",
      "street": "URB ALDEIA NOVA",
      "house": "193",
      "postcode": "4760-485",
      "city": "FRADELOS VNF",
      "lon": "-8.608353155197452",
      "lat": "41.373995356371864"
    },
    {
      "id": "pt.ine.add.PTCONT.476375",
      "street": "URB LAMEIRAS",
      "house": "41",
      "postcode": "4760-485",
      "city": "FRADELOS VNF",
      "lon": "-8.607576685512461",
      "lat": "41.375709321997356"
    },
    {
      "id": "pt.ine.add.PTCONT.476861",
      "street": "R LAMEIRO",
      "house": "557",
      "postcode": "4760-485",
      "city": "FRADELOS VNF",
      "lon": "-8.606658693006445",
      "lat": "41.37604625156914"
    },
    {
      "id": "pt.ine.add.PTCONT.484923",
      "street": "URB LAMEIRAS",
      "house": "37",
      "postcode": "4760-485",
      "city": "FRADELOS VNF",
      "lon": "-8.607456366946895",
      "lat": "41.37560176993722"
    },
    {
      "id": "pt.ine.add.PTCONT.490465",
      "street": "URB LAMEIRAS",
      "house": "7",
      "postcode": "4760-485",
      "city": "FRADELOS VNF",
      "lon": "-8.607865764497312",
      "lat": "41.37436653255623"
    },
    {
      "id": "pt.ine.add.PTCONT.490476",
      "street": "TV LAMEIRAS",
      "house": "16",
      "postcode": "4760-485",
      "city": "FRADELOS VNF",
      "lon": "-8.607883151655228",
      "lat": "41.375113793514615"
    },
    {
      "id": "pt.ine.add.PTCONT.491950",
      "street": "URB LAMEIRAS",
      "house": "5",
      "postcode": "4760-485",
      "city": "FRADELOS VNF",
      "lon": "-8.607613833056295",
      "lat": "41.37424151552123"
    },
    {
      "id": "pt.ine.add.PTCONT.495578",
      "street": "TV LAMEIRAS",
      "house": "",
      "postcode": "4760-485",
      "city": "FRADELOS VNF",
      "lon": "-8.608453892313886",
      "lat": "41.37469725299188"
    },
    {
      "id": "pt.ine.add.PTCONT.495579",
      "street": "R LUSIADA",
      "house": "",
      "postcode": "4760-485",
      "city": "FRADELOS VNF",
      "lon": "-8.609300470972412",
      "lat": "41.37112816456577"
    },
    {
      "id": "pt.ine.add.PTCONT.499300",
      "street": "TV LAMEIRAS",
      "house": "1",
      "postcode": "4760-485",
      "city": "FRADELOS VNF",
      "lon": "-8.607986146922197",
      "lat": "41.37448308795846"
    },
    {
      "id": "pt.ine.add.PTCONT.499303",
      "street": "URB ALDEIA NOVA",
      "house": "151",
      "postcode": "4760-485",
      "city": "FRADELOS VNF",
      "lon": "-8.608506512571257",
      "lat": "41.37371559863235"
    },
    {
      "id": "pt.ine.add.PTCONT.499304",
      "street": "URB ALDEIA NOVA",
      "house": "90",
      "postcode": "4760-485",
      "city": "FRADELOS VNF",
      "lon": "-8.607680774384155",
      "lat": "41.37358394677016"
    },
    {
      "id": "pt.ine.add.PTCONT.502343",
      "street": "R GAGO COUTINHO",
      "house": "42",
      "postcode": "4760-485",
      "city": "FRADELOS VNF",
      "lon": "-8.609886078574768",
      "lat": "41.37111673581351"
    },
    {
      "id": "pt.ine.add.PTCONT.505329",
      "street": "TV LAMEIRAS",
      "house": "",
      "postcode": "4760-485",
      "city": "FRADELOS VNF",
      "lon": "-8.608075517121035",
      "lat": "41.37526606782907"
    },
    {
      "id": "pt.ine.add.PTCONT.505331",
      "street": "URB ALDEIA NOVA",
      "house": "141",
      "postcode": "4760-485",
      "city": "FRADELOS VNF",
      "lon": "-8.60839867347603",
      "lat": "41.373680028042216"
    },
    {
      "id": "pt.ine.add.PTCONT.508027",
      "street": "TV LAMEIRAS",
      "house": "",
      "postcode": "4760-485",
      "city": "FRADELOS VNF",
      "lon": "-8.608562913287143",
      "lat": "41.374894890784795"
    },
    {
      "id": "pt.ine.add.PTCONT.508039",
      "street": "R GAGO COUTINHO",
      "house": "122",
      "postcode": "4760-485",
      "city": "FRADELOS VNF",
      "lon": "-8.610807541842489",
      "lat": "41.37126598264079"
    },
    {
      "id": "pt.ine.add.PTCONT.513409",
      "street": "TV LAMEIRAS",
      "house": "11",
      "postcode": "4760-485",
      "city": "FRADELOS VNF",
      "lon": "-8.607736701899135",
      "lat": "41.37470021326552"
    },
    {
      "id": "pt.ine.add.PTCONT.522387",
      "street": "URB ALDEIA NOVA",
      "house": "",
      "postcode": "4760-485",
      "city": "FRADELOS VNF",
      "lon": "-8.608281830075244",
      "lat": "41.37404967496647"
    },
    {
      "id": "pt.ine.add.PTCONT.526517",
      "street": "URB LAMEIRAS",
      "house": "8",
      "postcode": "4760-485",
      "city": "FRADELOS VNF",
      "lon": "-8.607887182853393",
      "lat": "41.37402429184163"
    },
    {
      "id": "pt.ine.add.PTCONT.529324",
      "street": "URB ALDEIA NOVA",
      "house": "122",
      "postcode": "4760-485",
      "city": "FRADELOS VNF",
      "lon": "-8.608053150215364",
      "lat": "41.3738345227765"
    },
    {
      "id": "pt.ine.add.PTCONT.531769",
      "street": "TV LAMEIRAS",
      "house": "20",
      "postcode": "4760-485",
      "city": "FRADELOS VNF",
      "lon": "-8.60772828300637",
      "lat": "41.375186464423344"
    },
    {
      "id": "pt.ine.add.PTCONT.533873",
      "street": "TV LAMEIRAS",
      "house": "3",
      "postcode": "4760-485",
      "city": "FRADELOS VNF",
      "lon": "-8.607926839584248",
      "lat": "41.3745463607443"
    },
    {
      "id": "pt.ine.add.PTCONT.533874",
      "street": "R GAGO COUTINHO",
      "house": "144",
      "postcode": "4760-485",
      "city": "FRADELOS VNF",
      "lon": "-8.610973823184985",
      "lat": "41.3711212280555"
    },
    {
      "id": "pt.ine.add.PTCONT.544027",
      "street": "R QUINTA",
      "house": "463",
      "postcode": "4760-485",
      "city": "FRADELOS VNF",
      "lon": "-8.60621537244453",
      "lat": "41.37590401093314"
    },
    {
      "id": "pt.ine.add.PTCONT.544035",
      "street": "R VASCO DA GAMA",
      "house": "186",
      "postcode": "4760-485",
      "city": "FRADELOS VNF",
      "lon": "-8.60963041638881",
      "lat": "41.37211724019605"
    },
    {
      "id": "pt.ine.add.PTCONT.549997",
      "street": "R GAGO COUTINHO",
      "house": "60",
      "postcode": "4760-485",
      "city": "FRADELOS VNF",
      "lon": "-8.610018608347346",
      "lat": "41.371260250869916"
    },
    {
      "id": "pt.ine.add.PTCONT.551827",
      "street": "R QUINTA",
      "house": "413",
      "postcode": "4760-485",
      "city": "FRADELOS VNF",
      "lon": "-8.606534458085122",
      "lat": "41.37539847423955"
    },
    {
      "id": "pt.ine.add.PTCONT.566206",
      "street": "TV LAMEIRAS",
      "house": "",
      "postcode": "4760-485",
      "city": "FRADELOS VNF",
      "lon": "-8.608491521809894",
      "lat": "41.374940205768134"
    },
    {
      "id": "pt.ine.add.PTCONT.582315",
      "street": "TV LAMEIRAS",
      "house": "17",
      "postcode": "4760-485",
      "city": "FRADELOS VNF",
      "lon": "-8.607451460986319",
      "lat": "41.37492648959028"
    },
    {
      "id": "pt.ine.add.PTCONT.585274",
      "street": "TV LAMEIRAS",
      "house": "125",
      "postcode": "4760-485",
      "city": "FRADELOS VNF",
      "lon": "-8.607790209476974",
      "lat": "41.375483341241164"
    },
    {
      "id": "pt.ine.add.PTCONT.587766",
      "street": "TV LAMEIRAS",
      "house": "101",
      "postcode": "4760-485",
      "city": "FRADELOS VNF",
      "lon": "-8.608432149005992",
      "lat": "41.37499447507192"
    },
    {
      "id": "pt.ine.add.PTCONT.587772",
      "street": "R GAGO COUTINHO",
      "house": "543",
      "postcode": "4760-485",
      "city": "FRADELOS VNF",
      "lon": "-8.609754338028605",
      "lat": "41.37108126549703"
    },
    {
      "id": "pt.ine.add.PTCONT.591298",
      "street": "R DAS LAMEIRAS",
      "house": "",
      "postcode": "4760-485",
      "city": "FRADELOS VNF",
      "lon": "-8.608375089317727",
      "lat": "41.37508736198468"
    },
    {
      "id": "pt.ine.add.PTCONT.602176",
      "street": "URB LAMEIRAS",
      "house": "1",
      "postcode": "4760-485",
      "city": "FRADELOS VNF",
      "lon": "-8.60724184884593",
      "lat": "41.37404496055555"
    },
    {
      "id": "pt.ine.add.PTCONT.605476",
      "street": "R LUSIADA",
      "house": "284",
      "postcode": "4760-485",
      "city": "FRADELOS VNF",
      "lon": "-8.609645451345818",
      "lat": "41.37090163617102"
    },
    {
      "id": "pt.ine.add.PTCONT.608676",
      "street": "TV LAMEIRAS",
      "house": "123",
      "postcode": "4760-485",
      "city": "FRADELOS VNF",
      "lon": "-8.607861471096617",
      "lat": "41.375420019217096"
    },
    {
      "id": "pt.ine.add.PTCONT.610933",
      "street": "TV LAMEIRAS",
      "house": "15",
      "postcode": "4760-485",
      "city": "FRADELOS VNF",
      "lon": "-8.607522918598026",
      "lat": "41.37489017898676"
    },
    {
      "id": "pt.ine.add.PTCONT.619796",
      "street": "URB ALDEIA NOVA",
      "house": "99",
      "postcode": "4760-485",
      "city": "FRADELOS VNF",
      "lon": "-8.608014344274654",
      "lat": "41.37342950247847"
    },
    {
      "id": "pt.ine.add.PTCONT.623664",
      "street": "URB ALDEIA NOVA",
      "house": "127",
      "postcode": "4760-485",
      "city": "FRADELOS VNF",
      "lon": "-8.608242694987206",
      "lat": "41.37359963607142"
    },
    {
      "id": "pt.ine.add.PTCONT.627967",
      "street": "TV LAMEIRAS",
      "house": "13",
      "postcode": "4760-485",
      "city": "FRADELOS VNF",
      "lon": "-8.607570338868456",
      "lat": "41.3748359594317"
    },
    {
      "id": "pt.ine.add.PTCONT.627968",
      "street": "URB LAMEIRAS",
      "house": "",
      "postcode": "4760-485",
      "city": "FRADELOS VNF",
      "lon": "-8.607682933927881",
      "lat": "41.37388107019234"
    },
    {
      "id": "pt.ine.add.PTCONT.636219",
      "street": "R VASCO DA GAMA",
      "house": "120",
      "postcode": "4760-485",
      "city": "FRADELOS VNF",
      "lon": "-8.608975839408261",
      "lat": "41.37250712138049"
    },
    {
      "id": "pt.ine.add.PTCONT.640851",
      "street": "TV LAMEIRAS",
      "house": "",
      "postcode": "4760-485",
      "city": "FRADELOS VNF",
      "lon": "-8.607368704075965",
      "lat": "41.37505288679755"
    },
    {
      "id": "pt.ine.add.PTCONT.640869",
      "street": "R GAGO COUTINHO",
      "house": "76",
      "postcode": "4760-485",
      "city": "FRADELOS VNF",
      "lon": "-8.610019200163572",
      "lat": "41.37134128453737"
    },
    {
      "id": "pt.ine.add.PTCONT.643916",
      "street": "R QUINTA",
      "house": "137",
      "postcode": "4760-485",
      "city": "FRADELOS VNF",
      "lon": "-8.607247590706132",
      "lat": "41.37318955592938"
    },
    {
      "id": "pt.ine.add.PTCONT.646688",
      "street": "URB ALDEIA NOVA",
      "house": "218",
      "postcode": "4760-485",
      "city": "FRADELOS VNF",
      "lon": "-8.608175169717883",
      "lat": "41.37417617146951"
    },
    {
      "id": "pt.ine.add.PTCONT.658895",
      "street": "TV LAMEIRAS",
      "house": "12",
      "postcode": "4760-485",
      "city": "FRADELOS VNF",
      "lon": "-8.608085177910475",
      "lat": "41.3749508876838"
    },
    {
      "id": "pt.ine.add.PTCONT.667740",
      "street": "TV LAMEIRAS",
      "house": "4",
      "postcode": "4760-485",
      "city": "FRADELOS VNF",
      "lon": "-8.608382566514814",
      "lat": "41.37475157164594"
    },
    {
      "id": "pt.ine.add.PTCONT.670781",
      "street": "R VASCO DA GAMA",
      "house": "104",
      "postcode": "4760-485",
      "city": "FRADELOS VNF",
      "lon": "-8.608785513332938",
      "lat": "41.372633964423514"
    },
    {
      "id": "pt.ine.add.PTCONT.678296",
      "street": "R GAGO COUTINHO",
      "house": "22",
      "postcode": "4760-485",
      "city": "FRADELOS VNF",
      "lon": "-8.6097536151063",
      "lat": "41.37098222433948"
    },
    {
      "id": "pt.ine.add.PTCONT.681717",
      "street": "URB LAMEIRAS",
      "house": "35",
      "postcode": "4760-485",
      "city": "FRADELOS VNF",
      "lon": "-8.607384319886537",
      "lat": "41.37555704686153"
    },
    {
      "id": "pt.ine.add.PTCONT.684868",
      "street": "TV LAMEIRAS",
      "house": "24",
      "postcode": "4760-485",
      "city": "FRADELOS VNF",
      "lon": "-8.607561918728587",
      "lat": "41.37532221057262"
    },
    {
      "id": "pt.ine.add.PTCONT.687919",
      "street": "URB LAMEIRAS",
      "house": "",
      "postcode": "4760-485",
      "city": "FRADELOS VNF",
      "lon": "-8.607445704872319",
      "lat": "41.37413416054786"
    },
    {
      "id": "pt.ine.add.PTCONT.687922",
      "street": "TV LAMEIRAS",
      "house": "109",
      "postcode": "4760-485",
      "city": "FRADELOS VNF",
      "lon": "-8.608360822866343",
      "lat": "41.375048793711514"
    },
    {
      "id": "pt.ine.add.PTCONT.696814",
      "street": "TV LAMEIRAS",
      "house": "18",
      "postcode": "4760-485",
      "city": "FRADELOS VNF",
      "lon": "-8.60785976890311",
      "lat": "41.375185922045524"
    },
    {
      "id": "pt.ine.add.PTCONT.699737",
      "street": "URB LAMEIRAS",
      "house": "39",
      "postcode": "4760-485",
      "city": "FRADELOS VNF",
      "lon": "-8.607516526180069",
      "lat": "41.37565554598352"
    },
    {
      "id": "pt.ine.add.PTCONT.699740",
      "street": "R URBANIZAÇÃO DAS LAMEIRAS",
      "house": "119",
      "postcode": "4760-485",
      "city": "FRADELOS VNF",
      "lon": "-8.608004124899225",
      "lat": "41.37531138251107"
    },
    {
      "id": "pt.ine.add.PTCONT.702740",
      "street": "URB LAMEIRAS",
      "house": "111",
      "postcode": "4760-485",
      "city": "FRADELOS VNF",
      "lon": "-8.608289562135699",
      "lat": "41.37511211604415"
    },
    {
      "id": "pt.ine.add.PTCONT.711634",
      "street": "TV LAMEIRAS",
      "house": "23",
      "postcode": "4760-485",
      "city": "FRADELOS VNF",
      "lon": "-8.607285489121502",
      "lat": "41.375116257775694"
    },
    {
      "id": "pt.ine.add.PTCONT.712209",
      "street": "URB ALDEIA NOVA",
      "house": "105",
      "postcode": "4760-485",
      "city": "FRADELOS VNF",
      "lon": "-8.608062548995214",
      "lat": "41.373483327595544"
    },
    {
      "id": "pt.ine.add.PTCONT.717776",
      "street": "URB LAMEIRAS",
      "house": "31",
      "postcode": "4760-485",
      "city": "FRADELOS VNF",
      "lon": "-8.607228076599345",
      "lat": "41.375440638607486"
    },
    {
      "id": "pt.ine.add.PTCONT.721347",
      "street": "URB ALDEIA NOVA",
      "house": "211",
      "postcode": "4760-485",
      "city": "FRADELOS VNF",
      "lon": "-8.608222523414991",
      "lat": "41.37411294790586"
    },
    {
      "id": "pt.ine.add.PTCONT.726666",
      "street": "R LUSIADA",
      "house": "543",
      "postcode": "4760-485",
      "city": "FRADELOS VNF",
      "lon": "-8.611711645465615",
      "lat": "41.37067696517635"
    },
    {
      "id": "pt.ine.add.PTCONT.731133",
      "street": "R VASCO DA GAMA",
      "house": "140",
      "postcode": "4760-485",
      "city": "FRADELOS VNF",
      "lon": "-8.609154343277478",
      "lat": "41.372398334950574"
    },
    {
      "id": "pt.ine.add.PTCONT.733157",
      "street": "R VASCO DA GAMA",
      "house": "",
      "postcode": "4760-485",
      "city": "FRADELOS VNF",
      "lon": "-8.609758084138393",
      "lat": "41.37159447874055"
    },
    {
      "id": "pt.ine.add.PTCONT.735568",
      "street": "R QUINTA",
      "house": "151",
      "postcode": "4760-485",
      "city": "FRADELOS VNF",
      "lon": "-8.607248440643327",
      "lat": "41.373306604567496"
    },
    {
      "id": "pt.ine.add.PTCONT.738468",
      "street": "TV LAMEIRAS",
      "house": "101",
      "postcode": "4760-485",
      "city": "FRADELOS VNF",
      "lon": "-8.608646126712928",
      "lat": "41.37483151888854"
    },
    {
      "id": "pt.ine.add.PTCONT.741472",
      "street": "TV LAMEIRAS",
      "house": "9",
      "postcode": "4760-485",
      "city": "FRADELOS VNF",
      "lon": "-8.60778412185472",
      "lat": "41.37464599362225"
    },
    {
      "id": "pt.ine.add.PTCONT.741489",
      "street": "URB ALDEIA NOVA",
      "house": "79",
      "postcode": "4760-485",
      "city": "FRADELOS VNF",
      "lon": "-8.607882141774407",
      "lat": "41.37333100387023"
    },
    {
      "id": "pt.ine.add.PTCONT.747074",
      "street": "R VASCO DA GAMA",
      "house": "170",
      "postcode": "4760-485",
      "city": "FRADELOS VNF",
      "lon": "-8.609452176809238",
      "lat": "41.37226204232176"
    },
    {
      "id": "pt.ine.add.PTCONT.754118",
      "street": "TV LAMEIRAS",
      "house": "121",
      "postcode": "4760-485",
      "city": "FRADELOS VNF",
      "lon": "-8.607932798057258",
      "lat": "41.375365700886135"
    },
    {
      "id": "pt.ine.add.PTCONT.756571",
      "street": "TV LAMEIRAS",
      "house": "",
      "postcode": "4760-485",
      "city": "FRADELOS VNF",
      "lon": "-8.608215942637877",
      "lat": "41.374851303787835"
    },
    {
      "id": "pt.ine.add.PTCONT.759298",
      "street": "TV LAMEIRAS",
      "house": "10",
      "postcode": "4760-485",
      "city": "FRADELOS VNF",
      "lon": "-8.608204382528848",
      "lat": "41.374905375563316"
    },
    {
      "id": "pt.ine.add.PTCONT.760364",
      "street": "TV LAMEIRAS",
      "house": "22",
      "postcode": "4760-485",
      "city": "FRADELOS VNF",
      "lon": "-8.607729002963273",
      "lat": "41.37528550553744"
    },
    {
      "id": "pt.ine.add.PTCONT.760365",
      "street": "R LUSIADA",
      "house": "26",
      "postcode": "4760-485",
      "city": "FRADELOS VNF",
      "lon": "-8.60752746058988",
      "lat": "41.37222497323014"
    },
    {
      "id": "pt.ine.add.PTCONT.760366",
      "street": "URB ALDEIA NOVA",
      "house": "73",
      "postcode": "4760-485",
      "city": "FRADELOS VNF",
      "lon": "-8.607809966030501",
      "lat": "41.37326827355043"
    },
    {
      "id": "pt.ine.add.PTCONT.774605",
      "street": "R QUINTA",
      "house": "",
      "postcode": "4760-485",
      "city": "FRADELOS VNF",
      "lon": "-8.607369016190987",
      "lat": "41.373450171876094"
    },
    {
      "id": "pt.ine.add.PTCONT.777551",
      "street": "R QUINTA",
      "house": "201",
      "postcode": "4760-485",
      "city": "FRADELOS VNF",
      "lon": "-8.606995082239191",
      "lat": "41.37463123760353"
    },
    {
      "id": "pt.ine.add.PTCONT.777554",
      "street": "TV LAMEIRAS",
      "house": "4",
      "postcode": "4760-485",
      "city": "FRADELOS VNF",
      "lon": "-8.608335146982663",
      "lat": "41.37480579153256"
    },
    {
      "id": "pt.ine.add.PTCONT.781418",
      "street": "R DAS LAMEIRAS",
      "house": "",
      "postcode": "4760-485",
      "city": "FRADELOS VNF",
      "lon": "-8.608406314474248",
      "lat": "41.37502528544603"
    },
    {
      "id": "pt.ine.add.PTCONT.780826",
      "street": "URB ALDEIA NOVA",
      "house": "118",
      "postcode": "4760-485",
      "city": "FRADELOS VNF",
      "lon": "-8.6079089283615",
      "lat": "41.37372706980291"
    },
    {
      "id": "pt.ine.add.PTCONT.784439",
      "street": "ZN TOLEDO",
      "house": "",
      "postcode": "4760-485",
      "city": "FRADELOS VNF",
      "lon": "-8.609336459851715",
      "lat": "41.37114602366531"
    },
    {
      "id": "pt.ine.add.PTCONT.789365",
      "street": "URB LAMEIRAS",
      "house": "33",
      "postcode": "4760-485",
      "city": "FRADELOS VNF",
      "lon": "-8.607312207530915",
      "lat": "41.37550332000207"
    },
    {
      "id": "pt.ine.add.PTCONT.789374",
      "street": "URB ALDEIA NOVA",
      "house": "133",
      "postcode": "4760-485",
      "city": "FRADELOS VNF",
      "lon": "-8.608302721951633",
      "lat": "41.37363540425295"
    },
    {
      "id": "pt.ine.add.PTCONT.792420",
      "street": "TV LAMEIRAS",
      "house": "19",
      "postcode": "4760-485",
      "city": "FRADELOS VNF",
      "lon": "-8.60741618999896",
      "lat": "41.37500767104468"
    },
    {
      "id": "pt.ine.add.PTCONT.793723",
      "street": "URB LAMEIRAS",
      "house": "179",
      "postcode": "4760-485",
      "city": "FRADELOS VNF",
      "lon": "-8.607334726768315",
      "lat": "41.37366640943328"
    },
    {
      "id": "pt.ine.add.PTCONT.801560",
      "street": "URB ALDEIA NOVA",
      "house": "165",
      "postcode": "4760-485",
      "city": "FRADELOS VNF",
      "lon": "-8.608578492785432",
      "lat": "41.37375131728765"
    },
    {
      "id": "pt.ine.add.PTCONT.807922",
      "street": "R LUSIADA",
      "house": "270",
      "postcode": "4760-485",
      "city": "FRADELOS VNF",
      "lon": "-8.609526386406008",
      "lat": "41.370965157255455"
    },
    {
      "id": "pt.ine.add.PTCONT.808554",
      "street": "R LUSIADA",
      "house": "501",
      "postcode": "4760-485",
      "city": "FRADELOS VNF",
      "lon": "-8.611387017427711",
      "lat": "41.37041719841678"
    },
    {
      "id": "pt.ine.add.PTCONT.822797",
      "street": "R VASCO DA GAMA",
      "house": "258",
      "postcode": "4760-485",
      "city": "FRADELOS VNF",
      "lon": "-8.609505568676452",
      "lat": "41.37138843207859"
    },
    {
      "id": "pt.ine.add.PTCONT.834517",
      "street": "TV LAMEIRAS",
      "house": "",
      "postcode": "4760-485",
      "city": "FRADELOS VNF",
      "lon": "-8.607879354349372",
      "lat": "41.37459157670782"
    },
    {
      "id": "pt.ine.add.PTCONT.837640",
      "street": "TV LAMEIRAS",
      "house": "14",
      "postcode": "4760-485",
      "city": "FRADELOS VNF",
      "lon": "-8.607990468957697",
      "lat": "41.37507733466789"
    },
    {
      "id": "pt.ine.add.PTCONT.837641",
      "street": "URB ALDEIA NOVA",
      "house": "91",
      "postcode": "4760-485",
      "city": "FRADELOS VNF",
      "lon": "-8.607954121224747",
      "lat": "41.373366722922576"
    },
    {
      "id": "pt.ine.add.PTCONT.848664",
      "street": "URB LAMEIRAS",
      "house": "2",
      "postcode": "4760-485",
      "city": "FRADELOS VNF",
      "lon": "-8.607502984392001",
      "lat": "41.37379177206538"
    }
  ]
}