{
  "data": {
    "distrito": "Leiria",
    "concelho": "Peniche",
    "freguesia": "Peniche",
    "OBJECTID": 463,
    "BGRI2021": "10140701728",
    "DT21": "10",
    "DTMN21": "1014",
    "DTMNFR21": "101407",
    "DTMNFRSEC21": "101407017",
    "SECNUM21": "017",
    "SSNUM21": "28",
    "SECSSNUM21": "01728",
    "OBJECTID_1": 94774,
    "DT": "10",
    "CC": "14",
    "fr": "07",
    "SEC": "017",
    "SS": "28"
  },
  "addresses": [
    {
      "id": "pt.ine.add.PTCONT.1980879",
      "street": "LG POCINHO",
      "house": "4",
      "postcode": "2520-240",
      "city": "PENICHE",
      "lon": "-9.377999271596302",
      "lat": "39.36554997226289"
    },
    {
      "id": "pt.ine.add.PTCONT.1992235",
      "street": "LG MACAU",
      "house": "27",
      "postcode": "2520-230",
      "city": "PENICHE",
      "lon": "-9.378994721023153",
      "lat": "39.36671920389323"
    },
    {
      "id": "pt.ine.add.PTCONT.2003199",
      "street": "R OPERARIAS CONSERVEIRAS",
      "house": "11",
      "postcode": "2520-639",
      "city": "PENICHE",
      "lon": "-9.378326574100425",
      "lat": "39.36633906533244"
    },
    {
      "id": "pt.ine.add.PTCONT.2014061",
      "street": "R OPERARIAS CONSERVEIRAS",
      "house": "13",
      "postcode": "2520-639",
      "city": "PENICHE",
      "lon": "-9.378385379625088",
      "lat": "39.3663834698155"
    },
    {
      "id": "pt.ine.add.PTCONT.2014062",
      "street": "R OPERARIAS CONSERVEIRAS",
      "house": "7",
      "postcode": "2520-639",
      "city": "PENICHE",
      "lon": "-9.378220564412477",
      "lat": "39.366250132131185"
    },
    {
      "id": "pt.ine.add.PTCONT.2026231",
      "street": "R LIBERDADE",
      "house": "24",
      "postcode": "2520-322",
      "city": "PENICHE",
      "lon": "-9.379412844875237",
      "lat": "39.36674174635393"
    },
    {
      "id": "pt.ine.add.PTCONT.2031613",
      "street": "R OPERARIAS CONSERVEIRAS",
      "house": "9",
      "postcode": "2520-639",
      "city": "PENICHE",
      "lon": "-9.378279529734307",
      "lat": "39.36630354172352"
    },
    {
      "id": "pt.ine.add.PTCONT.2051229",
      "street": "LG MACAU",
      "house": "22",
      "postcode": "2520-230",
      "city": "PENICHE",
      "lon": "-9.379301314780438",
      "lat": "39.36699513027253"
    },
    {
      "id": "pt.ine.add.PTCONT.2063321",
      "street": "LG POCINHO",
      "house": "6",
      "postcode": "2520-240",
      "city": "PENICHE",
      "lon": "-9.378059515404775",
      "lat": "39.36567542242213"
    },
    {
      "id": "pt.ine.add.PTCONT.2068800",
      "street": "R LIBERDADE",
      "house": "26",
      "postcode": "2520-322",
      "city": "PENICHE",
      "lon": "-9.37948437331547",
      "lat": "39.36684906133469"
    },
    {
      "id": "pt.ine.add.PTCONT.2069615",
      "street": "R OPERARIAS CONSERVEIRAS",
      "house": "5",
      "postcode": "2520-639",
      "city": "PENICHE",
      "lon": "-9.378161599180789",
      "lat": "39.36619672250704"
    },
    {
      "id": "pt.ine.add.PTCONT.2081397",
      "street": "LG MACAU",
      "house": "5",
      "postcode": "2520-230",
      "city": "PENICHE",
      "lon": "-9.378253522803874",
      "lat": "39.3667991920487"
    },
    {
      "id": "pt.ine.add.PTCONT.2084770",
      "street": "LG POCINHO",
      "house": "8",
      "postcode": "2520-240",
      "city": "PENICHE",
      "lon": "-9.378074154726498",
      "lat": "39.36584639432897"
    },
    {
      "id": "pt.ine.add.PTCONT.2095027",
      "street": "R OPERARIAS CONSERVEIRAS",
      "house": "17",
      "postcode": "2520-639",
      "city": "PENICHE",
      "lon": "-9.37845994543654",
      "lat": "39.36666188144811"
    },
    {
      "id": "pt.ine.add.PTCONT.2095442",
      "street": "LG MACAU",
      "house": "28",
      "postcode": "2520-230",
      "city": "PENICHE",
      "lon": "-9.378775898032293",
      "lat": "39.36681161437576"
    },
    {
      "id": "pt.ine.add.PTCONT.2114952",
      "street": "R PESCADORES",
      "house": "13",
      "postcode": "2520-426",
      "city": "PENICHE",
      "lon": "-9.37784524135436",
      "lat": "39.366677465726184"
    },
    {
      "id": "pt.ine.add.PTCONT.2117053",
      "street": "LG MACAU",
      "house": "22",
      "postcode": "2520-230",
      "city": "PENICHE",
      "lon": "-9.379159858916323",
      "lat": "39.36687055052698"
    },
    {
      "id": "pt.ine.add.PTCONT.2124337",
      "street": "R DOS PESCADORES",
      "house": "14",
      "postcode": "2520-426",
      "city": "PENICHE",
      "lon": "-9.377797557479383",
      "lat": "39.36660592170872"
    },
    {
      "id": "pt.ine.add.PTCONT.2143218",
      "street": "LG MACAU",
      "house": "18",
      "postcode": "2520-230",
      "city": "PENICHE",
      "lon": "-9.379223947534534",
      "lat": "39.36721212116499"
    },
    {
      "id": "pt.ine.add.PTCONT.2143219",
      "street": "R PESCADORES",
      "house": "12",
      "postcode": "2520-426",
      "city": "PENICHE",
      "lon": "-9.377857961774502",
      "lat": "39.366740376994905"
    },
    {
      "id": "pt.ine.add.PTCONT.2158517",
      "street": "LG MACAU",
      "house": "19",
      "postcode": "2520-230",
      "city": "PENICHE",
      "lon": "-9.37916770171293",
      "lat": "39.36731179790387"
    },
    {
      "id": "pt.ine.add.PTCONT.2160782",
      "street": "R OPERARIAS CONSERVEIRAS",
      "house": "1",
      "postcode": "2520-639",
      "city": "PENICHE",
      "lon": "-9.378055749827404",
      "lat": "39.366116794200366"
    },
    {
      "id": "pt.ine.add.PTCONT.2167408",
      "street": "R LIBERDADE",
      "house": "32",
      "postcode": "2520-322",
      "city": "PENICHE",
      "lon": "-9.379567983551585",
      "lat": "39.36698326713039"
    },
    {
      "id": "pt.ine.add.PTCONT.2171641",
      "street": "R TIMOR",
      "house": "1",
      "postcode": "2520-395",
      "city": "PENICHE",
      "lon": "-9.379295636263045",
      "lat": "39.36732844129805"
    },
    {
      "id": "pt.ine.add.PTCONT.2172691",
      "street": "R 1 DE MAIO",
      "house": "9",
      "postcode": "2520-267",
      "city": "PENICHE",
      "lon": "-9.379583907797288",
      "lat": "39.36722627912203"
    },
    {
      "id": "pt.ine.add.PTCONT.2192834",
      "street": "R 1 DE MAIO",
      "house": "7",
      "postcode": "2520-267",
      "city": "PENICHE",
      "lon": "-9.379540704754104",
      "lat": "39.36740687717211"
    },
    {
      "id": "pt.ine.add.PTCONT.2192835",
      "street": "R OPERARIAS CONSERVEIRAS",
      "house": "3",
      "postcode": "2520-639",
      "city": "PENICHE",
      "lon": "-9.378114554993944",
      "lat": "39.36616119882767"
    },
    {
      "id": "pt.ine.add.PTCONT.2196094",
      "street": "LG MACAU",
      "house": "29",
      "postcode": "2520-230",
      "city": "PENICHE",
      "lon": "-9.37871853188279",
      "lat": "39.36684825555727"
    },
    {
      "id": "pt.ine.add.PTCONT.2211764",
      "street": "LG MACAU",
      "house": "30",
      "postcode": "2520-230",
      "city": "PENICHE",
      "lon": "-9.378580436927098",
      "lat": "39.36691278114843"
    },
    {
      "id": "pt.ine.add.PTCONT.2211766",
      "street": "R OPERARIAS CONSERVEIRAS",
      "house": "21",
      "postcode": "2520-639",
      "city": "PENICHE",
      "lon": "-9.378678608405693",
      "lat": "39.36656046650734"
    },
    {
      "id": "pt.ine.add.PTCONT.2222665",
      "street": "LG POCINHO",
      "house": "5",
      "postcode": "2520-240",
      "city": "PENICHE",
      "lon": "-9.378023752858537",
      "lat": "39.36562176446237"
    },
    {
      "id": "pt.ine.add.PTCONT.2222666",
      "street": "LG POCINHO",
      "house": "7",
      "postcode": "2520-240",
      "city": "PENICHE",
      "lon": "-9.378084156686382",
      "lat": "39.36575621966001"
    },
    {
      "id": "pt.ine.add.PTCONT.2224680",
      "street": "R PESCADORES",
      "house": "26",
      "postcode": "2520-426",
      "city": "PENICHE",
      "lon": "-9.37775220232978",
      "lat": "39.36601196040633"
    },
    {
      "id": "pt.ine.add.PTCONT.2224681",
      "street": "R PESCADORES",
      "house": "26",
      "postcode": "2520-426",
      "city": "PENICHE",
      "lon": "-9.37775220232978",
      "lat": "39.36601196040633"
    },
    {
      "id": "pt.ine.add.PTCONT.2224682",
      "street": "R PESCADORES",
      "house": "26",
      "postcode": "2520-426",
      "city": "PENICHE",
      "lon": "-9.37775220232978",
      "lat": "39.36601196040633"
    },
    {
      "id": "pt.ine.add.PTCONT.2224683",
      "street": "R PESCADORES",
      "house": "26",
      "postcode": "2520-426",
      "city": "PENICHE",
      "lon": "-9.37775220232978",
      "lat": "39.36601196040633"
    },
    {
      "id": "pt.ine.add.PTCONT.2224684",
      "street": "R PESCADORES",
      "house": "26",
      "postcode": "2520-426",
      "city": "PENICHE",
      "lon": "-9.37775220232978",
      "lat": "39.36601196040633"
    },
    {
      "id": "pt.ine.add.PTCONT.2224685",
      "street": "R PESCADORES",
      "house": "26",
      "postcode": "2520-426",
      "city": "PENICHE",
      "lon": "-9.37775220232978",
      "lat": "39.36601196040633"
    },
    {
      "id": "pt.ine.add.PTCONT.2224686",
      "street": "R PESCADORES",
      "house": "26",
      "postcode": "2520-426",
      "city": "PENICHE",
      "lon": "-9.37775220232978",
      "lat": "39.36601196040633"
    },
    {
      "id": "pt.ine.add.PTCONT.2225322",
      "street": "R PESCADORES",
      "house": "26",
      "postcode": "2520-426",
      "city": "PENICHE",
      "lon": "-9.37775220232978",
      "lat": "39.36601196040633"
    },
    {
      "id": "pt.ine.add.PTCONT.2227402",
      "street": "R LIBERDADE",
      "house": "34",
      "postcode": "2520-322",
      "city": "PENICHE",
      "lon": "-9.37961598971116",
      "lat": "39.36707282047875"
    },
    {
      "id": "pt.ine.add.PTCONT.2228533",
      "street": "R PESCADORES",
      "house": "24",
      "postcode": "2520-426",
      "city": "PENICHE",
      "lon": "-9.377851406452466",
      "lat": "39.36637116978821"
    },
    {
      "id": "pt.ine.add.PTCONT.2229696",
      "street": "R PESCADORES",
      "house": "28",
      "postcode": "2520-426",
      "city": "PENICHE",
      "lon": "-9.377681476701477",
      "lat": "39.36594966956653"
    },
    {
      "id": "pt.ine.add.PTCONT.2229697",
      "street": "R PESCADORES",
      "house": "28",
      "postcode": "2520-426",
      "city": "PENICHE",
      "lon": "-9.377681476701477",
      "lat": "39.36594966956653"
    },
    {
      "id": "pt.ine.add.PTCONT.2229698",
      "street": "R PESCADORES",
      "house": "28",
      "postcode": "2520-426",
      "city": "PENICHE",
      "lon": "-9.377681476701477",
      "lat": "39.36594966956653"
    },
    {
      "id": "pt.ine.add.PTCONT.2229699",
      "street": "R PESCADORES",
      "house": "28",
      "postcode": "2520-426",
      "city": "PENICHE",
      "lon": "-9.377681476701477",
      "lat": "39.36594966956653"
    },
    {
      "id": "pt.ine.add.PTCONT.2229700",
      "street": "R PESCADORES",
      "house": "28",
      "postcode": "2520-426",
      "city": "PENICHE",
      "lon": "-9.377681476701477",
      "lat": "39.36594966956653"
    },
    {
      "id": "pt.ine.add.PTCONT.2231669",
      "street": "R PESCADORES",
      "house": "28",
      "postcode": "2520-426",
      "city": "PENICHE",
      "lon": "-9.377681476701477",
      "lat": "39.36594966956653"
    },
    {
      "id": "pt.ine.add.PTCONT.2243996",
      "street": "R LIBERDADE",
      "house": "18",
      "postcode": "2520-322",
      "city": "PENICHE",
      "lon": "-9.379340356194835",
      "lat": "39.36658040103187"
    },
    {
      "id": "pt.ine.add.PTCONT.2247101",
      "street": "R DAS OPER√ÅRIAS CONSERVEIRAS",
      "house": "11",
      "postcode": "2520-639",
      "city": "PENICHE",
      "lon": "-9.378479812296073",
      "lat": "39.366723253459575"
    },
    {
      "id": "pt.ine.add.PTCONT.2263430",
      "street": "R OPERARIAS CONSERVEIRAS",
      "house": "19",
      "postcode": "2520-639",
      "city": "PENICHE",
      "lon": "-9.378563556391622",
      "lat": "39.3666157386424"
    },
    {
      "id": "pt.ine.add.PTCONT.2263739",
      "street": "R PESCADORES",
      "house": "26",
      "postcode": "2520-426",
      "city": "PENICHE",
      "lon": "-9.37775220232978",
      "lat": "39.36601196040633"
    },
    {
      "id": "pt.ine.add.PTCONT.2267539",
      "street": "R LIBERDADE",
      "house": "16",
      "postcode": "2520-322",
      "city": "PENICHE",
      "lon": "-9.3792451457253",
      "lat": "39.36644631929409"
    }
  ]
}