{
  "data": {
    "ilha": "Ilha da Madeira (Madeira)",
    "concelho": "Machico",
    "freguesia": "Porto da Cruz",
    "OBJECTID": 88,
    "BGRI2021": "31040400123",
    "DT21": "31",
    "DTMN21": "3104",
    "DTMNFR21": "310404",
    "DTMNFRSEC21": "310404001",
    "SECNUM21": "001",
    "SSNUM21": "23",
    "SECSSNUM21": "00123",
    "OBJECTID_1": 204430,
    "DT": "31",
    "CC": "04",
    "fr": "04",
    "SEC": "001",
    "SS": "23",
    "BGRI2021_1": "31040400123"
  },
  "addresses": [
    {
      "id": "pt.ine.add.MAD.30548",
      "street": "R CAP TELO MENEZES",
      "house": "",
      "postcode": "9225-220",
      "city": "PORTO DA CRUZ",
      "lon": "-16.83116003661517",
      "lat": "32.76216817513549"
    },
    {
      "id": "pt.ine.add.MAD.30549",
      "street": "SIT REFERTA",
      "house": "",
      "postcode": "9225-220",
      "city": "PORTO DA CRUZ",
      "lon": "-16.835675558022633",
      "lat": "32.7554281776704"
    },
    {
      "id": "pt.ine.add.MAD.30550",
      "street": "ESTR NSA SRA GUADALUPE",
      "house": "21",
      "postcode": "9225-220",
      "city": "PORTO DA CRUZ",
      "lon": "-16.836211277380055",
      "lat": "32.75552855232332"
    },
    {
      "id": "pt.ine.add.MAD.30551",
      "street": "SIT REFERTA",
      "house": "",
      "postcode": "9225-220",
      "city": "PORTO DA CRUZ",
      "lon": "-16.836238910124784",
      "lat": "32.75583478637654"
    },
    {
      "id": "pt.ine.add.MAD.30552",
      "street": "SIT REFERTA",
      "house": "",
      "postcode": "9225-220",
      "city": "PORTO DA CRUZ",
      "lon": "-16.836456567853844",
      "lat": "32.75603902819855"
    },
    {
      "id": "pt.ine.add.MAD.30553",
      "street": "SIT REFERTA",
      "house": "8",
      "postcode": "9225-220",
      "city": "PORTO DA CRUZ",
      "lon": "-16.836506904259885",
      "lat": "32.75693115096565"
    },
    {
      "id": "pt.ine.add.MAD.30554",
      "street": "SIT REFERTA",
      "house": "",
      "postcode": "9225-220",
      "city": "PORTO DA CRUZ",
      "lon": "-16.83641815861361",
      "lat": "32.75780727490466"
    },
    {
      "id": "pt.ine.add.MAD.30555",
      "street": "SIT REFERTA",
      "house": "",
      "postcode": "9225-220",
      "city": "PORTO DA CRUZ",
      "lon": "-16.83612124244502",
      "lat": "32.757901815050964"
    },
    {
      "id": "pt.ine.add.MAD.30556",
      "street": "SIT REFERTA",
      "house": "",
      "postcode": "9225-220",
      "city": "PORTO DA CRUZ",
      "lon": "-16.83602305336889",
      "lat": "32.758318118659346"
    },
    {
      "id": "pt.ine.add.MAD.31379",
      "street": "SIT REFERTA",
      "house": "24 A",
      "postcode": "9225-220",
      "city": "PORTO DA CRUZ",
      "lon": "-16.835445992208534",
      "lat": "32.758804570937514"
    },
    {
      "id": "pt.ine.add.MAD.31380",
      "street": "SIT REFERTA",
      "house": "24 A",
      "postcode": "9225-220",
      "city": "PORTO DA CRUZ",
      "lon": "-16.835445992208534",
      "lat": "32.758804570937514"
    },
    {
      "id": "pt.ine.add.MAD.31381",
      "street": "SIT REFERTA",
      "house": "",
      "postcode": "9225-220",
      "city": "PORTO DA CRUZ",
      "lon": "-16.834953918296705",
      "lat": "32.759271738209364"
    },
    {
      "id": "pt.ine.add.MAD.31382",
      "street": "SIT REFERTA",
      "house": "",
      "postcode": "9225-220",
      "city": "PORTO DA CRUZ",
      "lon": "-16.834644475699385",
      "lat": "32.759276270502205"
    },
    {
      "id": "pt.ine.add.MAD.31383",
      "street": "SIT REFERTA",
      "house": "",
      "postcode": "9225-220",
      "city": "PORTO DA CRUZ",
      "lon": "-16.834859549115002",
      "lat": "32.759354289631005"
    },
    {
      "id": "pt.ine.add.MAD.31384",
      "street": "CAM REFERTA CCI",
      "house": "",
      "postcode": "9225-220",
      "city": "PORTO DA CRUZ",
      "lon": "-16.834332314009494",
      "lat": "32.75966865004408"
    },
    {
      "id": "pt.ine.add.MAD.31385",
      "street": "SIT REFERTA",
      "house": "",
      "postcode": "9225-220",
      "city": "PORTO DA CRUZ",
      "lon": "-16.83431282220744",
      "lat": "32.75975912341133"
    },
    {
      "id": "pt.ine.add.MAD.31386",
      "street": "SIT REFERTA",
      "house": "",
      "postcode": "9225-220",
      "city": "PORTO DA CRUZ",
      "lon": "-16.834057839649088",
      "lat": "32.75981696959905"
    },
    {
      "id": "pt.ine.add.MAD.31387",
      "street": "SIT REFERTA",
      "house": "21",
      "postcode": "9225-220",
      "city": "PORTO DA CRUZ",
      "lon": "-16.832255120260847",
      "lat": "32.76039349667737"
    },
    {
      "id": "pt.ine.add.MAD.31388",
      "street": "SIT REFERTA",
      "house": "",
      "postcode": "9225-220",
      "city": "PORTO DA CRUZ",
      "lon": "-16.832024102857726",
      "lat": "32.76110034174057"
    },
    {
      "id": "pt.ine.add.MAD.31389",
      "street": "R NSA SRA BELEM",
      "house": "",
      "postcode": "9225-220",
      "city": "PORTO DA CRUZ",
      "lon": "-16.83197684434536",
      "lat": "32.76139865321487"
    },
    {
      "id": "pt.ine.add.MAD.31390",
      "street": "R NOSSA SENHORA DE BELÉM",
      "house": "5",
      "postcode": "9225-220",
      "city": "PORTO DA CRUZ",
      "lon": "-16.83228869617086",
      "lat": "32.7615113364861"
    },
    {
      "id": "pt.ine.add.MAD.31391",
      "street": "SIT REFERTA",
      "house": "",
      "postcode": "9225-220",
      "city": "PORTO DA CRUZ",
      "lon": "-16.83209939386638",
      "lat": "32.76164938724539"
    },
    {
      "id": "pt.ine.add.MAD.57211",
      "street": "SIT REFERTA",
      "house": "28",
      "postcode": "9225-220",
      "city": "PORTO DA CRUZ",
      "lon": "-16.835005235647042",
      "lat": "32.75917177977254"
    },
    {
      "id": "pt.ine.add.MAD.60790",
      "street": "SIT REFERTA",
      "house": "",
      "postcode": "9225-220",
      "city": "PORTO DA CRUZ",
      "lon": "-16.834587111000566",
      "lat": "32.75960178723138"
    },
    {
      "id": "pt.ine.add.MAD.68289",
      "street": "R NSA SRA BELEM",
      "house": "25",
      "postcode": "9225-220",
      "city": "PORTO DA CRUZ",
      "lon": "-16.8325645225637",
      "lat": "32.75986588050601"
    },
    {
      "id": "pt.ine.add.MAD.68290",
      "street": "R NSA SRA BELEM",
      "house": "15",
      "postcode": "9225-220",
      "city": "PORTO DA CRUZ",
      "lon": "-16.832276319748146",
      "lat": "32.7609072580919"
    },
    {
      "id": "pt.ine.add.MAD.69016",
      "street": "SIT REFERTA",
      "house": "",
      "postcode": "9225-220",
      "city": "PORTO DA CRUZ",
      "lon": "-16.83184657972475",
      "lat": "32.76129233263519"
    },
    {
      "id": "pt.ine.add.MAD.73942",
      "street": "CAM REFERTA CCI",
      "house": "CCI 506",
      "postcode": "9225-220",
      "city": "PORTO DA CRUZ",
      "lon": "-16.835259600691042",
      "lat": "32.75856379430204"
    },
    {
      "id": "pt.ine.add.MAD.75874",
      "street": "SIT REFERTA",
      "house": "",
      "postcode": "9225-220",
      "city": "PORTO DA CRUZ",
      "lon": "-16.83587218846722",
      "lat": "32.75824817932439"
    },
    {
      "id": "pt.ine.add.MAD.77422",
      "street": "CAM REFERTA",
      "house": "4",
      "postcode": "9225-220",
      "city": "PORTO DA CRUZ",
      "lon": "-16.836510354818365",
      "lat": "32.756579367406054"
    },
    {
      "id": "pt.ine.add.MAD.89006",
      "street": "SIT REFERTA",
      "house": "",
      "postcode": "9225-220",
      "city": "PORTO DA CRUZ",
      "lon": "-16.831769484146054",
      "lat": "32.76117621564042"
    },
    {
      "id": "pt.ine.add.MAD.96274",
      "street": "CAM REFERTA",
      "house": "",
      "postcode": "9225-220",
      "city": "PORTO DA CRUZ",
      "lon": "-16.836688346609517",
      "lat": "32.75589132959193"
    },
    {
      "id": "pt.ine.add.MAD.99668",
      "street": "SIT REFERTA",
      "house": "",
      "postcode": "9225-220",
      "city": "PORTO DA CRUZ",
      "lon": "-16.835278226333127",
      "lat": "32.75895132958469"
    },
    {
      "id": "pt.ine.add.MAD.100030",
      "street": "CAM REFERTA",
      "house": "",
      "postcode": "9225-220",
      "city": "PORTO DA CRUZ",
      "lon": "-16.836346613709125",
      "lat": "32.757961643160385"
    },
    {
      "id": "pt.ine.add.MAD.103506",
      "street": "SIT REFERTA",
      "house": "",
      "postcode": "9225-220",
      "city": "PORTO DA CRUZ",
      "lon": "-16.831409858037805",
      "lat": "32.76185788380096"
    },
    {
      "id": "pt.ine.add.MAD.103805",
      "street": "CAM REFERTA CCI",
      "house": "CCI 505",
      "postcode": "9225-220",
      "city": "PORTO DA CRUZ",
      "lon": "-16.835263485793583",
      "lat": "32.7587531320671"
    },
    {
      "id": "pt.ine.add.MAD.106635",
      "street": "SIT DA REFERTA",
      "house": "",
      "postcode": "9225-220",
      "city": "PORTO DA CRUZ",
      "lon": "-16.83513180073068",
      "lat": "32.759097775398125"
    },
    {
      "id": "pt.ine.add.MAD.106998",
      "street": "SIT REFERTA",
      "house": "",
      "postcode": "9225-220",
      "city": "PORTO DA CRUZ",
      "lon": "-16.832273407369982",
      "lat": "32.76128609018732"
    },
    {
      "id": "pt.ine.add.MAD.108065",
      "street": "SIT REFERTA",
      "house": "",
      "postcode": "9225-220",
      "city": "PORTO DA CRUZ",
      "lon": "-16.83198497092861",
      "lat": "32.761795361456485"
    },
    {
      "id": "pt.ine.add.MAD.111864",
      "street": "R NSA SRA BELEM",
      "house": "27",
      "postcode": "9225-220",
      "city": "PORTO DA CRUZ",
      "lon": "-16.832765414781065",
      "lat": "32.759772753526946"
    },
    {
      "id": "pt.ine.add.MAD.113177",
      "street": "R NSA SRA BELEM",
      "house": "29",
      "postcode": "9225-220",
      "city": "PORTO DA CRUZ",
      "lon": "-16.833267113285746",
      "lat": "32.75977443121714"
    },
    {
      "id": "pt.ine.add.MAD.120394",
      "street": "R NOSSA SRª DE BELÉM",
      "house": "3",
      "postcode": "9225-220",
      "city": "PORTO DA CRUZ",
      "lon": "-16.83231391690174",
      "lat": "32.7617003623101"
    },
    {
      "id": "pt.ine.add.MAD.122646",
      "street": "CAM REFERTA",
      "house": "",
      "postcode": "9225-220",
      "city": "PORTO DA CRUZ",
      "lon": "-16.83544229173493",
      "lat": "32.75862424927659"
    },
    {
      "id": "pt.ine.add.MAD.123567",
      "street": "R CAP TELO MENEZES",
      "house": "13",
      "postcode": "9225-200",
      "city": "PORTO DA CRUZ",
      "lon": "-16.831697229931798",
      "lat": "32.76181760685791"
    },
    {
      "id": "pt.ine.add.MAD.123851",
      "street": "R NSA SRA DE BÉLEM",
      "house": "11",
      "postcode": "9225-220",
      "city": "PORTO DA CRUZ",
      "lon": "-16.832280753051073",
      "lat": "32.76112364438954"
    },
    {
      "id": "pt.ine.add.MAD.124786",
      "street": "R NSA SRA BELEM",
      "house": "7",
      "postcode": "9225-220",
      "city": "PORTO DA CRUZ",
      "lon": "-16.832243611936654",
      "lat": "32.76139475156669"
    },
    {
      "id": "pt.ine.add.MAD.128315",
      "street": "R NSA SRA BELEM",
      "house": "1",
      "postcode": "9225-220",
      "city": "PORTO DA CRUZ",
      "lon": "-16.83230546290849",
      "lat": "32.761808711528694"
    }
  ]
}