{
  "data": {
    "distrito": "Faro",
    "concelho": "Lagoa",
    "freguesia": "União das freguesias de Lagoa e Carvoeiro",
    "OBJECTID": 152,
    "BGRI2021": "08060801011",
    "DT21": "08",
    "DTMN21": "0806",
    "DTMNFR21": "080608",
    "DTMNFRSEC21": "080608010",
    "SECNUM21": "010",
    "SSNUM21": "11",
    "SECSSNUM21": "01011",
    "OBJECTID_1": 67320,
    "DT": "08",
    "CC": "06",
    "fr": "08",
    "SEC": "010",
    "SS": "11"
  },
  "addresses": [
    {
      "id": "pt.ine.add.PTCONT.1466974",
      "street": "R BARTOLOMEU DIAS",
      "house": "3",
      "postcode": "8400-526",
      "city": "CARVOEIRO LGA",
      "lon": "-8.457774908216322",
      "lat": "37.09543267878005"
    },
    {
      "id": "pt.ine.add.PTCONT.1470024",
      "street": "R MOINHOS",
      "house": "",
      "postcode": "8400-504",
      "city": "CARVOEIRO LGA",
      "lon": "-8.459846852796279",
      "lat": "37.09594960511362"
    },
    {
      "id": "pt.ine.add.PTCONT.1470025",
      "street": "R MOINHOS",
      "house": "",
      "postcode": "8400-504",
      "city": "CARVOEIRO LGA",
      "lon": "-8.459846852796279",
      "lat": "37.09594960511362"
    },
    {
      "id": "pt.ine.add.PTCONT.1470026",
      "street": "R MOINHOS",
      "house": "",
      "postcode": "8400-504",
      "city": "CARVOEIRO LGA",
      "lon": "-8.459846852796279",
      "lat": "37.09594960511362"
    },
    {
      "id": "pt.ine.add.PTCONT.1470027",
      "street": "R MOINHOS",
      "house": "",
      "postcode": "8400-504",
      "city": "CARVOEIRO LGA",
      "lon": "-8.459846852796279",
      "lat": "37.09594960511362"
    },
    {
      "id": "pt.ine.add.PTCONT.1470028",
      "street": "R MOINHOS",
      "house": "",
      "postcode": "8400-504",
      "city": "CARVOEIRO LGA",
      "lon": "-8.459846852796279",
      "lat": "37.09594960511362"
    },
    {
      "id": "pt.ine.add.PTCONT.1470029",
      "street": "R MOINHOS",
      "house": "",
      "postcode": "8400-504",
      "city": "CARVOEIRO LGA",
      "lon": "-8.459846852796279",
      "lat": "37.09594960511362"
    },
    {
      "id": "pt.ine.add.PTCONT.1470030",
      "street": "R MOINHOS",
      "house": "",
      "postcode": "8400-504",
      "city": "CARVOEIRO LGA",
      "lon": "-8.459846852796279",
      "lat": "37.09594960511362"
    },
    {
      "id": "pt.ine.add.PTCONT.1470031",
      "street": "R MOINHOS",
      "house": "",
      "postcode": "8400-504",
      "city": "CARVOEIRO LGA",
      "lon": "-8.459846852796279",
      "lat": "37.09594960511362"
    },
    {
      "id": "pt.ine.add.PTCONT.1470032",
      "street": "R MOINHOS",
      "house": "",
      "postcode": "8400-504",
      "city": "CARVOEIRO LGA",
      "lon": "-8.459846852796279",
      "lat": "37.09594960511362"
    },
    {
      "id": "pt.ine.add.PTCONT.1470033",
      "street": "R MOINHOS",
      "house": "",
      "postcode": "8400-504",
      "city": "CARVOEIRO LGA",
      "lon": "-8.459846852796279",
      "lat": "37.09594960511362"
    },
    {
      "id": "pt.ine.add.PTCONT.1470034",
      "street": "R MOINHOS",
      "house": "",
      "postcode": "8400-504",
      "city": "CARVOEIRO LGA",
      "lon": "-8.459846852796279",
      "lat": "37.09594960511362"
    },
    {
      "id": "pt.ine.add.PTCONT.1470035",
      "street": "R MOINHOS",
      "house": "",
      "postcode": "8400-504",
      "city": "CARVOEIRO LGA",
      "lon": "-8.459846852796279",
      "lat": "37.09594960511362"
    },
    {
      "id": "pt.ine.add.PTCONT.1470036",
      "street": "R MOINHOS",
      "house": "",
      "postcode": "8400-504",
      "city": "CARVOEIRO LGA",
      "lon": "-8.459846852796279",
      "lat": "37.09594960511362"
    },
    {
      "id": "pt.ine.add.PTCONT.1470037",
      "street": "R MOINHOS",
      "house": "",
      "postcode": "8400-504",
      "city": "CARVOEIRO LGA",
      "lon": "-8.459846852796279",
      "lat": "37.09594960511362"
    },
    {
      "id": "pt.ine.add.PTCONT.1470038",
      "street": "R MOINHOS",
      "house": "",
      "postcode": "8400-504",
      "city": "CARVOEIRO LGA",
      "lon": "-8.459846852796279",
      "lat": "37.09594960511362"
    },
    {
      "id": "pt.ine.add.PTCONT.1470043",
      "street": "R MOINHOS",
      "house": "",
      "postcode": "8400-504",
      "city": "CARVOEIRO LGA",
      "lon": "-8.459846852796279",
      "lat": "37.09594960511362"
    },
    {
      "id": "pt.ine.add.PTCONT.1470044",
      "street": "R MOINHOS",
      "house": "",
      "postcode": "8400-504",
      "city": "CARVOEIRO LGA",
      "lon": "-8.459846852796279",
      "lat": "37.09594960511362"
    },
    {
      "id": "pt.ine.add.PTCONT.1470045",
      "street": "R MOINHOS",
      "house": "",
      "postcode": "8400-504",
      "city": "CARVOEIRO LGA",
      "lon": "-8.459846852796279",
      "lat": "37.09594960511362"
    },
    {
      "id": "pt.ine.add.PTCONT.1470046",
      "street": "R MOINHOS",
      "house": "",
      "postcode": "8400-504",
      "city": "CARVOEIRO LGA",
      "lon": "-8.459846852796279",
      "lat": "37.09594960511362"
    },
    {
      "id": "pt.ine.add.PTCONT.1470047",
      "street": "R MOINHOS",
      "house": "",
      "postcode": "8400-504",
      "city": "CARVOEIRO LGA",
      "lon": "-8.459846852796279",
      "lat": "37.09594960511362"
    },
    {
      "id": "pt.ine.add.PTCONT.1470048",
      "street": "R MOINHOS",
      "house": "",
      "postcode": "8400-504",
      "city": "CARVOEIRO LGA",
      "lon": "-8.459846852796279",
      "lat": "37.09594960511362"
    },
    {
      "id": "pt.ine.add.PTCONT.1470049",
      "street": "R MOINHOS",
      "house": "",
      "postcode": "8400-504",
      "city": "CARVOEIRO LGA",
      "lon": "-8.459846852796279",
      "lat": "37.09594960511362"
    },
    {
      "id": "pt.ine.add.PTCONT.1470050",
      "street": "R MOINHOS",
      "house": "",
      "postcode": "8400-504",
      "city": "CARVOEIRO LGA",
      "lon": "-8.459846852796279",
      "lat": "37.09594960511362"
    },
    {
      "id": "pt.ine.add.PTCONT.1470051",
      "street": "R MOINHOS",
      "house": "",
      "postcode": "8400-504",
      "city": "CARVOEIRO LGA",
      "lon": "-8.459846852796279",
      "lat": "37.09594960511362"
    },
    {
      "id": "pt.ine.add.PTCONT.1470052",
      "street": "R MOINHOS",
      "house": "",
      "postcode": "8400-504",
      "city": "CARVOEIRO LGA",
      "lon": "-8.459846852796279",
      "lat": "37.09594960511362"
    },
    {
      "id": "pt.ine.add.PTCONT.1470053",
      "street": "R MOINHOS",
      "house": "",
      "postcode": "8400-504",
      "city": "CARVOEIRO LGA",
      "lon": "-8.459846852796279",
      "lat": "37.09594960511362"
    },
    {
      "id": "pt.ine.add.PTCONT.1470054",
      "street": "R MOINHOS",
      "house": "",
      "postcode": "8400-504",
      "city": "CARVOEIRO LGA",
      "lon": "-8.459846852796279",
      "lat": "37.09594960511362"
    },
    {
      "id": "pt.ine.add.PTCONT.1470055",
      "street": "R MOINHOS",
      "house": "",
      "postcode": "8400-504",
      "city": "CARVOEIRO LGA",
      "lon": "-8.459846852796279",
      "lat": "37.09594960511362"
    },
    {
      "id": "pt.ine.add.PTCONT.1470058",
      "street": "R MOINHOS",
      "house": "",
      "postcode": "8400-504",
      "city": "CARVOEIRO LGA",
      "lon": "-8.459846852796279",
      "lat": "37.09594960511362"
    },
    {
      "id": "pt.ine.add.PTCONT.1470059",
      "street": "R MOINHOS",
      "house": "",
      "postcode": "8400-504",
      "city": "CARVOEIRO LGA",
      "lon": "-8.459846852796279",
      "lat": "37.09594960511362"
    },
    {
      "id": "pt.ine.add.PTCONT.1470060",
      "street": "R MOINHOS",
      "house": "",
      "postcode": "8400-504",
      "city": "CARVOEIRO LGA",
      "lon": "-8.459846852796279",
      "lat": "37.09594960511362"
    },
    {
      "id": "pt.ine.add.PTCONT.1470061",
      "street": "R MOINHOS",
      "house": "",
      "postcode": "8400-504",
      "city": "CARVOEIRO LGA",
      "lon": "-8.459846852796279",
      "lat": "37.09594960511362"
    },
    {
      "id": "pt.ine.add.PTCONT.1470062",
      "street": "R MOINHOS",
      "house": "",
      "postcode": "8400-504",
      "city": "CARVOEIRO LGA",
      "lon": "-8.459846852796279",
      "lat": "37.09594960511362"
    },
    {
      "id": "pt.ine.add.PTCONT.1470063",
      "street": "R MOINHOS",
      "house": "",
      "postcode": "8400-504",
      "city": "CARVOEIRO LGA",
      "lon": "-8.459846852796279",
      "lat": "37.09594960511362"
    },
    {
      "id": "pt.ine.add.PTCONT.1470064",
      "street": "R MOINHOS",
      "house": "",
      "postcode": "8400-504",
      "city": "CARVOEIRO LGA",
      "lon": "-8.459846852796279",
      "lat": "37.09594960511362"
    },
    {
      "id": "pt.ine.add.PTCONT.1470065",
      "street": "R MOINHOS",
      "house": "",
      "postcode": "8400-504",
      "city": "CARVOEIRO LGA",
      "lon": "-8.459846852796279",
      "lat": "37.09594960511362"
    },
    {
      "id": "pt.ine.add.PTCONT.1470066",
      "street": "R MOINHOS",
      "house": "",
      "postcode": "8400-504",
      "city": "CARVOEIRO LGA",
      "lon": "-8.459846852796279",
      "lat": "37.09594960511362"
    },
    {
      "id": "pt.ine.add.PTCONT.1470067",
      "street": "R MOINHOS",
      "house": "",
      "postcode": "8400-504",
      "city": "CARVOEIRO LGA",
      "lon": "-8.459846852796279",
      "lat": "37.09594960511362"
    },
    {
      "id": "pt.ine.add.PTCONT.1470068",
      "street": "R MOINHOS",
      "house": "",
      "postcode": "8400-504",
      "city": "CARVOEIRO LGA",
      "lon": "-8.459846852796279",
      "lat": "37.09594960511362"
    },
    {
      "id": "pt.ine.add.PTCONT.1470069",
      "street": "R MOINHOS",
      "house": "",
      "postcode": "8400-504",
      "city": "CARVOEIRO LGA",
      "lon": "-8.459846852796279",
      "lat": "37.09594960511362"
    },
    {
      "id": "pt.ine.add.PTCONT.1470070",
      "street": "R MOINHOS",
      "house": "",
      "postcode": "8400-504",
      "city": "CARVOEIRO LGA",
      "lon": "-8.459846852796279",
      "lat": "37.09594960511362"
    },
    {
      "id": "pt.ine.add.PTCONT.1470071",
      "street": "R MOINHOS",
      "house": "",
      "postcode": "8400-504",
      "city": "CARVOEIRO LGA",
      "lon": "-8.459846852796279",
      "lat": "37.09594960511362"
    },
    {
      "id": "pt.ine.add.PTCONT.1470072",
      "street": "R MOINHOS",
      "house": "",
      "postcode": "8400-504",
      "city": "CARVOEIRO LGA",
      "lon": "-8.459846852796279",
      "lat": "37.09594960511362"
    },
    {
      "id": "pt.ine.add.PTCONT.1471672",
      "street": "R MOINHOS",
      "house": "",
      "postcode": "8400-504",
      "city": "CARVOEIRO LGA",
      "lon": "-8.459846852796279",
      "lat": "37.09594960511362"
    },
    {
      "id": "pt.ine.add.PTCONT.1471673",
      "street": "R MOINHOS",
      "house": "",
      "postcode": "8400-504",
      "city": "CARVOEIRO LGA",
      "lon": "-8.459846852796279",
      "lat": "37.09594960511362"
    },
    {
      "id": "pt.ine.add.PTCONT.1471729",
      "street": "R MOINHOS",
      "house": "",
      "postcode": "8400-504",
      "city": "CARVOEIRO LGA",
      "lon": "-8.459846852796279",
      "lat": "37.09594960511362"
    },
    {
      "id": "pt.ine.add.PTCONT.1471776",
      "street": "R MOINHOS",
      "house": "",
      "postcode": "8400-504",
      "city": "CARVOEIRO LGA",
      "lon": "-8.459846852796279",
      "lat": "37.09594960511362"
    },
    {
      "id": "pt.ine.add.PTCONT.1475991",
      "street": "R BARTOLOMEU DIAS",
      "house": "31",
      "postcode": "8400-526",
      "city": "CARVOEIRO LGA",
      "lon": "-8.460193114634164",
      "lat": "37.09538098036699"
    },
    {
      "id": "pt.ine.add.PTCONT.1481022",
      "street": "URB ALDEIA DAS CHAMINÉS",
      "house": "",
      "postcode": "8400-566",
      "city": "CARVOEIRO LGA",
      "lon": "-8.460251060903255",
      "lat": "37.09577728860073"
    },
    {
      "id": "pt.ine.add.PTCONT.1531061",
      "street": "URB ALDEIA DAS CHAMINÉS",
      "house": "",
      "postcode": "8400-566",
      "city": "CARVOEIRO LGA",
      "lon": "-8.46099574749708",
      "lat": "37.09630685949642"
    },
    {
      "id": "pt.ine.add.PTCONT.1531062",
      "street": "URB ALDEIA DAS CHAMINÉS",
      "house": "",
      "postcode": "8400-566",
      "city": "CARVOEIRO LGA",
      "lon": "-8.46099574749708",
      "lat": "37.09630685949642"
    },
    {
      "id": "pt.ine.add.PTCONT.1531063",
      "street": "URB ALDEIA DAS CHAMINÉS",
      "house": "",
      "postcode": "8400-566",
      "city": "CARVOEIRO LGA",
      "lon": "-8.46099574749708",
      "lat": "37.09630685949642"
    },
    {
      "id": "pt.ine.add.PTCONT.1531064",
      "street": "URB ALDEIA DAS CHAMINÉS",
      "house": "",
      "postcode": "8400-566",
      "city": "CARVOEIRO LGA",
      "lon": "-8.46099574749708",
      "lat": "37.09630685949642"
    },
    {
      "id": "pt.ine.add.PTCONT.1531065",
      "street": "URB ALDEIA DAS CHAMINÉS",
      "house": "",
      "postcode": "8400-566",
      "city": "CARVOEIRO LGA",
      "lon": "-8.46099574749708",
      "lat": "37.09630685949642"
    },
    {
      "id": "pt.ine.add.PTCONT.1531066",
      "street": "URB ALDEIA DAS CHAMINÉS",
      "house": "",
      "postcode": "8400-566",
      "city": "CARVOEIRO LGA",
      "lon": "-8.46099574749708",
      "lat": "37.09630685949642"
    },
    {
      "id": "pt.ine.add.PTCONT.1531067",
      "street": "URB ALDEIA DAS CHAMINÉS",
      "house": "",
      "postcode": "8400-566",
      "city": "CARVOEIRO LGA",
      "lon": "-8.46099574749708",
      "lat": "37.09630685949642"
    },
    {
      "id": "pt.ine.add.PTCONT.1531158",
      "street": "URB ALDEIA DAS CHAMINÉS",
      "house": "",
      "postcode": "8400-566",
      "city": "CARVOEIRO LGA",
      "lon": "-8.46099574749708",
      "lat": "37.09630685949642"
    },
    {
      "id": "pt.ine.add.PTCONT.1531159",
      "street": "URB ALDEIA DAS CHAMINÉS",
      "house": "",
      "postcode": "8400-566",
      "city": "CARVOEIRO LGA",
      "lon": "-8.46099574749708",
      "lat": "37.09630685949642"
    },
    {
      "id": "pt.ine.add.PTCONT.1531160",
      "street": "URB ALDEIA DAS CHAMINÉS",
      "house": "",
      "postcode": "8400-566",
      "city": "CARVOEIRO LGA",
      "lon": "-8.46099574749708",
      "lat": "37.09630685949642"
    },
    {
      "id": "pt.ine.add.PTCONT.1532364",
      "street": "URB ALDEIA DAS CHAMINÉS",
      "house": "",
      "postcode": "8400-566",
      "city": "CARVOEIRO LGA",
      "lon": "-8.46099574749708",
      "lat": "37.09630685949642"
    },
    {
      "id": "pt.ine.add.PTCONT.1532389",
      "street": "URB ALDEIA DAS CHAMINÉS",
      "house": "",
      "postcode": "8400-566",
      "city": "CARVOEIRO LGA",
      "lon": "-8.46099574749708",
      "lat": "37.09630685949642"
    },
    {
      "id": "pt.ine.add.PTCONT.1532811",
      "street": "URB ALDEIA DAS CHAMINÉS",
      "house": "",
      "postcode": "8400-566",
      "city": "CARVOEIRO LGA",
      "lon": "-8.46099574749708",
      "lat": "37.09630685949642"
    },
    {
      "id": "pt.ine.add.PTCONT.1538951",
      "street": "URB ALDEIA DAS CHAMINÉS CASA MAURA ANA",
      "house": "",
      "postcode": "8400-566",
      "city": "CARVOEIRO LGA",
      "lon": "-8.459284546228005",
      "lat": "37.09597818500905"
    },
    {
      "id": "pt.ine.add.PTCONT.1541530",
      "street": "R MOINHOS",
      "house": "",
      "postcode": "8400-504",
      "city": "CARVOEIRO LGA",
      "lon": "-8.460434911664485",
      "lat": "37.096677844974266"
    },
    {
      "id": "pt.ine.add.PTCONT.1547065",
      "street": "URB VALE COVO",
      "house": "",
      "postcode": "8400-564",
      "city": "CARVOEIRO LGA",
      "lon": "-8.458362442608792",
      "lat": "37.09604379217656"
    },
    {
      "id": "pt.ine.add.PTCONT.1554587",
      "street": "R BARTOLOMEU DIAS",
      "house": "",
      "postcode": "8400-526",
      "city": "CARVOEIRO LGA",
      "lon": "-8.45867693697083",
      "lat": "37.09593480151965"
    },
    {
      "id": "pt.ine.add.PTCONT.1587212",
      "street": "R BARTOLOMEU DIAS",
      "house": "9",
      "postcode": "8400-526",
      "city": "CARVOEIRO LGA",
      "lon": "-8.457763006315957",
      "lat": "37.095279530501244"
    },
    {
      "id": "pt.ine.add.PTCONT.1601126",
      "street": "R BARTOLOMEU DIAS",
      "house": "",
      "postcode": "8400-526",
      "city": "CARVOEIRO LGA",
      "lon": "-8.457743507977021",
      "lat": "37.09598241369103"
    },
    {
      "id": "pt.ine.add.PTCONT.1604001",
      "street": "R BARTOLOMEU DIAS",
      "house": "",
      "postcode": "8400-526",
      "city": "CARVOEIRO LGA",
      "lon": "-8.457449473470199",
      "lat": "37.09561378208541"
    },
    {
      "id": "pt.ine.add.PTCONT.1604002",
      "street": "R MOINHOS",
      "house": "",
      "postcode": "8400-504",
      "city": "CARVOEIRO LGA",
      "lon": "-8.458862582546043",
      "lat": "37.097258855317705"
    },
    {
      "id": "pt.ine.add.PTCONT.1605766",
      "street": "R BARTOLOMEU DIAS",
      "house": "",
      "postcode": "8400-526",
      "city": "CARVOEIRO LGA",
      "lon": "-8.457426208605957",
      "lat": "37.0954336329371"
    },
    {
      "id": "pt.ine.add.PTCONT.1623970",
      "street": "R BARTOLOMEU DIAS",
      "house": "5",
      "postcode": "8400-526",
      "city": "CARVOEIRO LGA",
      "lon": "-8.457628871484042",
      "lat": "37.095478131703956"
    },
    {
      "id": "pt.ine.add.PTCONT.1657893",
      "street": "R MOINHOS",
      "house": "",
      "postcode": "8400-504",
      "city": "CARVOEIRO LGA",
      "lon": "-8.459613148461635",
      "lat": "37.09653594022443"
    },
    {
      "id": "pt.ine.add.PTCONT.1659053",
      "street": "R BARTOLOMEU DIAS",
      "house": "",
      "postcode": "8400-526",
      "city": "CARVOEIRO LGA",
      "lon": "-8.45875397943439",
      "lat": "37.09553812190021"
    },
    {
      "id": "pt.ine.add.PTCONT.1659060",
      "street": "R MOINHOS",
      "house": "",
      "postcode": "8400-504",
      "city": "CARVOEIRO LGA",
      "lon": "-8.459176000044009",
      "lat": "37.096897568496985"
    },
    {
      "id": "pt.ine.add.PTCONT.1673409",
      "street": "URB ALDEIA CHAMINES",
      "house": "1",
      "postcode": "8400-566",
      "city": "CARVOEIRO LGA",
      "lon": "-8.459147981885945",
      "lat": "37.09560912439845"
    },
    {
      "id": "pt.ine.add.PTCONT.1673410",
      "street": "URB ALDEIA CHAMINES",
      "house": "2",
      "postcode": "8400-566",
      "city": "CARVOEIRO LGA",
      "lon": "-8.459147981885945",
      "lat": "37.09560912439845"
    },
    {
      "id": "pt.ine.add.PTCONT.1673411",
      "street": "URB ALDEIA CHAMINES",
      "house": "3",
      "postcode": "8400-566",
      "city": "CARVOEIRO LGA",
      "lon": "-8.459147981885945",
      "lat": "37.09560912439845"
    },
    {
      "id": "pt.ine.add.PTCONT.1673412",
      "street": "URB ALDEIA CHAMINES",
      "house": "4",
      "postcode": "8400-566",
      "city": "CARVOEIRO LGA",
      "lon": "-8.459147981885945",
      "lat": "37.09560912439845"
    },
    {
      "id": "pt.ine.add.PTCONT.1673413",
      "street": "URB ALDEIA CHAMINES",
      "house": "5",
      "postcode": "8400-566",
      "city": "CARVOEIRO LGA",
      "lon": "-8.459147981885945",
      "lat": "37.09560912439845"
    },
    {
      "id": "pt.ine.add.PTCONT.1673414",
      "street": "URB ALDEIA CHAMINES",
      "house": "6",
      "postcode": "8400-566",
      "city": "CARVOEIRO LGA",
      "lon": "-8.459147981885945",
      "lat": "37.09560912439845"
    },
    {
      "id": "pt.ine.add.PTCONT.1673415",
      "street": "URB ALDEIA CHAMINES",
      "house": "8",
      "postcode": "8400-566",
      "city": "CARVOEIRO LGA",
      "lon": "-8.459147981885945",
      "lat": "37.09560912439845"
    },
    {
      "id": "pt.ine.add.PTCONT.1673416",
      "street": "URB ALDEIA CHAMINES",
      "house": "9",
      "postcode": "8400-566",
      "city": "CARVOEIRO LGA",
      "lon": "-8.459147981885945",
      "lat": "37.09560912439845"
    },
    {
      "id": "pt.ine.add.PTCONT.1673417",
      "street": "URB ALDEIA CHAMINES",
      "house": "10",
      "postcode": "8400-566",
      "city": "CARVOEIRO LGA",
      "lon": "-8.459147981885945",
      "lat": "37.09560912439845"
    },
    {
      "id": "pt.ine.add.PTCONT.1673418",
      "street": "URB ALDEIA CHAMINES",
      "house": "11",
      "postcode": "8400-566",
      "city": "CARVOEIRO LGA",
      "lon": "-8.459147981885945",
      "lat": "37.09560912439845"
    },
    {
      "id": "pt.ine.add.PTCONT.1673419",
      "street": "URB ALDEIA CHAMINES",
      "house": "13",
      "postcode": "8400-566",
      "city": "CARVOEIRO LGA",
      "lon": "-8.459147981885945",
      "lat": "37.09560912439845"
    },
    {
      "id": "pt.ine.add.PTCONT.1673420",
      "street": "URB ALDEIA CHAMINES",
      "house": "14",
      "postcode": "8400-566",
      "city": "CARVOEIRO LGA",
      "lon": "-8.459147981885945",
      "lat": "37.09560912439845"
    },
    {
      "id": "pt.ine.add.PTCONT.1673421",
      "street": "URB ALDEIA CHAMINES",
      "house": "15",
      "postcode": "8400-566",
      "city": "CARVOEIRO LGA",
      "lon": "-8.459147981885945",
      "lat": "37.09560912439845"
    },
    {
      "id": "pt.ine.add.PTCONT.1673422",
      "street": "URB ALDEIA CHAMINES",
      "house": "16",
      "postcode": "8400-566",
      "city": "CARVOEIRO LGA",
      "lon": "-8.459147981885945",
      "lat": "37.09560912439845"
    },
    {
      "id": "pt.ine.add.PTCONT.1673423",
      "street": "URB ALDEIA CHAMINES",
      "house": "17",
      "postcode": "8400-566",
      "city": "CARVOEIRO LGA",
      "lon": "-8.459147981885945",
      "lat": "37.09560912439845"
    },
    {
      "id": "pt.ine.add.PTCONT.1673424",
      "street": "ALDEIA CHAMINES",
      "house": "18",
      "postcode": "8400-564",
      "city": "CARVOEIRO LGA",
      "lon": "-8.459147981885945",
      "lat": "37.09560912439845"
    },
    {
      "id": "pt.ine.add.PTCONT.1673425",
      "street": "URB ALDEIA CHAMINES",
      "house": "19",
      "postcode": "8400-566",
      "city": "CARVOEIRO LGA",
      "lon": "-8.459147981885945",
      "lat": "37.09560912439845"
    },
    {
      "id": "pt.ine.add.PTCONT.1673426",
      "street": "URB ALDEIA CHAMINES",
      "house": "20",
      "postcode": "8400-566",
      "city": "CARVOEIRO LGA",
      "lon": "-8.459147981885945",
      "lat": "37.09560912439845"
    },
    {
      "id": "pt.ine.add.PTCONT.1673427",
      "street": "URB ALDEIA CHAMINES",
      "house": "21",
      "postcode": "8400-566",
      "city": "CARVOEIRO LGA",
      "lon": "-8.459147981885945",
      "lat": "37.09560912439845"
    },
    {
      "id": "pt.ine.add.PTCONT.1673428",
      "street": "URB ALDEIA CHAMINES",
      "house": "22",
      "postcode": "8400-566",
      "city": "CARVOEIRO LGA",
      "lon": "-8.459147981885945",
      "lat": "37.09560912439845"
    },
    {
      "id": "pt.ine.add.PTCONT.1673429",
      "street": "URB ALDEIA CHAMINES",
      "house": "23",
      "postcode": "8400-566",
      "city": "CARVOEIRO LGA",
      "lon": "-8.459147981885945",
      "lat": "37.09560912439845"
    },
    {
      "id": "pt.ine.add.PTCONT.1673430",
      "street": "URB ALDEIA CHAMINES",
      "house": "24",
      "postcode": "8400-566",
      "city": "CARVOEIRO LGA",
      "lon": "-8.459147981885945",
      "lat": "37.09560912439845"
    },
    {
      "id": "pt.ine.add.PTCONT.1673431",
      "street": "R MOINHOS CASA VIDEIRA",
      "house": "",
      "postcode": "8400-504",
      "city": "CARVOEIRO LGA",
      "lon": "-8.459147981885945",
      "lat": "37.09560912439845"
    },
    {
      "id": "pt.ine.add.PTCONT.1674946",
      "street": "URB ALDEIA CHAMINES",
      "house": "26",
      "postcode": "8400-566",
      "city": "CARVOEIRO LGA",
      "lon": "-8.459147981885945",
      "lat": "37.09560912439845"
    },
    {
      "id": "pt.ine.add.PTCONT.1674947",
      "street": "URB ALDEIA CHAMINES",
      "house": "12",
      "postcode": "8400-566",
      "city": "CARVOEIRO LGA",
      "lon": "-8.459147981885945",
      "lat": "37.09560912439845"
    },
    {
      "id": "pt.ine.add.PTCONT.1674984",
      "street": "URB ALDEIA CHAMINES",
      "house": "7",
      "postcode": "8400-566",
      "city": "CARVOEIRO LGA",
      "lon": "-8.459147981885945",
      "lat": "37.09560912439845"
    },
    {
      "id": "pt.ine.add.PTCONT.1681540",
      "street": "R BARTOLOMEU DIAS",
      "house": "",
      "postcode": "8400-526",
      "city": "CARVOEIRO LGA",
      "lon": "-8.457482527298861",
      "lat": "37.09545150017793"
    },
    {
      "id": "pt.ine.add.PTCONT.1701817",
      "street": "R BARTOLOMEU DIAS",
      "house": "",
      "postcode": "8400-526",
      "city": "CARVOEIRO LGA",
      "lon": "-8.460497363185059",
      "lat": "37.095506289736086"
    },
    {
      "id": "pt.ine.add.PTCONT.1707378",
      "street": "R BARTOLOMEU DIAS CASA CARAVELA",
      "house": "",
      "postcode": "8400-526",
      "city": "CARVOEIRO LGA",
      "lon": "-8.457630024300515",
      "lat": "37.09574844770886"
    },
    {
      "id": "pt.ine.add.PTCONT.1722483",
      "street": "R BARTOLOMEU DIAS",
      "house": "",
      "postcode": "8400-526",
      "city": "CARVOEIRO LGA",
      "lon": "-8.458978214057975",
      "lat": "37.09536630379386"
    },
    {
      "id": "pt.ine.add.PTCONT.1734351",
      "street": "R BARTOLOMEU DIAS",
      "house": "",
      "postcode": "8400-526",
      "city": "CARVOEIRO LGA",
      "lon": "-8.457358948726654",
      "lat": "37.09548788069807"
    },
    {
      "id": "pt.ine.add.PTCONT.1742334",
      "street": "R MOINHOS",
      "house": "",
      "postcode": "8400-504",
      "city": "CARVOEIRO LGA",
      "lon": "-8.460020341008274",
      "lat": "37.09705743529318"
    },
    {
      "id": "pt.ine.add.PTCONT.1755144",
      "street": "R BARTOLOMEU DIAS",
      "house": "10",
      "postcode": "8400-526",
      "city": "CARVOEIRO LGA",
      "lon": "-8.457672942638522",
      "lat": "37.095261755755615"
    },
    {
      "id": "pt.ine.add.PTCONT.1757343",
      "street": "R BARTOLOMEU DIAS",
      "house": "1",
      "postcode": "8400-526",
      "city": "CARVOEIRO LGA",
      "lon": "-8.457539345431222",
      "lat": "37.09558650433003"
    },
    {
      "id": "pt.ine.add.PTCONT.1771597",
      "street": "URB ALDEIA DAS CHAMINÉS",
      "house": "",
      "postcode": "8400-566",
      "city": "CARVOEIRO LGA",
      "lon": "-8.459228110876706",
      "lat": "37.095933287034896"
    },
    {
      "id": "pt.ine.add.PTCONT.1778658",
      "street": "R BARTOLOMEU DIAS",
      "house": "",
      "postcode": "8400-526",
      "city": "CARVOEIRO LGA",
      "lon": "-8.45931485379",
      "lat": "37.09517615483448"
    },
    {
      "id": "pt.ine.add.PTCONT.1786052",
      "street": "",
      "house": "",
      "postcode": "8400-552",
      "city": "CARVOEIRO LGA",
      "lon": "-8.45994032353393",
      "lat": "37.09676030486471"
    },
    {
      "id": "pt.ine.add.PTCONT.1831500",
      "street": "R BARTOLOMEU DIAS",
      "house": "4",
      "postcode": "8400-526",
      "city": "CARVOEIRO LGA",
      "lon": "-8.457696131161205",
      "lat": "37.09542388379078"
    },
    {
      "id": "pt.ine.add.PTCONT.1835313",
      "street": "R BARTOLOMEU DIAS",
      "house": "32",
      "postcode": "8400-526",
      "city": "CARVOEIRO LGA",
      "lon": "-8.459731390239044",
      "lat": "37.09525610405188"
    },
    {
      "id": "pt.ine.add.PTCONT.1839128",
      "street": "R MOINHOS",
      "house": "",
      "postcode": "8400-504",
      "city": "CARVOEIRO LGA",
      "lon": "-8.459846852796279",
      "lat": "37.09594960511362"
    },
    {
      "id": "pt.ine.add.PTCONT.1839542",
      "street": "R MOINHOS",
      "house": "",
      "postcode": "8400-504",
      "city": "CARVOEIRO LGA",
      "lon": "-8.459846852796279",
      "lat": "37.09594960511362"
    },
    {
      "id": "pt.ine.add.PTCONT.1847305",
      "street": "URB ALDEIA DAS CHAMINÉS",
      "house": "",
      "postcode": "8400-566",
      "city": "CARVOEIRO LGA",
      "lon": "-8.46099574749708",
      "lat": "37.09630685949642"
    }
  ]
}