{
  "data": {
    "distrito": "Vila Real",
    "concelho": "Vila Pouca de Aguiar",
    "freguesia": "Vreia de Bornes",
    "OBJECTID": 136,
    "BGRI2021": "17131500113",
    "DT21": "17",
    "DTMN21": "1713",
    "DTMNFR21": "171315",
    "DTMNFRSEC21": "171315001",
    "SECNUM21": "001",
    "SSNUM21": "13",
    "SECSSNUM21": "00113",
    "OBJECTID_1": 187080,
    "DT": "17",
    "CC": "13",
    "fr": "15",
    "SEC": "001",
    "SS": "13"
  },
  "addresses": [
    {
      "id": "pt.ine.add.PTCONT.5292785",
      "street": "R DE VREIA",
      "house": "27",
      "postcode": "5450-321",
      "city": "VREIA DE BORNES",
      "lon": "-7.579922560755262",
      "lat": "41.55623622954893"
    },
    {
      "id": "pt.ine.add.PTCONT.5294436",
      "street": "R DO CARDAL",
      "house": "1",
      "postcode": "5450-321",
      "city": "VREIA DE BORNES",
      "lon": "-7.595735217534221",
      "lat": "41.56034487735122"
    },
    {
      "id": "pt.ine.add.PTCONT.5294696",
      "street": "R DO CARDAL",
      "house": "10",
      "postcode": "5450-321",
      "city": "VREIA DE BORNES",
      "lon": "-7.592054396542304",
      "lat": "41.56041765352543"
    },
    {
      "id": "pt.ine.add.PTCONT.5298712",
      "street": "R DE S ROQUE",
      "house": "15",
      "postcode": "5450-321",
      "city": "VREIA DE BORNES",
      "lon": "-7.580182990421766",
      "lat": "41.55240189964947"
    },
    {
      "id": "pt.ine.add.PTCONT.5300631",
      "street": "R DE VREIA",
      "house": "35",
      "postcode": "5450-321",
      "city": "VREIA DE BORNES",
      "lon": "-7.580461335815315",
      "lat": "41.556310849950194"
    },
    {
      "id": "pt.ine.add.PTCONT.5302727",
      "street": "R DE S ROQUE",
      "house": "17",
      "postcode": "5450-321",
      "city": "VREIA DE BORNES",
      "lon": "-7.580470033883501",
      "lat": "41.55247530928617"
    },
    {
      "id": "pt.ine.add.PTCONT.5303861",
      "street": "VALE DASNA",
      "house": "",
      "postcode": "5450-321",
      "city": "VREIA DE BORNES",
      "lon": "-7.590416668592281",
      "lat": "41.55986971320174"
    },
    {
      "id": "pt.ine.add.PTCONT.5308117",
      "street": "R DAS LAGES",
      "house": "1",
      "postcode": "5450-321",
      "city": "VREIA DE BORNES",
      "lon": "-7.580300316098367",
      "lat": "41.55269958643111"
    },
    {
      "id": "pt.ine.add.PTCONT.5308195",
      "street": "R DAS LAGES",
      "house": "10",
      "postcode": "5450-321",
      "city": "VREIA DE BORNES",
      "lon": "-7.581429700583036",
      "lat": "41.55379446011882"
    },
    {
      "id": "pt.ine.add.PTCONT.5311172",
      "street": "R DO CARDAL",
      "house": "45",
      "postcode": "5450-321",
      "city": "VREIA DE BORNES",
      "lon": "-7.592347140155996",
      "lat": "41.55837518867106"
    },
    {
      "id": "pt.ine.add.PTCONT.5313253",
      "street": "R DO CHﾃグ FRIO",
      "house": "",
      "postcode": "5450-321",
      "city": "VREIA DE BORNES",
      "lon": "-7.5906127076929835",
      "lat": "41.55506265617773"
    },
    {
      "id": "pt.ine.add.PTCONT.5318361",
      "street": "R S ROQUE",
      "house": "10",
      "postcode": "5450-321",
      "city": "VREIA DE BORNES",
      "lon": "-7.580207652321909",
      "lat": "41.55232098477351"
    },
    {
      "id": "pt.ine.add.PTCONT.5321498",
      "street": "R DE VREIA",
      "house": "37",
      "postcode": "5450-321",
      "city": "VREIA DE BORNES",
      "lon": "-7.58074809021922",
      "lat": "41.556420272323884"
    },
    {
      "id": "pt.ine.add.PTCONT.5322567",
      "street": "R DAS LAGES",
      "house": "3",
      "postcode": "5450-321",
      "city": "VREIA DE BORNES",
      "lon": "-7.581291076038186",
      "lat": "41.553181542249526"
    },
    {
      "id": "pt.ine.add.PTCONT.5324955",
      "street": "R DE VREIA",
      "house": "",
      "postcode": "5450-321",
      "city": "VREIA DE BORNES",
      "lon": "-7.580378811558859",
      "lat": "41.55614838648174"
    },
    {
      "id": "pt.ine.add.PTCONT.5326056",
      "street": "R DE VREIA",
      "house": "25",
      "postcode": "5450-321",
      "city": "VREIA DE BORNES",
      "lon": "-7.579659013287948",
      "lat": "41.556216953934516"
    },
    {
      "id": "pt.ine.add.PTCONT.5335274",
      "street": "R DO CARDAL",
      "house": "2",
      "postcode": "5450-321",
      "city": "VREIA DE BORNES",
      "lon": "-7.595355179815844",
      "lat": "41.5613605195842"
    },
    {
      "id": "pt.ine.add.PTCONT.5340849",
      "street": "R DE VREIA",
      "house": "5",
      "postcode": "5450-321",
      "city": "VREIA DE BORNES",
      "lon": "-7.579620741914892",
      "lat": "41.55367772246063"
    },
    {
      "id": "pt.ine.add.PTCONT.5345747",
      "street": "R DE S ROQUE",
      "house": "19",
      "postcode": "5450-321",
      "city": "VREIA DE BORNES",
      "lon": "-7.580301390021435",
      "lat": "41.55257353955014"
    },
    {
      "id": "pt.ine.add.PTCONT.5357007",
      "street": "R DE VREIA",
      "house": "1",
      "postcode": "5450-321",
      "city": "VREIA DE BORNES",
      "lon": "-7.579697572427007",
      "lat": "41.553101854420845"
    },
    {
      "id": "pt.ine.add.PTCONT.5360965",
      "street": "R DE VREIA",
      "house": "9",
      "postcode": "5450-321",
      "city": "VREIA DE BORNES",
      "lon": "-7.579426508219952",
      "lat": "41.55396490625931"
    },
    {
      "id": "pt.ine.add.PTCONT.5360982",
      "street": "R DAS LAGES",
      "house": "8",
      "postcode": "5450-321",
      "city": "VREIA DE BORNES",
      "lon": "-7.580901475234612",
      "lat": "41.55389096551077"
    },
    {
      "id": "pt.ine.add.PTCONT.5367424",
      "street": "R DE VREIA",
      "house": "33",
      "postcode": "5450-321",
      "city": "VREIA DE BORNES",
      "lon": "-7.580498138703314",
      "lat": "41.55621198599539"
    },
    {
      "id": "pt.ine.add.PTCONT.5368524",
      "street": "R DE VREIA",
      "house": "29",
      "postcode": "5450-321",
      "city": "VREIA DE BORNES",
      "lon": "-7.580148767818171",
      "lat": "41.55641739180893"
    },
    {
      "id": "pt.ine.add.PTCONT.5371749",
      "street": "R DE S ROQUE",
      "house": "7",
      "postcode": "5450-321",
      "city": "VREIA DE BORNES",
      "lon": "-7.5803648468823495",
      "lat": "41.552159673579744"
    },
    {
      "id": "pt.ine.add.PTCONT.5372932",
      "street": "R DAS LAGES",
      "house": "21",
      "postcode": "5450-321",
      "city": "VREIA DE BORNES",
      "lon": "-7.580652146181328",
      "lat": "41.55361065270031"
    },
    {
      "id": "pt.ine.add.PTCONT.5373925",
      "street": "R DE VREIA",
      "house": "3",
      "postcode": "5450-321",
      "city": "VREIA DE BORNES",
      "lon": "-7.579587088408236",
      "lat": "41.55340744899067"
    },
    {
      "id": "pt.ine.add.PTCONT.5374974",
      "street": "R DAS LAGES",
      "house": "6",
      "postcode": "5450-321",
      "city": "VREIA DE BORNES",
      "lon": "-7.580928742062709",
      "lat": "41.55350393666804"
    },
    {
      "id": "pt.ine.add.PTCONT.5376055",
      "street": "R DE VREIA",
      "house": "17",
      "postcode": "5450-321",
      "city": "VREIA DE BORNES",
      "lon": "-7.579016754660109",
      "lat": "41.55422404024682"
    },
    {
      "id": "pt.ine.add.PTCONT.5382421",
      "street": "R DE VREIA",
      "house": "39",
      "postcode": "5450-321",
      "city": "VREIA DE BORNES",
      "lon": "-7.580591269562642",
      "lat": "41.556536567150076"
    },
    {
      "id": "pt.ine.add.PTCONT.5386655",
      "street": "R DE VREIA",
      "house": "31",
      "postcode": "5450-321",
      "city": "VREIA DE BORNES",
      "lon": "-7.580269092631445",
      "lat": "41.55636394810564"
    },
    {
      "id": "pt.ine.add.PTCONT.5386686",
      "street": "R DE S ROQUE",
      "house": "9",
      "postcode": "5450-321",
      "city": "VREIA DE BORNES",
      "lon": "-7.580244223119539",
      "lat": "41.552249130867416"
    },
    {
      "id": "pt.ine.add.PTCONT.5387834",
      "street": "R DE VREIA",
      "house": "7",
      "postcode": "5450-321",
      "city": "VREIA DE BORNES",
      "lon": "-7.579583785549827",
      "lat": "41.55379459287024"
    },
    {
      "id": "pt.ine.add.PTCONT.5390943",
      "street": "R CARDAL",
      "house": "41",
      "postcode": "5450-321",
      "city": "VREIA DE BORNES",
      "lon": "-7.584602669155534",
      "lat": "41.55561938600139"
    },
    {
      "id": "pt.ine.add.PTCONT.5391005",
      "street": "R DE VREIA",
      "house": "11",
      "postcode": "5450-321",
      "city": "VREIA DE BORNES",
      "lon": "-7.5792338868773665",
      "lat": "41.55406301946789"
    },
    {
      "id": "pt.ine.add.PTCONT.5404968",
      "street": "LG FRANCISCO MADUREIRA E CASTRO",
      "house": "1",
      "postcode": "5450-321",
      "city": "VREIA DE BORNES",
      "lon": "-7.58080315141362",
      "lat": "41.551360448663516"
    },
    {
      "id": "pt.ine.add.PTCONT.5404985",
      "street": "R DAS LAGES",
      "house": "2",
      "postcode": "5450-321",
      "city": "VREIA DE BORNES",
      "lon": "-7.580344500682507",
      "lat": "41.553140980972216"
    },
    {
      "id": "pt.ine.add.PTCONT.5406895",
      "street": "R DE VREIA",
      "house": "21",
      "postcode": "5450-321",
      "city": "VREIA DE BORNES",
      "lon": "-7.578723858318471",
      "lat": "41.55483488106001"
    },
    {
      "id": "pt.ine.add.PTCONT.5410406",
      "street": "R DO CHﾃグ FRIO",
      "house": "",
      "postcode": "5450-321",
      "city": "VREIA DE BORNES",
      "lon": "-7.593389466581509",
      "lat": "41.55556192365148"
    },
    {
      "id": "pt.ine.add.PTCONT.5413615",
      "street": "RECTA SABROSO",
      "house": "",
      "postcode": "5450-323",
      "city": "VREIA DE BORNES",
      "lon": "-7.594446082193393",
      "lat": "41.56112216801041"
    },
    {
      "id": "pt.ine.add.PTCONT.5413616",
      "street": "R DO CHﾃグ FRIO",
      "house": "",
      "postcode": "5450-321",
      "city": "VREIA DE BORNES",
      "lon": "-7.5927144832469855",
      "lat": "41.55600893922739"
    },
    {
      "id": "pt.ine.add.PTCONT.5417352",
      "street": "R DO CARDAL",
      "house": "",
      "postcode": "5450-321",
      "city": "VREIA DE BORNES",
      "lon": "-7.591375486769879",
      "lat": "41.55989224191357"
    },
    {
      "id": "pt.ine.add.PTCONT.5418984",
      "street": "R DO CHﾃグ FRIO",
      "house": "",
      "postcode": "5450-321",
      "city": "VREIA DE BORNES",
      "lon": "-7.593394709521194",
      "lat": "41.55493168815791"
    },
    {
      "id": "pt.ine.add.PTCONT.5424027",
      "street": "R CARDAL",
      "house": "43",
      "postcode": "5450-321",
      "city": "VREIA DE BORNES",
      "lon": "-7.587824490233789",
      "lat": "41.55593183196058"
    }
  ]
}