{
  "data": {
    "distrito": "Setúbal",
    "concelho": "Palmela",
    "freguesia": "Palmela",
    "OBJECTID": 644,
    "BGRI2021": "15080200709",
    "DT21": "15",
    "DTMN21": "1508",
    "DTMNFR21": "150802",
    "DTMNFRSEC21": "150802007",
    "SECNUM21": "007",
    "SSNUM21": "09",
    "SECSSNUM21": "00709",
    "OBJECTID_1": 166097,
    "DT": "15",
    "CC": "08",
    "fr": "02",
    "SEC": "007",
    "SS": "09"
  },
  "addresses": [
    {
      "id": "pt.ine.add.PTCONT.4674990",
      "street": "",
      "house": "",
      "postcode": "2950-054",
      "city": "PALMELA",
      "lon": "-8.89755508895689",
      "lat": "38.55880355144601"
    },
    {
      "id": "pt.ine.add.PTCONT.4674991",
      "street": "",
      "house": "",
      "postcode": "2950-054",
      "city": "PALMELA",
      "lon": "-8.89755508895689",
      "lat": "38.55880355144601"
    },
    {
      "id": "pt.ine.add.PTCONT.4678489",
      "street": "QTA FONTE PIPA",
      "house": "",
      "postcode": "2950-054",
      "city": "PALMELA",
      "lon": "-8.89639665829104",
      "lat": "38.55774813653193"
    },
    {
      "id": "pt.ine.add.PTCONT.4682099",
      "street": "",
      "house": "",
      "postcode": "2950-054",
      "city": "PALMELA",
      "lon": "-8.897838259333707",
      "lat": "38.55845938825223"
    },
    {
      "id": "pt.ine.add.PTCONT.4751807",
      "street": "R PQ NATURAL DA ARRABIDA",
      "house": "",
      "postcode": "2950-426",
      "city": "PALMELA",
      "lon": "-8.893323260771796",
      "lat": "38.55568722806834"
    },
    {
      "id": "pt.ine.add.PTCONT.4751808",
      "street": "R PARQUE NATURAL ARRABIDA",
      "house": "3",
      "postcode": "2950-426",
      "city": "PALMELA",
      "lon": "-8.893323260771796",
      "lat": "38.55568722806834"
    },
    {
      "id": "pt.ine.add.PTCONT.4751809",
      "street": "R JOSE VIANA",
      "house": "",
      "postcode": "2950-426",
      "city": "PALMELA",
      "lon": "-8.893846594418312",
      "lat": "38.556359447851015"
    },
    {
      "id": "pt.ine.add.PTCONT.4778109",
      "street": "QTA FONTE PIPA",
      "house": "",
      "postcode": "2950-054",
      "city": "PALMELA",
      "lon": "-8.89622753484997",
      "lat": "38.55802849509345"
    },
    {
      "id": "pt.ine.add.PTCONT.4787140",
      "street": "ESTR BAIXA PALMELA",
      "house": "9",
      "postcode": "2950-054",
      "city": "PALMELA",
      "lon": "-8.897849063050769",
      "lat": "38.558396259893435"
    },
    {
      "id": "pt.ine.add.PTCONT.4801963",
      "street": "",
      "house": "",
      "postcode": "2950-054",
      "city": "PALMELA",
      "lon": "-8.89748730702285",
      "lat": "38.558903084857796"
    },
    {
      "id": "pt.ine.add.PTCONT.4806995",
      "street": "QTA AMOREIRA BAIXO",
      "house": "",
      "postcode": "2950-054",
      "city": "PALMELA",
      "lon": "-8.89795245660467",
      "lat": "38.55516162020252"
    },
    {
      "id": "pt.ine.add.PTCONT.4815269",
      "street": "PREDIOS DA LOUSALA",
      "house": "1",
      "postcode": "2950-054",
      "city": "PALMELA",
      "lon": "-8.89580069952079",
      "lat": "38.55780607043215"
    },
    {
      "id": "pt.ine.add.PTCONT.4815270",
      "street": "PREDIOS DA LOUSALA",
      "house": "1",
      "postcode": "2950-054",
      "city": "PALMELA",
      "lon": "-8.89580069952079",
      "lat": "38.55780607043215"
    },
    {
      "id": "pt.ine.add.PTCONT.4817841",
      "street": "PREDIOS DA LOUSALA",
      "house": "1",
      "postcode": "2950-054",
      "city": "PALMELA",
      "lon": "-8.89580069952079",
      "lat": "38.55780607043215"
    },
    {
      "id": "pt.ine.add.PTCONT.4826030",
      "street": "ESTR BAIXA DE PALMELA",
      "house": "",
      "postcode": "2950-054",
      "city": "PALMELA",
      "lon": "-8.89539899837247",
      "lat": "38.55779067043122"
    },
    {
      "id": "pt.ine.add.PTCONT.4826031",
      "street": "ESTR BAIXA DE PALMELA",
      "house": "",
      "postcode": "2950-054",
      "city": "PALMELA",
      "lon": "-8.89539899837247",
      "lat": "38.55779067043122"
    },
    {
      "id": "pt.ine.add.PTCONT.4826032",
      "street": "ESTR BAIXA DE PALMELA",
      "house": "",
      "postcode": "2950-054",
      "city": "PALMELA",
      "lon": "-8.89539899837247",
      "lat": "38.55779067043122"
    },
    {
      "id": "pt.ine.add.PTCONT.4826033",
      "street": "ESTR BAIXA DE PALMELA",
      "house": "",
      "postcode": "2950-054",
      "city": "PALMELA",
      "lon": "-8.89539899837247",
      "lat": "38.55779067043122"
    },
    {
      "id": "pt.ine.add.PTCONT.4826034",
      "street": "ESTR BAIXA DE PALMELA",
      "house": "",
      "postcode": "2950-054",
      "city": "PALMELA",
      "lon": "-8.89539899837247",
      "lat": "38.55779067043122"
    },
    {
      "id": "pt.ine.add.PTCONT.4826035",
      "street": "ESTR BAIXA DE PALMELA",
      "house": "",
      "postcode": "2950-054",
      "city": "PALMELA",
      "lon": "-8.89539899837247",
      "lat": "38.55779067043122"
    },
    {
      "id": "pt.ine.add.PTCONT.4826181",
      "street": "",
      "house": "",
      "postcode": "2950-054",
      "city": "PALMELA",
      "lon": "-8.898277390186491",
      "lat": "38.55442982775197"
    },
    {
      "id": "pt.ine.add.PTCONT.4826182",
      "street": "",
      "house": "ANX 6",
      "postcode": "2950-054",
      "city": "PALMELA",
      "lon": "-8.897870479535401",
      "lat": "38.55825198790929"
    },
    {
      "id": "pt.ine.add.PTCONT.4828304",
      "street": "ESTR BAIXA DE PALMELA",
      "house": "",
      "postcode": "2950-054",
      "city": "PALMELA",
      "lon": "-8.89539899837247",
      "lat": "38.55779067043122"
    },
    {
      "id": "pt.ine.add.PTCONT.4843925",
      "street": "",
      "house": "",
      "postcode": "2950-054",
      "city": "PALMELA",
      "lon": "-8.897293238355035",
      "lat": "38.55899443445709"
    },
    {
      "id": "pt.ine.add.PTCONT.4850863",
      "street": "",
      "house": "",
      "postcode": "2950-054",
      "city": "PALMELA",
      "lon": "-8.898336560529561",
      "lat": "38.554600597924065"
    },
    {
      "id": "pt.ine.add.PTCONT.4850864",
      "street": "",
      "house": "",
      "postcode": "2950-054",
      "city": "PALMELA",
      "lon": "-8.897764465707159",
      "lat": "38.55799144105878"
    },
    {
      "id": "pt.ine.add.PTCONT.4861779",
      "street": "ESTR BAIXA DE PALMELA",
      "house": "",
      "postcode": "2950-054",
      "city": "PALMELA",
      "lon": "-8.897788745347036",
      "lat": "38.55811739802897"
    },
    {
      "id": "pt.ine.add.PTCONT.4861780",
      "street": "ESTR BAIXA DE PALMELA",
      "house": "",
      "postcode": "2950-054",
      "city": "PALMELA",
      "lon": "-8.897788745347036",
      "lat": "38.55811739802897"
    },
    {
      "id": "pt.ine.add.PTCONT.4861781",
      "street": "ESTR BAIXA PALMELA",
      "house": "3",
      "postcode": "2950-054",
      "city": "PALMELA",
      "lon": "-8.897788745347036",
      "lat": "38.55811739802897"
    },
    {
      "id": "pt.ine.add.PTCONT.4877324",
      "street": "ESTR BAIXA PALMELA",
      "house": "3",
      "postcode": "2950-054",
      "city": "PALMELA",
      "lon": "-8.897657286334383",
      "lat": "38.55870379322489"
    },
    {
      "id": "pt.ine.add.PTCONT.4877509",
      "street": "R JOSE VIANA",
      "house": "",
      "postcode": "2950-426",
      "city": "PALMELA",
      "lon": "-8.893940835256123",
      "lat": "38.5565930501247"
    },
    {
      "id": "pt.ine.add.PTCONT.4878031",
      "street": "ESTR BAIXA PALMELA",
      "house": "3",
      "postcode": "2950-054",
      "city": "PALMELA",
      "lon": "-8.897657286334383",
      "lat": "38.55870379322489"
    },
    {
      "id": "pt.ine.add.PTCONT.4892343",
      "street": "ESTR BAIXA DE PALMELA",
      "house": "",
      "postcode": "2950-054",
      "city": "PALMELA",
      "lon": "-8.895628433106067",
      "lat": "38.55778917615909"
    },
    {
      "id": "pt.ine.add.PTCONT.4892344",
      "street": "ESTR BAIXA DE PALMELA",
      "house": "",
      "postcode": "2950-054",
      "city": "PALMELA",
      "lon": "-8.895628433106067",
      "lat": "38.55778917615909"
    },
    {
      "id": "pt.ine.add.PTCONT.4892345",
      "street": "ESTR BAIXA DE PALMELA",
      "house": "",
      "postcode": "2950-054",
      "city": "PALMELA",
      "lon": "-8.895628433106067",
      "lat": "38.55778917615909"
    },
    {
      "id": "pt.ine.add.PTCONT.4892346",
      "street": "ESTR BAIXA DE PALMELA",
      "house": "",
      "postcode": "2950-054",
      "city": "PALMELA",
      "lon": "-8.895628433106067",
      "lat": "38.55778917615909"
    },
    {
      "id": "pt.ine.add.PTCONT.4892347",
      "street": "ESTR BAIXA DE PALMELA",
      "house": "",
      "postcode": "2950-054",
      "city": "PALMELA",
      "lon": "-8.895628433106067",
      "lat": "38.55778917615909"
    },
    {
      "id": "pt.ine.add.PTCONT.4892348",
      "street": "ESTR BAIXA DE PALMELA",
      "house": "",
      "postcode": "2950-054",
      "city": "PALMELA",
      "lon": "-8.895628433106067",
      "lat": "38.55778917615909"
    },
    {
      "id": "pt.ine.add.PTCONT.4892351",
      "street": "ESTR BAIXA DE PALMELA",
      "house": "",
      "postcode": "2950-054",
      "city": "PALMELA",
      "lon": "-8.895628433106067",
      "lat": "38.55778917615909"
    },
    {
      "id": "pt.ine.add.PTCONT.4918458",
      "street": "R JOSE VIANA",
      "house": "",
      "postcode": "2950-426",
      "city": "PALMELA",
      "lon": "-8.8940581148574",
      "lat": "38.556835510811645"
    },
    {
      "id": "pt.ine.add.PTCONT.4954458",
      "street": "OFICINA AUTO",
      "house": "",
      "postcode": "2950-054",
      "city": "PALMELA",
      "lon": "-8.898488924330326",
      "lat": "38.55598687370967"
    },
    {
      "id": "pt.ine.add.PTCONT.4958376",
      "street": "ESTR BAIXA PALMELA",
      "house": "A",
      "postcode": "2950-054",
      "city": "PALMELA",
      "lon": "-8.898297825049319",
      "lat": "38.55635746155282"
    },
    {
      "id": "pt.ine.add.PTCONT.4981287",
      "street": "R PARQUE NATURAL DA ARRÁBIDA",
      "house": "19",
      "postcode": "2950-426",
      "city": "PALMELA",
      "lon": "-8.893593082216464",
      "lat": "38.55625299591709"
    },
    {
      "id": "pt.ine.add.PTCONT.4998277",
      "street": "ESTR BAIXA PALMELA",
      "house": "",
      "postcode": "2950-054",
      "city": "PALMELA",
      "lon": "-8.898311683964446",
      "lat": "38.55658257739003"
    },
    {
      "id": "pt.ine.add.PTCONT.5005022",
      "street": "QTA FONTE DA PIPA DE CIMA",
      "house": "",
      "postcode": "2950-054",
      "city": "PALMELA",
      "lon": "-8.89607611645431",
      "lat": "38.55781328394181"
    },
    {
      "id": "pt.ine.add.PTCONT.5008608",
      "street": "R JOSE VIANA",
      "house": "4",
      "postcode": "2950-426",
      "city": "PALMELA",
      "lon": "-8.894668960316826",
      "lat": "38.557101786246335"
    },
    {
      "id": "pt.ine.add.PTCONT.5016299",
      "street": "R JOSE VIANA",
      "house": "2",
      "postcode": "2950-426",
      "city": "PALMELA",
      "lon": "-8.895356401844824",
      "lat": "38.55701623769688"
    },
    {
      "id": "pt.ine.add.PTCONT.5021524",
      "street": "ESTR BAIXA DE PALMELA",
      "house": "",
      "postcode": "2950-054",
      "city": "PALMELA",
      "lon": "-8.897315419154499",
      "lat": "38.55892222362592"
    },
    {
      "id": "pt.ine.add.PTCONT.5022323",
      "street": "R DO PARQUE NATURAL DA ARRABIDA",
      "house": "",
      "postcode": "2950-770",
      "city": "PALMELA",
      "lon": "-8.893695851093144",
      "lat": "38.55620728695072"
    },
    {
      "id": "pt.ine.add.PTCONT.5027569",
      "street": "R JOSE VIANA",
      "house": "3",
      "postcode": "2950-426",
      "city": "PALMELA",
      "lon": "-8.894943518786672",
      "lat": "38.557027933697306"
    },
    {
      "id": "pt.ine.add.PTCONT.5031831",
      "street": "",
      "house": "",
      "postcode": "2950-054",
      "city": "PALMELA",
      "lon": "-8.896693553281088",
      "lat": "38.55870107533866"
    },
    {
      "id": "pt.ine.add.PTCONT.5031832",
      "street": "QTA FONTE DA PIPA DE CIMA",
      "house": "",
      "postcode": "2950-054",
      "city": "PALMELA",
      "lon": "-8.896234815956623",
      "lat": "38.557632084363014"
    },
    {
      "id": "pt.ine.add.PTCONT.5071306",
      "street": "QTA PALHEIRA",
      "house": "",
      "postcode": "2950-054",
      "city": "PALMELA",
      "lon": "-8.898464071168494",
      "lat": "38.55580687104319"
    },
    {
      "id": "pt.ine.add.PTCONT.5071307",
      "street": "R PARQUE NATURAL ARRABIDA",
      "house": "1",
      "postcode": "2950-426",
      "city": "PALMELA",
      "lon": "-8.89328505189132",
      "lat": "38.555327145753935"
    },
    {
      "id": "pt.ine.add.PTCONT.5096369",
      "street": "QTA AMOREIRA LIMA",
      "house": "",
      "postcode": "2950-054",
      "city": "PALMELA",
      "lon": "-8.898261596236715",
      "lat": "38.55618654146769"
    },
    {
      "id": "pt.ine.add.PTCONT.5114915",
      "street": "",
      "house": "",
      "postcode": "2950-054",
      "city": "PALMELA",
      "lon": "-8.89838014217274",
      "lat": "38.55546510591964"
    },
    {
      "id": "pt.ine.add.PTCONT.5117652",
      "street": "",
      "house": "",
      "postcode": "2950-054",
      "city": "PALMELA",
      "lon": "-8.897770287235783",
      "lat": "38.55854090656481"
    }
  ]
}