{
  "data": {
    "distrito": "Setúbal",
    "concelho": "Palmela",
    "freguesia": "Palmela",
    "OBJECTID": 202,
    "BGRI2021": "15080200711",
    "DT21": "15",
    "DTMN21": "1508",
    "DTMNFR21": "150802",
    "DTMNFRSEC21": "150802007",
    "SECNUM21": "007",
    "SSNUM21": "11",
    "SECSSNUM21": "00711",
    "OBJECTID_1": 165813,
    "DT": "15",
    "CC": "08",
    "fr": "02",
    "SEC": "007",
    "SS": "11"
  },
  "addresses": [
    {
      "id": "pt.ine.add.PTCONT.4671205",
      "street": "R CENTRAL DA QUINTA DA ASSECA",
      "house": "14",
      "postcode": "2950-426",
      "city": "PALMELA",
      "lon": "-8.893842148408925",
      "lat": "38.557026087900226"
    },
    {
      "id": "pt.ine.add.PTCONT.4674831",
      "street": "R FERNANDO PESSOA",
      "house": "1",
      "postcode": "2950-426",
      "city": "PALMELA",
      "lon": "-8.893833050287094",
      "lat": "38.557251353479316"
    },
    {
      "id": "pt.ine.add.PTCONT.4674847",
      "street": "R ALMADA NEGREIROS",
      "house": "19",
      "postcode": "2950-426",
      "city": "PALMELA",
      "lon": "-8.892544342199889",
      "lat": "38.55580038292072"
    },
    {
      "id": "pt.ine.add.PTCONT.4681879",
      "street": "QTA HORTA SECA",
      "house": "",
      "postcode": "2950-054",
      "city": "PALMELA",
      "lon": "-8.891083377284044",
      "lat": "38.55651249598175"
    },
    {
      "id": "pt.ine.add.PTCONT.4681924",
      "street": "QTA DA ASSECA",
      "house": "3",
      "postcode": "2950-426",
      "city": "PALMELA",
      "lon": "-8.891593426145137",
      "lat": "38.55701365489223"
    },
    {
      "id": "pt.ine.add.PTCONT.4696955",
      "street": "EN 252",
      "house": "",
      "postcode": "2950-067",
      "city": "PALMELA",
      "lon": "-8.88877876157982",
      "lat": "38.55773450242957"
    },
    {
      "id": "pt.ine.add.PTCONT.4700295",
      "street": "R FERNANDO PESSOA",
      "house": "2",
      "postcode": "2950-426",
      "city": "PALMELA",
      "lon": "-8.89340736546835",
      "lat": "38.55713701164097"
    },
    {
      "id": "pt.ine.add.PTCONT.4700405",
      "street": "ESTR MIRAVENTOS",
      "house": "72",
      "postcode": "2950-067",
      "city": "PALMELA",
      "lon": "-8.886685540225747",
      "lat": "38.556135517211715"
    },
    {
      "id": "pt.ine.add.PTCONT.4702424",
      "street": "ESTR MIRAVENTOS",
      "house": "72 11",
      "postcode": "2950-067",
      "city": "PALMELA",
      "lon": "-8.886685540225747",
      "lat": "38.556135517211715"
    },
    {
      "id": "pt.ine.add.PTCONT.4768506",
      "street": "QTA DA ASSECA",
      "house": "",
      "postcode": "2950-122",
      "city": "PALMELA",
      "lon": "-8.891504681933773",
      "lat": "38.55730249415634"
    },
    {
      "id": "pt.ine.add.PTCONT.4714718",
      "street": "BC FAZENDINHA",
      "house": "9",
      "postcode": "2950-067",
      "city": "PALMELA",
      "lon": "-8.887204863180742",
      "lat": "38.55642944567024"
    },
    {
      "id": "pt.ine.add.PTCONT.4720804",
      "street": "R FIALHO DE ALMEIDA",
      "house": "2",
      "postcode": "2950-426",
      "city": "PALMELA",
      "lon": "-8.892848573743546",
      "lat": "38.557455928599765"
    },
    {
      "id": "pt.ine.add.PTCONT.4722198",
      "street": "R IVONE SILVA",
      "house": "8",
      "postcode": "2950-426",
      "city": "PALMELA",
      "lon": "-8.892312720544982",
      "lat": "38.55777469412678"
    },
    {
      "id": "pt.ine.add.PTCONT.4722199",
      "street": "R FIALHO DE ALMEIDA",
      "house": "1",
      "postcode": "2950-426",
      "city": "PALMELA",
      "lon": "-8.893167219906298",
      "lat": "38.55721063716285"
    },
    {
      "id": "pt.ine.add.PTCONT.4722358",
      "street": "ESTR CIPRESTES",
      "house": "1E",
      "postcode": "2950-067",
      "city": "PALMELA",
      "lon": "-8.885803573332971",
      "lat": "38.55406929044429"
    },
    {
      "id": "pt.ine.add.PTCONT.4722359",
      "street": "ESTR SEM DESIGNACAO",
      "house": "",
      "postcode": "2950-067",
      "city": "PALMELA",
      "lon": "-8.885803573332971",
      "lat": "38.55406929044429"
    },
    {
      "id": "pt.ine.add.PTCONT.4726238",
      "street": "ESTR MIRAVENTOS",
      "house": "",
      "postcode": "2950-067",
      "city": "PALMELA",
      "lon": "-8.885982969059857",
      "lat": "38.55477078159525"
    },
    {
      "id": "pt.ine.add.PTCONT.4726252",
      "street": "ESTR CIPRESTES",
      "house": "12",
      "postcode": "2950-067",
      "city": "PALMELA",
      "lon": "-8.886607684660806",
      "lat": "38.55637023320436"
    },
    {
      "id": "pt.ine.add.PTCONT.4726253",
      "street": "EN 252",
      "house": "12",
      "postcode": "2950-067",
      "city": "PALMELA",
      "lon": "-8.886607684660806",
      "lat": "38.55637023320436"
    },
    {
      "id": "pt.ine.add.PTCONT.4728746",
      "street": "ESTR MIRAVENTOS",
      "house": "",
      "postcode": "2950-067",
      "city": "PALMELA",
      "lon": "-8.885982969059857",
      "lat": "38.55477078159525"
    },
    {
      "id": "pt.ine.add.PTCONT.4729114",
      "street": "BC FAZENDINHA",
      "house": "6",
      "postcode": "2950-067",
      "city": "PALMELA",
      "lon": "-8.887247267078433",
      "lat": "38.55609586678883"
    },
    {
      "id": "pt.ine.add.PTCONT.4733631",
      "street": "R AQUILINO RIBEIRO",
      "house": "10",
      "postcode": "2950-426",
      "city": "PALMELA",
      "lon": "-8.893412963871391",
      "lat": "38.55766846250237"
    },
    {
      "id": "pt.ine.add.PTCONT.4736074",
      "street": "QTA DA ASSECA",
      "house": "1",
      "postcode": "2950-426",
      "city": "PALMELA",
      "lon": "-8.891363993661702",
      "lat": "38.55701514123136"
    },
    {
      "id": "pt.ine.add.PTCONT.4742086",
      "street": "R FIALHO DE ALMEIDA",
      "house": "4",
      "postcode": "2950-426",
      "city": "PALMELA",
      "lon": "-8.892953431094089",
      "lat": "38.557608388409164"
    },
    {
      "id": "pt.ine.add.PTCONT.4748085",
      "street": "R AQUILINO RIBEIRO",
      "house": "4",
      "postcode": "2950-426",
      "city": "PALMELA",
      "lon": "-8.89277301237372",
      "lat": "38.55790683186678"
    },
    {
      "id": "pt.ine.add.PTCONT.4756690",
      "street": "R IVONE SILVA",
      "house": "1",
      "postcode": "2950-426",
      "city": "PALMELA",
      "lon": "-8.892030389679544",
      "lat": "38.5571099137056"
    },
    {
      "id": "pt.ine.add.PTCONT.4758916",
      "street": "R PARQUE NATURAL ARRABIDA",
      "house": "20 20A",
      "postcode": "2950-426",
      "city": "PALMELA",
      "lon": "-8.894293151449526",
      "lat": "38.55736546997865"
    },
    {
      "id": "pt.ine.add.PTCONT.4765433",
      "street": "BC FAZENDINHA",
      "house": "6",
      "postcode": "2950-067",
      "city": "PALMELA",
      "lon": "-8.887236736723636",
      "lat": "38.55618601725438"
    },
    {
      "id": "pt.ine.add.PTCONT.4769695",
      "street": "R AQUILINO RIBEIRO",
      "house": "12",
      "postcode": "2950-426",
      "city": "PALMELA",
      "lon": "-8.893641638979318",
      "lat": "38.55759491099943"
    },
    {
      "id": "pt.ine.add.PTCONT.4769860",
      "street": "EN 252 CASA MIRAVENTOS",
      "house": "",
      "postcode": "2950-067",
      "city": "PALMELA",
      "lon": "-8.887520635477522",
      "lat": "38.558102947647235"
    },
    {
      "id": "pt.ine.add.PTCONT.4778239",
      "street": "EN 252",
      "house": "3A",
      "postcode": "2950-067",
      "city": "PALMELA",
      "lon": "-8.886439564091765",
      "lat": "38.55455164585172"
    },
    {
      "id": "pt.ine.add.PTCONT.4787123",
      "street": "EN 252",
      "house": "",
      "postcode": "2950-067",
      "city": "PALMELA",
      "lon": "-8.887100780892574",
      "lat": "38.557448049667514"
    },
    {
      "id": "pt.ine.add.PTCONT.4790813",
      "street": "ESTR MIRAVENTOS",
      "house": "",
      "postcode": "2950-067",
      "city": "PALMELA",
      "lon": "-8.885747720211043",
      "lat": "38.554213781814056"
    },
    {
      "id": "pt.ine.add.PTCONT.4798004",
      "street": "BC FAZENDINHA",
      "house": "12",
      "postcode": "2950-067",
      "city": "PALMELA",
      "lon": "-8.887137727766305",
      "lat": "38.55659202684425"
    },
    {
      "id": "pt.ine.add.PTCONT.4799877",
      "street": "BC FAZENDINHA",
      "house": "",
      "postcode": "2950-067",
      "city": "PALMELA",
      "lon": "-8.887137727766305",
      "lat": "38.55659202684425"
    },
    {
      "id": "pt.ine.add.PTCONT.4801964",
      "street": "QTA HORTA SECA",
      "house": "",
      "postcode": "2950-054",
      "city": "PALMELA",
      "lon": "-8.89108555297568",
      "lat": "38.5567196718809"
    },
    {
      "id": "pt.ine.add.PTCONT.4806403",
      "street": "R LAURA ALVES",
      "house": "7",
      "postcode": "2950-426",
      "city": "PALMELA",
      "lon": "-8.892106608075112",
      "lat": "38.55781206371847"
    },
    {
      "id": "pt.ine.add.PTCONT.4806526",
      "street": "BC FAZENDINHA",
      "house": "8",
      "postcode": "2950-067",
      "city": "PALMELA",
      "lon": "-8.886519297855752",
      "lat": "38.555596091437884"
    },
    {
      "id": "pt.ine.add.PTCONT.4806527",
      "street": "EN 252",
      "house": "8",
      "postcode": "2950-067",
      "city": "PALMELA",
      "lon": "-8.886519297855752",
      "lat": "38.555596091437884"
    },
    {
      "id": "pt.ine.add.PTCONT.4806528",
      "street": "QTA FAZENDINHA",
      "house": "8",
      "postcode": "2950-067",
      "city": "PALMELA",
      "lon": "-8.886519297855752",
      "lat": "38.555596091437884"
    },
    {
      "id": "pt.ine.add.PTCONT.4806529",
      "street": "EN 252",
      "house": "8",
      "postcode": "2950-067",
      "city": "PALMELA",
      "lon": "-8.886519297855752",
      "lat": "38.555596091437884"
    },
    {
      "id": "pt.ine.add.PTCONT.4806530",
      "street": "EN 252",
      "house": "8",
      "postcode": "2950-067",
      "city": "PALMELA",
      "lon": "-8.886519297855752",
      "lat": "38.555596091437884"
    },
    {
      "id": "pt.ine.add.PTCONT.4806531",
      "street": "ESTR MIRAVENTOS",
      "house": "8",
      "postcode": "2950-067",
      "city": "PALMELA",
      "lon": "-8.886519297855752",
      "lat": "38.555596091437884"
    },
    {
      "id": "pt.ine.add.PTCONT.4815271",
      "street": "R LAURA ALVES",
      "house": "44",
      "postcode": "2950-426",
      "city": "PALMELA",
      "lon": "-8.89180483909042",
      "lat": "38.5574807143591"
    },
    {
      "id": "pt.ine.add.PTCONT.4818263",
      "street": "R ALMADA NEGREIROS",
      "house": "3",
      "postcode": "2950-426",
      "city": "PALMELA",
      "lon": "-8.892281337280366",
      "lat": "38.55806316190653"
    },
    {
      "id": "pt.ine.add.PTCONT.4829628",
      "street": "R IVONE SILVA",
      "house": "07",
      "postcode": "2950-426",
      "city": "PALMELA",
      "lon": "-8.892599229736895",
      "lat": "38.557745810849156"
    },
    {
      "id": "pt.ine.add.PTCONT.4829727",
      "street": "QTA DA ASSECA",
      "house": "7",
      "postcode": "2950-426",
      "city": "PALMELA",
      "lon": "-8.891633443436913",
      "lat": "38.55645488349019"
    },
    {
      "id": "pt.ine.add.PTCONT.4832001",
      "street": "QTA HORTA SECA",
      "house": "2",
      "postcode": "2950-054",
      "city": "PALMELA",
      "lon": "-8.891095889390606",
      "lat": "38.55661150583011"
    },
    {
      "id": "pt.ine.add.PTCONT.4832002",
      "street": "QTA HORTA SECA",
      "house": "2",
      "postcode": "2950-054",
      "city": "PALMELA",
      "lon": "-8.891095889390606",
      "lat": "38.55661150583011"
    },
    {
      "id": "pt.ine.add.PTCONT.4840131",
      "street": "R LAURA ALVES",
      "house": "13",
      "postcode": "2950-426",
      "city": "PALMELA",
      "lon": "-8.891938225374869",
      "lat": "38.55816447740049"
    },
    {
      "id": "pt.ine.add.PTCONT.4840276",
      "street": "BC FAZENDINHA",
      "house": "13",
      "postcode": "2950-067",
      "city": "PALMELA",
      "lon": "-8.887150422691873",
      "lat": "38.556709052479704"
    },
    {
      "id": "pt.ine.add.PTCONT.4842318",
      "street": "R AQUILINO RIBEIRO",
      "house": "8",
      "postcode": "2950-426",
      "city": "PALMELA",
      "lon": "-8.893092988656612",
      "lat": "38.55778764761768"
    },
    {
      "id": "pt.ine.add.PTCONT.4848004",
      "street": "QTA TOME DIAS",
      "house": "11",
      "postcode": "2950-067",
      "city": "PALMELA",
      "lon": "-8.890483240596287",
      "lat": "38.55398505848235"
    },
    {
      "id": "pt.ine.add.PTCONT.4850865",
      "street": "R FERNANDO PESSOA",
      "house": "4",
      "postcode": "2950-426",
      "city": "PALMELA",
      "lon": "-8.893477713632578",
      "lat": "38.55728068685396"
    },
    {
      "id": "pt.ine.add.PTCONT.4861301",
      "street": "R ANTÓNIO ALEIXO",
      "house": "4",
      "postcode": "2950-426",
      "city": "PALMELA",
      "lon": "-8.891842189667429",
      "lat": "38.55775972828956"
    },
    {
      "id": "pt.ine.add.PTCONT.4864171",
      "street": "EN 252",
      "house": "",
      "postcode": "2950-067",
      "city": "PALMELA",
      "lon": "-8.886995653795644",
      "lat": "38.55726856151707"
    },
    {
      "id": "pt.ine.add.PTCONT.4867063",
      "street": "R AQUILINO RIBEIRO",
      "house": "6",
      "postcode": "2950-426",
      "city": "PALMELA",
      "lon": "-8.892921481481636",
      "lat": "38.55784281048974"
    },
    {
      "id": "pt.ine.add.PTCONT.4868739",
      "street": "R FIALHO DE ALMEIDA",
      "house": "3",
      "postcode": "2950-426",
      "city": "PALMELA",
      "lon": "-8.893203057786147",
      "lat": "38.55734552834477"
    },
    {
      "id": "pt.ine.add.PTCONT.4872477",
      "street": "QTA TOME DIAS",
      "house": "14",
      "postcode": "2950-067",
      "city": "PALMELA",
      "lon": "-8.888929483748162",
      "lat": "38.55459865420719"
    },
    {
      "id": "pt.ine.add.PTCONT.4877325",
      "street": "R CENTRAL",
      "house": "6",
      "postcode": "2950-426",
      "city": "PALMELA",
      "lon": "-8.892213272715988",
      "lat": "38.55704567010994"
    },
    {
      "id": "pt.ine.add.PTCONT.4877326",
      "street": "R CENTRAL",
      "house": "6",
      "postcode": "2950-426",
      "city": "PALMELA",
      "lon": "-8.892213272715988",
      "lat": "38.55704567010994"
    },
    {
      "id": "pt.ine.add.PTCONT.4877327",
      "street": "R CENTRAL",
      "house": "6",
      "postcode": "2950-426",
      "city": "PALMELA",
      "lon": "-8.892213272715988",
      "lat": "38.55704567010994"
    },
    {
      "id": "pt.ine.add.PTCONT.4877328",
      "street": "R CENTRAL",
      "house": "6",
      "postcode": "2950-426",
      "city": "PALMELA",
      "lon": "-8.892213272715988",
      "lat": "38.55704567010994"
    },
    {
      "id": "pt.ine.add.PTCONT.4877329",
      "street": "R CENTRAL",
      "house": "6",
      "postcode": "2950-426",
      "city": "PALMELA",
      "lon": "-8.892213272715988",
      "lat": "38.55704567010994"
    },
    {
      "id": "pt.ine.add.PTCONT.4877330",
      "street": "R CENTRAL",
      "house": "6",
      "postcode": "2950-426",
      "city": "PALMELA",
      "lon": "-8.892213272715988",
      "lat": "38.55704567010994"
    },
    {
      "id": "pt.ine.add.PTCONT.4882839",
      "street": "R LAURA ALVES",
      "house": "15",
      "postcode": "2950-426",
      "city": "PALMELA",
      "lon": "-8.891801226533268",
      "lat": "38.55822842319264"
    },
    {
      "id": "pt.ine.add.PTCONT.4886215",
      "street": "ESTR MIRAVENTOS",
      "house": "7",
      "postcode": "2950-067",
      "city": "PALMELA",
      "lon": "-8.886231102754156",
      "lat": "38.55546282191117"
    },
    {
      "id": "pt.ine.add.PTCONT.4886216",
      "street": "ESTR MIRAVENTOS",
      "house": "7",
      "postcode": "2950-067",
      "city": "PALMELA",
      "lon": "-8.886231102754156",
      "lat": "38.55546282191117"
    },
    {
      "id": "pt.ine.add.PTCONT.4886217",
      "street": "ESTR MIRAVENTOS",
      "house": "7",
      "postcode": "2950-067",
      "city": "PALMELA",
      "lon": "-8.886231102754156",
      "lat": "38.55546282191117"
    },
    {
      "id": "pt.ine.add.PTCONT.4886218",
      "street": "ESTR MIRAVENTOS",
      "house": "7",
      "postcode": "2950-067",
      "city": "PALMELA",
      "lon": "-8.886231102754156",
      "lat": "38.55546282191117"
    },
    {
      "id": "pt.ine.add.PTCONT.4890208",
      "street": "EN 252",
      "house": "",
      "postcode": "2950-067",
      "city": "PALMELA",
      "lon": "-8.885889226049258",
      "lat": "38.5545822108649"
    },
    {
      "id": "pt.ine.add.PTCONT.4894501",
      "street": "R IVONE SILVA",
      "house": "3",
      "postcode": "2950-426",
      "city": "PALMELA",
      "lon": "-8.892123962591576",
      "lat": "38.55728046395012"
    },
    {
      "id": "pt.ine.add.PTCONT.4900687",
      "street": "R ANTÓNIO ALEIXO",
      "house": "",
      "postcode": "2950-426",
      "city": "PALMELA",
      "lon": "-8.891564217409664",
      "lat": "38.55750929839059"
    },
    {
      "id": "pt.ine.add.PTCONT.4905702",
      "street": "R FERNANDO PESSOA",
      "house": "10",
      "postcode": "2950-426",
      "city": "PALMELA",
      "lon": "-8.8939730841047",
      "lat": "38.557475649836974"
    },
    {
      "id": "pt.ine.add.PTCONT.4909336",
      "street": "QTA DA ASSECA",
      "house": "21",
      "postcode": "2950-426",
      "city": "PALMELA",
      "lon": "-8.892681146212416",
      "lat": "38.55571842099481"
    },
    {
      "id": "pt.ine.add.PTCONT.4911197",
      "street": "R AQUILINO RIBEIRO",
      "house": "1",
      "postcode": "2950-426",
      "city": "PALMELA",
      "lon": "-8.892793111520502",
      "lat": "38.55763645370099"
    },
    {
      "id": "pt.ine.add.PTCONT.4923559",
      "street": "R IVONE SILVA",
      "house": "4",
      "postcode": "2950-426",
      "city": "PALMELA",
      "lon": "-8.892241616246013",
      "lat": "38.557558957056024"
    },
    {
      "id": "pt.ine.add.PTCONT.4931552",
      "street": "R LAURA ALVES",
      "house": "5",
      "postcode": "2950-426",
      "city": "PALMELA",
      "lon": "-8.892116564176574",
      "lat": "38.55766786703573"
    },
    {
      "id": "pt.ine.add.PTCONT.4936477",
      "street": "R PARQUE NATURAL DA ARRÁBIDA",
      "house": "16",
      "postcode": "2950-426",
      "city": "PALMELA",
      "lon": "-8.89402702381558",
      "lat": "38.557151001952036"
    },
    {
      "id": "pt.ine.add.PTCONT.4958371",
      "street": "BC FAZENDINHA",
      "house": "4",
      "postcode": "2950-067",
      "city": "PALMELA",
      "lon": "-8.88728064624024",
      "lat": "38.55599656085888"
    },
    {
      "id": "pt.ine.add.PTCONT.4968778",
      "street": "R ALMADA NEGREIROS",
      "house": "1",
      "postcode": "2950-426",
      "city": "PALMELA",
      "lon": "-8.891327686251634",
      "lat": "38.5568352112074"
    },
    {
      "id": "pt.ine.add.PTCONT.4968906",
      "street": "R QUINTA DO BREJO",
      "house": "",
      "postcode": "2950-054",
      "city": "PALMELA",
      "lon": "-8.893072895599248",
      "lat": "38.559148024801836"
    },
    {
      "id": "pt.ine.add.PTCONT.4972442",
      "street": "R CENTRAL DA QUINTA DA ASSECA",
      "house": "12",
      "postcode": "2950-426",
      "city": "PALMELA",
      "lon": "-8.893693491960304",
      "lat": "38.557072095145024"
    },
    {
      "id": "pt.ine.add.PTCONT.4972564",
      "street": "EN 252",
      "house": "",
      "postcode": "2950-067",
      "city": "PALMELA",
      "lon": "-8.886737727688255",
      "lat": "38.55673873484559"
    },
    {
      "id": "pt.ine.add.PTCONT.4972565",
      "street": "EN 252",
      "house": "",
      "postcode": "2950-067",
      "city": "PALMELA",
      "lon": "-8.886737727688255",
      "lat": "38.55673873484559"
    },
    {
      "id": "pt.ine.add.PTCONT.4972566",
      "street": "FAZENDINHA MIRAVENTOS",
      "house": "13",
      "postcode": "2950-067",
      "city": "PALMELA",
      "lon": "-8.886737727688255",
      "lat": "38.55673873484559"
    },
    {
      "id": "pt.ine.add.PTCONT.4972567",
      "street": "EN 252",
      "house": "",
      "postcode": "2950-067",
      "city": "PALMELA",
      "lon": "-8.886737727688255",
      "lat": "38.55673873484559"
    },
    {
      "id": "pt.ine.add.PTCONT.4972572",
      "street": "BC FAZENDINHA",
      "house": "3",
      "postcode": "2950-067",
      "city": "PALMELA",
      "lon": "-8.887226206344378",
      "lat": "38.55627616771785"
    },
    {
      "id": "pt.ine.add.PTCONT.4979093",
      "street": "R ANTÓNIO ALEIXO",
      "house": "4",
      "postcode": "2950-426",
      "city": "PALMELA",
      "lon": "-8.891675620922161",
      "lat": "38.55719328748339"
    },
    {
      "id": "pt.ine.add.PTCONT.4983364",
      "street": "QTA DA ASSECA",
      "house": "9",
      "postcode": "2950-426",
      "city": "PALMELA",
      "lon": "-8.891758588851175",
      "lat": "38.55635498166502"
    },
    {
      "id": "pt.ine.add.PTCONT.4983376",
      "street": "QTA DA HORTA SECA",
      "house": "4",
      "postcode": "2950-426",
      "city": "PALMELA",
      "lon": "-8.891331966256008",
      "lat": "38.556150555698395"
    },
    {
      "id": "pt.ine.add.PTCONT.4983468",
      "street": "ESTR MIRAVENTOS",
      "house": "",
      "postcode": "2950-067",
      "city": "PALMELA",
      "lon": "-8.886171396344517",
      "lat": "38.555237999399644"
    },
    {
      "id": "pt.ine.add.PTCONT.4983469",
      "street": "ESTR MIRAVENTOS",
      "house": "",
      "postcode": "2950-067",
      "city": "PALMELA",
      "lon": "-8.886171396344517",
      "lat": "38.555237999399644"
    },
    {
      "id": "pt.ine.add.PTCONT.4983470",
      "street": "EN 252",
      "house": "",
      "postcode": "2950-067",
      "city": "PALMELA",
      "lon": "-8.886601384357014",
      "lat": "38.55576672012189"
    },
    {
      "id": "pt.ine.add.PTCONT.4983471",
      "street": "ESTR MIRAVENTOS",
      "house": "9",
      "postcode": "2950-067",
      "city": "PALMELA",
      "lon": "-8.886601384357014",
      "lat": "38.55576672012189"
    },
    {
      "id": "pt.ine.add.PTCONT.4983498",
      "street": "EN 252",
      "house": "",
      "postcode": "2950-067",
      "city": "PALMELA",
      "lon": "-8.886601384357014",
      "lat": "38.55576672012189"
    },
    {
      "id": "pt.ine.add.PTCONT.4983499",
      "street": "EN 252",
      "house": "",
      "postcode": "2950-067",
      "city": "PALMELA",
      "lon": "-8.886601384357014",
      "lat": "38.55576672012189"
    },
    {
      "id": "pt.ine.add.PTCONT.4983500",
      "street": "QTA MIRAVENTOS",
      "house": "9",
      "postcode": "2950-067",
      "city": "PALMELA",
      "lon": "-8.886601384357014",
      "lat": "38.55576672012189"
    },
    {
      "id": "pt.ine.add.PTCONT.4983501",
      "street": "EN 252",
      "house": "",
      "postcode": "2950-067",
      "city": "PALMELA",
      "lon": "-8.886601384357014",
      "lat": "38.55576672012189"
    },
    {
      "id": "pt.ine.add.PTCONT.4987044",
      "street": "QTA DA ASSECA",
      "house": "15",
      "postcode": "2950-426",
      "city": "PALMELA",
      "lon": "-8.892225510567107",
      "lat": "38.556027657386075"
    },
    {
      "id": "pt.ine.add.PTCONT.4987148",
      "street": "BC FAZENDINHA",
      "house": "1A",
      "postcode": "2950-067",
      "city": "PALMELA",
      "lon": "-8.887148446503254",
      "lat": "38.55651989170426"
    },
    {
      "id": "pt.ine.add.PTCONT.4990548",
      "street": "QTA DA ASSECA",
      "house": "2",
      "postcode": "2950-426",
      "city": "PALMELA",
      "lon": "-8.891568495103881",
      "lat": "38.55682464297385"
    },
    {
      "id": "pt.ine.add.PTCONT.4990673",
      "street": "QTA TOME DIAS",
      "house": "3",
      "postcode": "2950-067",
      "city": "PALMELA",
      "lon": "-8.889897267744518",
      "lat": "38.5538987654178"
    },
    {
      "id": "pt.ine.add.PTCONT.5000887",
      "street": "R SEBASTIÃO DA GAMA",
      "house": "1",
      "postcode": "2950-426",
      "city": "PALMELA",
      "lon": "-8.891729476118673",
      "lat": "38.55685963289177"
    },
    {
      "id": "pt.ine.add.PTCONT.5008726",
      "street": "BC FAZENDINHA",
      "house": "8",
      "postcode": "2950-067",
      "city": "PALMELA",
      "lon": "-8.88721567594066",
      "lat": "38.556366318179265"
    },
    {
      "id": "pt.ine.add.PTCONT.5013878",
      "street": "R IVONE SILVA",
      "house": "13",
      "postcode": "2950-426",
      "city": "PALMELA",
      "lon": "-8.892109828813993",
      "lat": "38.55811832359987"
    },
    {
      "id": "pt.ine.add.PTCONT.5023819",
      "street": "R IVONE SILVA",
      "house": "5",
      "postcode": "2950-426",
      "city": "PALMELA",
      "lon": "-8.892562918855782",
      "lat": "38.55756588126598"
    },
    {
      "id": "pt.ine.add.PTCONT.5027547",
      "street": "R IVONE SILVA",
      "house": "11",
      "postcode": "2950-426",
      "city": "PALMELA",
      "lon": "-8.892418240609532",
      "lat": "38.557990207915346"
    },
    {
      "id": "pt.ine.add.PTCONT.5027548",
      "street": "QTA HORTA SECA",
      "house": "99975",
      "postcode": "2950-054",
      "city": "PALMELA",
      "lon": "-8.891082620526978",
      "lat": "38.55644043479769"
    },
    {
      "id": "pt.ine.add.PTCONT.5041973",
      "street": "R ALMADA NEGREIROS",
      "house": "",
      "postcode": "2950-426",
      "city": "PALMELA",
      "lon": "-8.891630508896446",
      "lat": "38.55617564642977"
    },
    {
      "id": "pt.ine.add.PTCONT.5044809",
      "street": "R FERNANDO PESSOA",
      "house": "6",
      "postcode": "2950-426",
      "city": "PALMELA",
      "lon": "-8.893628174035776",
      "lat": "38.557405825065416"
    },
    {
      "id": "pt.ine.add.PTCONT.5045637",
      "street": "QTA DA ASSECA",
      "house": "17",
      "postcode": "2950-426",
      "city": "PALMELA",
      "lon": "-8.892373692072454",
      "lat": "38.5559366137793"
    },
    {
      "id": "pt.ine.add.PTCONT.5053369",
      "street": "QTA TOME DIAS",
      "house": "",
      "postcode": "2950-067",
      "city": "PALMELA",
      "lon": "-8.89080843424991",
      "lat": "38.553271301204035"
    },
    {
      "id": "pt.ine.add.PTCONT.5058403",
      "street": "R FERNANDO PESSOA",
      "house": "8",
      "postcode": "2950-426",
      "city": "PALMELA",
      "lon": "-8.8938013884865",
      "lat": "38.55751279870549"
    },
    {
      "id": "pt.ine.add.PTCONT.5066272",
      "street": "R ALMADA NEGREIROS",
      "house": "13",
      "postcode": "2950-426",
      "city": "PALMELA",
      "lon": "-8.892089084323919",
      "lat": "38.556145649372276"
    },
    {
      "id": "pt.ine.add.PTCONT.5067729",
      "street": "R IVONE SILVA",
      "house": "9",
      "postcode": "2950-426",
      "city": "PALMELA",
      "lon": "-8.89258974852983",
      "lat": "38.55793504577449"
    },
    {
      "id": "pt.ine.add.PTCONT.5067751",
      "street": "R PARQUE NATURAL DA ARRÁBIDA",
      "house": "18 A",
      "postcode": "2950-426",
      "city": "PALMELA",
      "lon": "-8.894142689992856",
      "lat": "38.55724033263204"
    },
    {
      "id": "pt.ine.add.PTCONT.5067757",
      "street": "QTA DA ASSECA",
      "house": "11",
      "postcode": "2950-426",
      "city": "PALMELA",
      "lon": "-8.891929714627956",
      "lat": "38.55626378992383"
    },
    {
      "id": "pt.ine.add.PTCONT.5075558",
      "street": "R LAURA ALVES",
      "house": "",
      "postcode": "2950-426",
      "city": "PALMELA",
      "lon": "-8.89172993392749",
      "lat": "38.5579946705281"
    },
    {
      "id": "pt.ine.add.PTCONT.5075559",
      "street": "EN 252",
      "house": "",
      "postcode": "2950-067",
      "city": "PALMELA",
      "lon": "-8.886660528320611",
      "lat": "38.55593749642787"
    },
    {
      "id": "pt.ine.add.PTCONT.5078394",
      "street": "R ANTÓNIO ALEIXO",
      "house": "2",
      "postcode": "2950-426",
      "city": "PALMELA",
      "lon": "-8.891613038821147",
      "lat": "38.55778823807505"
    },
    {
      "id": "pt.ine.add.PTCONT.5078421",
      "street": "R CENTRAL DA QUINTA DA ASSECA",
      "house": "8",
      "postcode": "2950-426",
      "city": "PALMELA",
      "lon": "-8.892283997410798",
      "lat": "38.55722537664551"
    },
    {
      "id": "pt.ine.add.PTCONT.5092733",
      "street": "EN 252",
      "house": "",
      "postcode": "2950-067",
      "city": "PALMELA",
      "lon": "-8.885796047102906",
      "lat": "38.554447686021454"
    },
    {
      "id": "pt.ine.add.PTCONT.5092739",
      "street": "EN 252",
      "house": "14",
      "postcode": "2950-067",
      "city": "PALMELA",
      "lon": "-8.886844170295928",
      "lat": "38.557044330442814"
    },
    {
      "id": "pt.ine.add.PTCONT.5110034",
      "street": "R CENTRAL DA QUINTA DA ASSECA",
      "house": "10",
      "postcode": "2950-426",
      "city": "PALMELA",
      "lon": "-8.893211304121177",
      "lat": "38.55703919401427"
    },
    {
      "id": "pt.ine.add.PTCONT.5128831",
      "street": "R CENTRAL DA QUINTA DA ASSECA",
      "house": "3",
      "postcode": "2950-426",
      "city": "PALMELA",
      "lon": "-8.891337359926883",
      "lat": "38.556663991610954"
    },
    {
      "id": "pt.ine.add.PTCONT.5130211",
      "street": "R LAURA ALVES",
      "house": "9",
      "postcode": "2950-426",
      "city": "PALMELA",
      "lon": "-8.892108123710845",
      "lat": "38.557956186017634"
    }
  ]
}