{
  "data": {
    "distrito": "Porto",
    "concelho": "Penafiel",
    "freguesia": "Luzim e Vila Cova",
    "OBJECTID": 892,
    "BGRI2021": "13114000130",
    "DT21": "13",
    "DTMN21": "1311",
    "DTMNFR21": "131140",
    "DTMNFRSEC21": "131140001",
    "SECNUM21": "001",
    "SSNUM21": "30",
    "SECSSNUM21": "00130",
    "OBJECTID_1": 136325,
    "DT": "13",
    "CC": "11",
    "fr": "40",
    "SEC": "001",
    "SS": "30"
  },
  "addresses": [
    {
      "id": "pt.ine.add.PTCONT.3542398",
      "street": "CC CASAL MENINO",
      "house": "71",
      "postcode": "4560-210",
      "city": "LUZIM",
      "lon": "-8.245183904574803",
      "lat": "41.15762336675639"
    },
    {
      "id": "pt.ine.add.PTCONT.3548794",
      "street": "R GATAO",
      "house": "137",
      "postcode": "4560-210",
      "city": "LUZIM",
      "lon": "-8.247800378567213",
      "lat": "41.154973501131416"
    },
    {
      "id": "pt.ine.add.PTCONT.3558389",
      "street": "CC GATAO",
      "house": "41",
      "postcode": "4560-210",
      "city": "LUZIM",
      "lon": "-8.247885281260634",
      "lat": "41.15583783798047"
    },
    {
      "id": "pt.ine.add.PTCONT.3561962",
      "street": "R PRESA",
      "house": "260",
      "postcode": "4560-210",
      "city": "LUZIM",
      "lon": "-8.246309355891112",
      "lat": "41.15391245786754"
    },
    {
      "id": "pt.ine.add.PTCONT.3613361",
      "street": "R GATAO",
      "house": "",
      "postcode": "4560-210",
      "city": "LUZIM",
      "lon": "-8.248241448048313",
      "lat": "41.15512613576371"
    },
    {
      "id": "pt.ine.add.PTCONT.3626085",
      "street": "R MIRELA",
      "house": "161",
      "postcode": "4560-210",
      "city": "LUZIM",
      "lon": "-8.244138979163248",
      "lat": "41.15970439157805"
    },
    {
      "id": "pt.ine.add.PTCONT.3641645",
      "street": "CC CASAL MENINO",
      "house": "74",
      "postcode": "4560-210",
      "city": "LUZIM",
      "lon": "-8.245113048792092",
      "lat": "41.15799261550446"
    },
    {
      "id": "pt.ine.add.PTCONT.3645351",
      "street": "CC CASAL MENINO",
      "house": "17",
      "postcode": "4560-210",
      "city": "LUZIM",
      "lon": "-8.244599887782242",
      "lat": "41.15748886770562"
    },
    {
      "id": "pt.ine.add.PTCONT.3651553",
      "street": "R CONDESSA",
      "house": "580",
      "postcode": "4560-210",
      "city": "LUZIM",
      "lon": "-8.24508397984208",
      "lat": "41.154913142995746"
    },
    {
      "id": "pt.ine.add.PTCONT.3654427",
      "street": "R CONDESSA",
      "house": "580",
      "postcode": "4560-210",
      "city": "LUZIM",
      "lon": "-8.24508397984208",
      "lat": "41.154913142995746"
    },
    {
      "id": "pt.ine.add.PTCONT.3671210",
      "street": "R GATAO",
      "house": "",
      "postcode": "4560-210",
      "city": "LUZIM",
      "lon": "-8.24774057548367",
      "lat": "41.154838494801865"
    },
    {
      "id": "pt.ine.add.PTCONT.3682626",
      "street": "R MIRELA",
      "house": "",
      "postcode": "4560-210",
      "city": "LUZIM",
      "lon": "-8.243972935992996",
      "lat": "41.16015477064831"
    },
    {
      "id": "pt.ine.add.PTCONT.3690147",
      "street": "R CORTINHAS",
      "house": "171",
      "postcode": "4560-210",
      "city": "LUZIM",
      "lon": "-8.245438926540855",
      "lat": "41.16045049497029"
    },
    {
      "id": "pt.ine.add.PTCONT.3739516",
      "street": "MIRAVAL",
      "house": "",
      "postcode": "4560-871",
      "city": "VILA COVA PNF",
      "lon": "-8.247741281364945",
      "lat": "41.155243691663735"
    },
    {
      "id": "pt.ine.add.PTCONT.3761906",
      "street": "R SOQUEIRA",
      "house": "",
      "postcode": "4560-210",
      "city": "LUZIM",
      "lon": "-8.245388440807625",
      "lat": "41.15879373767712"
    },
    {
      "id": "pt.ine.add.PTCONT.3768194",
      "street": "TV MIRELA",
      "house": "35",
      "postcode": "4560-210",
      "city": "LUZIM",
      "lon": "-8.24349720213353",
      "lat": "41.1606594729385"
    },
    {
      "id": "pt.ine.add.PTCONT.3826611",
      "street": "R CORTINHAS",
      "house": "122",
      "postcode": "4560-210",
      "city": "LUZIM",
      "lon": "-8.244163978348357",
      "lat": "41.16039770493986"
    },
    {
      "id": "pt.ine.add.PTCONT.3826619",
      "street": "R SOQUEIRA",
      "house": "41",
      "postcode": "4560-210",
      "city": "LUZIM",
      "lon": "-8.24487487373995",
      "lat": "41.15805587754821"
    },
    {
      "id": "pt.ine.add.PTCONT.3851169",
      "street": "R GATAO",
      "house": "",
      "postcode": "4560-210",
      "city": "LUZIM",
      "lon": "-8.248399511556167",
      "lat": "41.15694486419511"
    },
    {
      "id": "pt.ine.add.PTCONT.3872926",
      "street": "CC CASAL MENINO",
      "house": "175",
      "postcode": "4560-210",
      "city": "LUZIM",
      "lon": "-8.245717601459958",
      "lat": "41.156200153031634"
    },
    {
      "id": "pt.ine.add.PTCONT.3892572",
      "street": "CC GATAO",
      "house": "61",
      "postcode": "4560-210",
      "city": "LUZIM",
      "lon": "-8.248064285868917",
      "lat": "41.15600874286937"
    },
    {
      "id": "pt.ine.add.PTCONT.3896440",
      "street": "R PRESA",
      "house": "67",
      "postcode": "4560-210",
      "city": "LUZIM",
      "lon": "-8.246322493098095",
      "lat": "41.15462379189228"
    },
    {
      "id": "pt.ine.add.PTCONT.3915459",
      "street": "R PRESA",
      "house": "6",
      "postcode": "4560-210",
      "city": "LUZIM",
      "lon": "-8.246607671507153",
      "lat": "41.154191300470664"
    },
    {
      "id": "pt.ine.add.PTCONT.3915460",
      "street": "R FONTENARIO",
      "house": "15",
      "postcode": "4560-210",
      "city": "LUZIM",
      "lon": "-8.245809765552579",
      "lat": "41.154363167331255"
    },
    {
      "id": "pt.ine.add.PTCONT.3926524",
      "street": "R MIRELA",
      "house": "30",
      "postcode": "4560-210",
      "city": "LUZIM",
      "lon": "-8.24310367441601",
      "lat": "41.1604527486146"
    },
    {
      "id": "pt.ine.add.PTCONT.3936584",
      "street": "R GATAO",
      "house": "225",
      "postcode": "4560-210",
      "city": "LUZIM",
      "lon": "-8.247718301051",
      "lat": "41.15572995156991"
    },
    {
      "id": "pt.ine.add.PTCONT.3961410",
      "street": "R CORTINHAS",
      "house": "23",
      "postcode": "4560-210",
      "city": "LUZIM",
      "lon": "-8.243592760796243",
      "lat": "41.16080345142681"
    },
    {
      "id": "pt.ine.add.PTCONT.3968462",
      "street": "R GATAO",
      "house": "285",
      "postcode": "4560-210",
      "city": "LUZIM",
      "lon": "-8.24795756508557",
      "lat": "41.15629698975737"
    },
    {
      "id": "pt.ine.add.PTCONT.3985466",
      "street": "R GATAO",
      "house": "",
      "postcode": "4560-210",
      "city": "LUZIM",
      "lon": "-8.248289023584634",
      "lat": "41.15508106625135"
    },
    {
      "id": "pt.ine.add.PTCONT.3993982",
      "street": "R MIRELA",
      "house": "",
      "postcode": "4560-210",
      "city": "LUZIM",
      "lon": "-8.244032037859096",
      "lat": "41.1598755778869"
    },
    {
      "id": "pt.ine.add.PTCONT.3996787",
      "street": "R CORTINHAS",
      "house": "161",
      "postcode": "4560-210",
      "city": "LUZIM",
      "lon": "-8.244032037859096",
      "lat": "41.1598755778869"
    },
    {
      "id": "pt.ine.add.PTCONT.4016103",
      "street": "R MIRELA",
      "house": "176",
      "postcode": "4560-210",
      "city": "LUZIM",
      "lon": "-8.243960763576403",
      "lat": "41.16000170785932"
    },
    {
      "id": "pt.ine.add.PTCONT.4019780",
      "street": "R CASAL MENINO",
      "house": "37",
      "postcode": "4560-210",
      "city": "LUZIM",
      "lon": "-8.24479063429242",
      "lat": "41.15756071801779"
    },
    {
      "id": "pt.ine.add.PTCONT.4022388",
      "street": "GATAO",
      "house": "",
      "postcode": "4560-210",
      "city": "LUZIM",
      "lon": "-8.247647289095132",
      "lat": "41.15600015387281"
    },
    {
      "id": "pt.ine.add.PTCONT.4039568",
      "street": "R CONDESSA",
      "house": "",
      "postcode": "4560-210",
      "city": "LUZIM",
      "lon": "-8.245655706953096",
      "lat": "41.15484055068456"
    },
    {
      "id": "pt.ine.add.PTCONT.4046101",
      "street": "CC GATAO",
      "house": "23",
      "postcode": "4560-210",
      "city": "LUZIM",
      "lon": "-8.247873194793401",
      "lat": "41.15573880174232"
    },
    {
      "id": "pt.ine.add.PTCONT.4072793",
      "street": "R SOQUEIRA",
      "house": "215",
      "postcode": "4560-210",
      "city": "LUZIM",
      "lon": "-8.244376993378394",
      "lat": "41.159542083010834"
    },
    {
      "id": "pt.ine.add.PTCONT.4072804",
      "street": "R PRESA",
      "house": "260",
      "postcode": "4560-210",
      "city": "LUZIM",
      "lon": "-8.246166673953587",
      "lat": "41.15407467705174"
    },
    {
      "id": "pt.ine.add.PTCONT.4098944",
      "street": "TV MIAELA",
      "house": "133",
      "postcode": "4560-210",
      "city": "LUZIM",
      "lon": "-8.243748029373275",
      "lat": "41.161028411925905"
    },
    {
      "id": "pt.ine.add.PTCONT.4114341",
      "street": "R MINA NOVA",
      "house": "46",
      "postcode": "4560-210",
      "city": "LUZIM",
      "lon": "-8.247288361168728",
      "lat": "41.1551270844275"
    },
    {
      "id": "pt.ine.add.PTCONT.4114871",
      "street": "PAÇOS",
      "house": "",
      "postcode": "4560-871",
      "city": "VILA COVA PNF",
      "lon": "-8.244709771423045",
      "lat": "41.15905552435374"
    },
    {
      "id": "pt.ine.add.PTCONT.4124802",
      "street": "R CASAL MENINO",
      "house": "19",
      "postcode": "4560-210",
      "city": "LUZIM",
      "lon": "-8.244929363836668",
      "lat": "41.15506636783058"
    },
    {
      "id": "pt.ine.add.PTCONT.4131156",
      "street": "R CORTINHAS",
      "house": "36",
      "postcode": "4560-210",
      "city": "LUZIM",
      "lon": "-8.2445917269811",
      "lat": "41.1597039542838"
    },
    {
      "id": "pt.ine.add.PTCONT.4157704",
      "street": "TV MIRELA",
      "house": "35",
      "postcode": "4560-210",
      "city": "LUZIM",
      "lon": "-8.243377980776058",
      "lat": "41.16061456522211"
    },
    {
      "id": "pt.ine.add.PTCONT.4184868",
      "street": "CC CASAL MENINO",
      "house": "93",
      "postcode": "4560-210",
      "city": "LUZIM",
      "lon": "-8.245446213291473",
      "lat": "41.15774016826234"
    },
    {
      "id": "pt.ine.add.PTCONT.4190153",
      "street": "CC CASAL MENINO",
      "house": "",
      "postcode": "4560-210",
      "city": "LUZIM",
      "lon": "-8.24562526295444",
      "lat": "41.15793808999895"
    },
    {
      "id": "pt.ine.add.PTCONT.4208755",
      "street": "R GATAO",
      "house": "50",
      "postcode": "4560-210",
      "city": "LUZIM",
      "lon": "-8.247108487400004",
      "lat": "41.15445193327645"
    },
    {
      "id": "pt.ine.add.PTCONT.4251539",
      "street": "R CORTINHAS",
      "house": "314",
      "postcode": "4560-210",
      "city": "LUZIM",
      "lon": "-8.244759949936324",
      "lat": "41.160541198919724"
    },
    {
      "id": "pt.ine.add.PTCONT.4283738",
      "street": "R CASAL MENINO",
      "house": "175",
      "postcode": "4560-210",
      "city": "LUZIM",
      "lon": "-8.245622398988969",
      "lat": "41.15626327678112"
    },
    {
      "id": "pt.ine.add.PTCONT.4295091",
      "street": "BC REGEDOR",
      "house": "",
      "postcode": "4560-210",
      "city": "LUZIM",
      "lon": "-8.246322771953897",
      "lat": "41.1547858706545"
    },
    {
      "id": "pt.ine.add.PTCONT.4298674",
      "street": "R GATAO",
      "house": "",
      "postcode": "4560-210",
      "city": "LUZIM",
      "lon": "-8.247946169885262",
      "lat": "41.15659414592577"
    },
    {
      "id": "pt.ine.add.PTCONT.4353331",
      "street": "R PRESA",
      "house": "240",
      "postcode": "4560-210",
      "city": "LUZIM",
      "lon": "-8.246392361931816",
      "lat": "41.15368726645807"
    },
    {
      "id": "pt.ine.add.PTCONT.4357692",
      "street": "R DE GATÃO",
      "house": "",
      "postcode": "4560-210",
      "city": "LUZIM",
      "lon": "-8.247835773860425",
      "lat": "41.1547753692914"
    },
    {
      "id": "pt.ine.add.PTCONT.4385121",
      "street": "R GATAO",
      "house": "",
      "postcode": "4560-210",
      "city": "LUZIM",
      "lon": "-8.24774124999214",
      "lat": "41.15522568291492"
    },
    {
      "id": "pt.ine.add.PTCONT.4391222",
      "street": "GATÃO",
      "house": "",
      "postcode": "4560-210",
      "city": "LUZIM",
      "lon": "-8.247515799542356",
      "lat": "41.15574816165075"
    }
  ]
}