{
  "data": {
    "distrito": "Faro",
    "concelho": "Lagos",
    "freguesia": "Luz",
    "OBJECTID": 560,
    "BGRI2021": "08070300310",
    "DT21": "08",
    "DTMN21": "0807",
    "DTMNFR21": "080703",
    "DTMNFRSEC21": "080703003",
    "SECNUM21": "003",
    "SSNUM21": "10",
    "SECSSNUM21": "00310",
    "OBJECTID_1": 67803,
    "DT": "08",
    "CC": "07",
    "fr": "03",
    "SEC": "003",
    "SS": "10"
  },
  "addresses": [
    {
      "id": "pt.ine.add.PTCONT.1483452",
      "street": "CERRO LAMY CASAS DO CAMPO",
      "house": "509",
      "postcode": "8600-123",
      "city": "LUZ LGS",
      "lon": "-8.75186113437009",
      "lat": "37.08105340333352"
    },
    {
      "id": "pt.ine.add.PTCONT.1485151",
      "street": "CERRO LAMY CASAS DO CAMPO",
      "house": "529",
      "postcode": "8600-123",
      "city": "LUZ LGS",
      "lon": "-8.752035646364572",
      "lat": "37.0803857115927"
    },
    {
      "id": "pt.ine.add.PTCONT.1499633",
      "street": "SIT ALTO DOS MONTINHOS",
      "house": "16",
      "postcode": "8600-123",
      "city": "LUZ LGS",
      "lon": "-8.749197343526024",
      "lat": "37.081247481926326"
    },
    {
      "id": "pt.ine.add.PTCONT.1500924",
      "street": "CERRO LAMY CASAS DO CAMPO",
      "house": "512",
      "postcode": "8600-123",
      "city": "LUZ LGS",
      "lon": "-8.751623948331117",
      "lat": "37.080928492745514"
    },
    {
      "id": "pt.ine.add.PTCONT.1503089",
      "street": "CERRO LAMY CASAS DO CAMPO",
      "house": "517",
      "postcode": "8600-123",
      "city": "LUZ LGS",
      "lon": "-8.751833956460123",
      "lat": "37.08047686952296"
    },
    {
      "id": "pt.ine.add.PTCONT.1507918",
      "street": "CERRO LAMY CASAS DO CAMPO",
      "house": "515",
      "postcode": "8600-123",
      "city": "LUZ LGS",
      "lon": "-8.751711352026664",
      "lat": "37.080612667421676"
    },
    {
      "id": "pt.ine.add.PTCONT.1513425",
      "street": "SIT ALTO DOS MONTINHOS",
      "house": "9",
      "postcode": "8600-123",
      "city": "LUZ LGS",
      "lon": "-8.74965966205745",
      "lat": "37.08139825888329"
    },
    {
      "id": "pt.ine.add.PTCONT.1520436",
      "street": "SIT ALTO DOS MONTINHOS",
      "house": "4",
      "postcode": "8600-123",
      "city": "LUZ LGS",
      "lon": "-8.750335288296112",
      "lat": "37.08150287132258"
    },
    {
      "id": "pt.ine.add.PTCONT.1520438",
      "street": "SIT PORTO D MARIA",
      "house": "26",
      "postcode": "8600-123",
      "city": "LUZ LGS",
      "lon": "-8.751137583571936",
      "lat": "37.07920100114591"
    },
    {
      "id": "pt.ine.add.PTCONT.1527352",
      "street": "CERRO LAMY",
      "house": "14-15",
      "postcode": "8600-123",
      "city": "LUZ LGS",
      "lon": "-8.75254700947299",
      "lat": "37.07965318678361"
    },
    {
      "id": "pt.ine.add.PTCONT.1538698",
      "street": "CERRO LAMY CASAS DO CAMPO",
      "house": "526",
      "postcode": "8600-123",
      "city": "LUZ LGS",
      "lon": "-8.752238288303854",
      "lat": "37.08041168558653"
    },
    {
      "id": "pt.ine.add.PTCONT.1554494",
      "street": "CERRO LAMY CASAS DO CAMPO",
      "house": "523",
      "postcode": "8600-123",
      "city": "LUZ LGS",
      "lon": "-8.752303564010548",
      "lat": "37.08014102810833"
    },
    {
      "id": "pt.ine.add.PTCONT.1554514",
      "street": "EM LUZ BURGAU",
      "house": "1006 D",
      "postcode": "8600-146",
      "city": "LUZ LGS",
      "lon": "-8.751427719590287",
      "lat": "37.08446165291812"
    },
    {
      "id": "pt.ine.add.PTCONT.1561524",
      "street": "",
      "house": "11",
      "postcode": "8600-123",
      "city": "LUZ LGS",
      "lon": "-8.75005823113937",
      "lat": "37.0820089039982"
    },
    {
      "id": "pt.ine.add.PTCONT.1568090",
      "street": "SIT ALTO DOS MONTINHOS",
      "house": "7",
      "postcode": "8600-123",
      "city": "LUZ LGS",
      "lon": "-8.750655653418685",
      "lat": "37.08217699525155"
    },
    {
      "id": "pt.ine.add.PTCONT.1569315",
      "street": "CERRO LAMY CSAS DO CAMPO",
      "house": "501",
      "postcode": "8600-123",
      "city": "LUZ LGS",
      "lon": "-8.75255346049123",
      "lat": "37.08044608210366"
    },
    {
      "id": "pt.ine.add.PTCONT.1569336",
      "street": "URB ALTO MONTINHOS",
      "house": "",
      "postcode": "8600-123",
      "city": "LUZ LGS",
      "lon": "-8.749724064623212",
      "lat": "37.08240710627884"
    },
    {
      "id": "pt.ine.add.PTCONT.1578548",
      "street": "CERRO LAMY CASAS DO CAMPO",
      "house": "518",
      "postcode": "8600-123",
      "city": "LUZ LGS",
      "lon": "-8.75190025888883",
      "lat": "37.080332354704694"
    },
    {
      "id": "pt.ine.add.PTCONT.1592235",
      "street": "ALTO MONTINHOS",
      "house": "17",
      "postcode": "8600-123",
      "city": "LUZ LGS",
      "lon": "-8.750132498138877",
      "lat": "37.08284649920922"
    },
    {
      "id": "pt.ine.add.PTCONT.1609170",
      "street": "CERRO LAMY CASAS DO CAMPO",
      "house": "519",
      "postcode": "8600-123",
      "city": "LUZ LGS",
      "lon": "-8.752034547662918",
      "lat": "37.080250558974264"
    },
    {
      "id": "pt.ine.add.PTCONT.1612027",
      "street": "R DR FAUSANTO DE SOUSA CORREIA",
      "house": "56",
      "postcode": "8600-123",
      "city": "LUZ LGS",
      "lon": "-8.751682464156387",
      "lat": "37.078441273576615"
    },
    {
      "id": "pt.ine.add.PTCONT.1612028",
      "street": "CERRO LAMY CASAS DO CAMPO",
      "house": "521",
      "postcode": "8600-123",
      "city": "LUZ LGS",
      "lon": "-8.752078065248117",
      "lat": "37.080070120726646"
    },
    {
      "id": "pt.ine.add.PTCONT.1619586",
      "street": "PORTO D MARIA",
      "house": "",
      "postcode": "8600-123",
      "city": "LUZ LGS",
      "lon": "-8.751243913629047",
      "lat": "37.07983118610488"
    },
    {
      "id": "pt.ine.add.PTCONT.1621019",
      "street": "CERRO LAMY CASAS DO CAMPO",
      "house": "503",
      "postcode": "8600-123",
      "city": "LUZ LGS",
      "lon": "-8.752509650618187",
      "lat": "37.08059047981273"
    },
    {
      "id": "pt.ine.add.PTCONT.1621021",
      "street": "CERRO LAMY CASAS DO CAMPO",
      "house": "524",
      "postcode": "8600-123",
      "city": "LUZ LGS",
      "lon": "-8.752394481863753",
      "lat": "37.08025769064589"
    },
    {
      "id": "pt.ine.add.PTCONT.1628360",
      "street": "CERRO LAMY CASAS DO CAMPO",
      "house": "520",
      "postcode": "8600-123",
      "city": "LUZ LGS",
      "lon": "-8.752044987592386",
      "lat": "37.08015138836564"
    },
    {
      "id": "pt.ine.add.PTCONT.1629479",
      "street": "ALTO MONTINHOS",
      "house": "",
      "postcode": "8600-123",
      "city": "LUZ LGS",
      "lon": "-8.74963176183786",
      "lat": "37.08211924838259"
    },
    {
      "id": "pt.ine.add.PTCONT.1629480",
      "street": "SIT PORTO D MARIA",
      "house": "29",
      "postcode": "8600-123",
      "city": "LUZ LGS",
      "lon": "-8.750890474977828",
      "lat": "37.07923833079371"
    },
    {
      "id": "pt.ine.add.PTCONT.1635103",
      "street": "CERRO LAMY CASAS DO CAMPO",
      "house": "508",
      "postcode": "8600-123",
      "city": "LUZ LGS",
      "lon": "-8.752264589936683",
      "lat": "37.08088009720408"
    },
    {
      "id": "pt.ine.add.PTCONT.1641134",
      "street": "R DR FAUSANTO DE SOUSA CORREIA",
      "house": "54",
      "postcode": "8600-123",
      "city": "LUZ LGS",
      "lon": "-8.751234111572225",
      "lat": "37.078623822309645"
    },
    {
      "id": "pt.ine.add.PTCONT.1643061",
      "street": "CERRO LAMY CASAS DO CAMPO",
      "house": "507",
      "postcode": "8600-123",
      "city": "LUZ LGS",
      "lon": "-8.752388073276245",
      "lat": "37.08085242082337"
    },
    {
      "id": "pt.ine.add.PTCONT.1650313",
      "street": "URB PORTO D MARIA",
      "house": "510",
      "postcode": "8600-123",
      "city": "LUZ LGS",
      "lon": "-8.751793147191423",
      "lat": "37.08099068412171"
    },
    {
      "id": "pt.ine.add.PTCONT.1650314",
      "street": "CERRO LAMY CASAS DO CAMPO",
      "house": "522",
      "postcode": "8600-123",
      "city": "LUZ LGS",
      "lon": "-8.752133341034664",
      "lat": "37.07995269499002"
    },
    {
      "id": "pt.ine.add.PTCONT.1650340",
      "street": "",
      "house": "1",
      "postcode": "8600-123",
      "city": "LUZ LGS",
      "lon": "-8.74992496296929",
      "lat": "37.080829214329235"
    },
    {
      "id": "pt.ine.add.PTCONT.1657535",
      "street": "PORTO D MARIA",
      "house": "32",
      "postcode": "8600-123",
      "city": "LUZ LGS",
      "lon": "-8.750563989913957",
      "lat": "37.07919497816462"
    },
    {
      "id": "pt.ine.add.PTCONT.1663264",
      "street": "CERRO LAMY",
      "house": "18-19",
      "postcode": "8600-123",
      "city": "LUZ LGS",
      "lon": "-8.752208983127858",
      "lat": "37.079573856743636"
    },
    {
      "id": "pt.ine.add.PTCONT.1664449",
      "street": "CERRO LAMY",
      "house": "20-21",
      "postcode": "8600-123",
      "city": "LUZ LGS",
      "lon": "-8.752028614800643",
      "lat": "37.07952073478105"
    },
    {
      "id": "pt.ine.add.PTCONT.1669301",
      "street": "CERRO LAMY",
      "house": "513",
      "postcode": "8600-123",
      "city": "LUZ LGS",
      "lon": "-8.751589039938114",
      "lat": "37.0807845058931"
    },
    {
      "id": "pt.ine.add.PTCONT.1670530",
      "street": "CERRO LAMY CASAS DO CAMPO",
      "house": "505",
      "postcode": "8600-123",
      "city": "LUZ LGS",
      "lon": "-8.752454521560486",
      "lat": "37.08072592605757"
    },
    {
      "id": "pt.ine.add.PTCONT.1682284",
      "street": "SIT PORTO D MARIA",
      "house": "51",
      "postcode": "8600-123",
      "city": "LUZ LGS",
      "lon": "-8.750505351344135",
      "lat": "37.07889793496753"
    },
    {
      "id": "pt.ine.add.PTCONT.1687368",
      "street": "CASA VERDE",
      "house": "",
      "postcode": "8600-113",
      "city": "LUZ LGS",
      "lon": "-8.750062980081754",
      "lat": "37.079819313984814"
    },
    {
      "id": "pt.ine.add.PTCONT.1687369",
      "street": "CERRO LAMY",
      "house": "9-10",
      "postcode": "8600-123",
      "city": "LUZ LGS",
      "lon": "-8.751716594577006",
      "lat": "37.07987377439779"
    },
    {
      "id": "pt.ine.add.PTCONT.1687370",
      "street": "CERRO LAMY",
      "house": "11-12",
      "postcode": "8600-123",
      "city": "LUZ LGS",
      "lon": "-8.751782677074601",
      "lat": "37.07970222910551"
    },
    {
      "id": "pt.ine.add.PTCONT.1693123",
      "street": "SIT ALTO DOS MONTINHOS",
      "house": "2",
      "postcode": "8600-123",
      "city": "LUZ LGS",
      "lon": "-8.750494045307457",
      "lat": "37.08166423499882"
    },
    {
      "id": "pt.ine.add.PTCONT.1697237",
      "street": "",
      "house": "10",
      "postcode": "8600-123",
      "city": "LUZ LGS",
      "lon": "-8.749898306348994",
      "lat": "37.08170337693048"
    },
    {
      "id": "pt.ine.add.PTCONT.1697238",
      "street": "SIT PORTO D MARIA",
      "house": "57",
      "postcode": "8600-123",
      "city": "LUZ LGS",
      "lon": "-8.751805065200442",
      "lat": "37.07830547568982"
    },
    {
      "id": "pt.ine.add.PTCONT.1713137",
      "street": "CERRO LAMY CASAS DO CAMPO",
      "house": "506",
      "postcode": "8600-123",
      "city": "LUZ LGS",
      "lon": "-8.752353603191514",
      "lat": "37.08076249524727"
    },
    {
      "id": "pt.ine.add.PTCONT.1716145",
      "street": "CERRO LAMY",
      "house": "528",
      "postcode": "8600-123",
      "city": "LUZ LGS",
      "lon": "-8.752047771021093",
      "lat": "37.08049377499797"
    },
    {
      "id": "pt.ine.add.PTCONT.1720358",
      "street": "MONTINHOS",
      "house": "APART 98",
      "postcode": "8600-123",
      "city": "LUZ LGS",
      "lon": "-8.752696134752862",
      "lat": "37.080012830119486"
    },
    {
      "id": "pt.ine.add.PTCONT.1727417",
      "street": "CERRO LAMY",
      "house": "16-17",
      "postcode": "8600-123",
      "city": "LUZ LGS",
      "lon": "-8.752366787296818",
      "lat": "37.07961808568985"
    },
    {
      "id": "pt.ine.add.PTCONT.1738874",
      "street": "",
      "house": "",
      "postcode": "8600-123",
      "city": "LUZ LGS",
      "lon": "-8.750175656473878",
      "lat": "37.08262101081249"
    },
    {
      "id": "pt.ine.add.PTCONT.1740739",
      "street": "R DR FAUSANTO DE SOUSA CORREIA",
      "house": "55",
      "postcode": "8600-123",
      "city": "LUZ LGS",
      "lon": "-8.751356274742589",
      "lat": "37.07843396380921"
    },
    {
      "id": "pt.ine.add.PTCONT.1742229",
      "street": "CERRO LAMY",
      "house": "13",
      "postcode": "8600-123",
      "city": "LUZ LGS",
      "lon": "-8.752704887321372",
      "lat": "37.07970642545049"
    },
    {
      "id": "pt.ine.add.PTCONT.1760276",
      "street": "CERRO LAMY CASAS DO CAMPO",
      "house": "502",
      "postcode": "8600-123",
      "city": "LUZ LGS",
      "lon": "-8.752520456492027",
      "lat": "37.080536360040384"
    },
    {
      "id": "pt.ine.add.PTCONT.1764064",
      "street": "CERRO LAMY",
      "house": "6",
      "postcode": "8600-123",
      "city": "LUZ LGS",
      "lon": "-8.75160662722024",
      "lat": "37.08018070687435"
    },
    {
      "id": "pt.ine.add.PTCONT.1778568",
      "street": "CERRO LAMY CASAS DO CAMPO",
      "house": "527",
      "postcode": "8600-123",
      "city": "LUZ LGS",
      "lon": "-8.752158762684065",
      "lat": "37.08031298458305"
    },
    {
      "id": "pt.ine.add.PTCONT.1787515",
      "street": "CASA VERDE",
      "house": "",
      "postcode": "8600-113",
      "city": "LUZ LGS",
      "lon": "-8.750347480054286",
      "lat": "37.08023231936841"
    },
    {
      "id": "pt.ine.add.PTCONT.1787516",
      "street": "CERRO LAMY",
      "house": "718",
      "postcode": "8600-123",
      "city": "LUZ LGS",
      "lon": "-8.751661464603885",
      "lat": "37.080009220298464"
    },
    {
      "id": "pt.ine.add.PTCONT.1787549",
      "street": "",
      "house": "2",
      "postcode": "8600-123",
      "city": "LUZ LGS",
      "lon": "-8.750084009764368",
      "lat": "37.08102661930115"
    },
    {
      "id": "pt.ine.add.PTCONT.1793375",
      "street": "SIT PORTO D MARIA",
      "house": "50",
      "postcode": "8600-123",
      "city": "LUZ LGS",
      "lon": "-8.750168936894704",
      "lat": "37.07901682300531"
    },
    {
      "id": "pt.ine.add.PTCONT.1802182",
      "street": "CERRO LAMY",
      "house": "22",
      "postcode": "8600-123",
      "city": "LUZ LGS",
      "lon": "-8.75183707440405",
      "lat": "37.079476681384435"
    },
    {
      "id": "pt.ine.add.PTCONT.1805374",
      "street": "SIT ALTO DOS MONTINHOS",
      "house": "8",
      "postcode": "8600-123",
      "city": "LUZ LGS",
      "lon": "-8.749511204810938",
      "lat": "37.08111970330584"
    },
    {
      "id": "pt.ine.add.PTCONT.1805378",
      "street": "SIT PORTO D MARIA",
      "house": "24",
      "postcode": "8600-123",
      "city": "LUZ LGS",
      "lon": "-8.751374324409106",
      "lat": "37.07927185173606"
    },
    {
      "id": "pt.ine.add.PTCONT.1807922",
      "street": "R DR MARIA GRAÃ‡A SOARES",
      "house": "21",
      "postcode": "8600-123",
      "city": "LUZ LGS",
      "lon": "-8.749873182197847",
      "lat": "37.082766753070615"
    },
    {
      "id": "pt.ine.add.PTCONT.1807926",
      "street": "SIT ALTO DOS MONTINHOS",
      "house": "",
      "postcode": "8600-123",
      "city": "LUZ LGS",
      "lon": "-8.750262483698465",
      "lat": "37.082233105176236"
    },
    {
      "id": "pt.ine.add.PTCONT.1813643",
      "street": "SIT ALTO DOS MONTINHOS",
      "house": "6",
      "postcode": "8600-123",
      "city": "LUZ LGS",
      "lon": "-8.750608404090995",
      "lat": "37.08189791406957"
    },
    {
      "id": "pt.ine.add.PTCONT.1826871",
      "street": "CERRO LAMY",
      "house": "511",
      "postcode": "8600-123",
      "city": "LUZ LGS",
      "lon": "-8.751681128791668",
      "lat": "37.08104533175546"
    },
    {
      "id": "pt.ine.add.PTCONT.1828033",
      "street": "",
      "house": "52",
      "postcode": "8600-123",
      "city": "LUZ LGS",
      "lon": "-8.750740701956843",
      "lat": "37.07879759343738"
    },
    {
      "id": "pt.ine.add.PTCONT.1829642",
      "street": "CERRO LAMY CASAS DO CAMPO",
      "house": "514",
      "postcode": "8600-123",
      "city": "LUZ LGS",
      "lon": "-8.751655782309992",
      "lat": "37.08069405226054"
    },
    {
      "id": "pt.ine.add.PTCONT.1831807",
      "street": "CERRO LAMY",
      "house": "504",
      "postcode": "8600-123",
      "city": "LUZ LGS",
      "lon": "-8.75238631432643",
      "lat": "37.08063617666389"
    },
    {
      "id": "pt.ine.add.PTCONT.1833734",
      "street": "SIT ALTO DOS MONTINHOS",
      "house": "15",
      "postcode": "8600-123",
      "city": "LUZ LGS",
      "lon": "-8.749341496970747",
      "lat": "37.08099443741455"
    },
    {
      "id": "pt.ine.add.PTCONT.1836607",
      "street": "ALTO MONTINHOS",
      "house": "3",
      "postcode": "8600-123",
      "city": "LUZ LGS",
      "lon": "-8.750131256586362",
      "lat": "37.08130570075543"
    },
    {
      "id": "pt.ine.add.PTCONT.1844002",
      "street": "CERRO LAMY CASAS DO CAMPO",
      "house": "516",
      "postcode": "8600-123",
      "city": "LUZ LGS",
      "lon": "-8.751755675929337",
      "lat": "37.080531341217366"
    },
    {
      "id": "pt.ine.add.PTCONT.1848285",
      "street": "PORTO D MARIA",
      "house": "49",
      "postcode": "8600-123",
      "city": "LUZ LGS",
      "lon": "-8.749922266354076",
      "lat": "37.079108211715116"
    }
  ]
}