{
  "data": {
    "distrito": "Santarém",
    "concelho": "Rio Maior",
    "freguesia": "Asseiceira",
    "OBJECTID": 341,
    "BGRI2021": "14141000127",
    "DT21": "14",
    "DTMN21": "1414",
    "DTMNFR21": "141410",
    "DTMNFRSEC21": "141410001",
    "SECNUM21": "001",
    "SSNUM21": "27",
    "SECSSNUM21": "00127",
    "OBJECTID_1": 152819,
    "DT": "14",
    "CC": "14",
    "fr": "10",
    "SEC": "001",
    "SS": "27"
  },
  "addresses": [
    {
      "id": "pt.ine.add.PTCONT.4391656",
      "street": "R QUINTINOS",
      "house": "23",
      "postcode": "2040-481",
      "city": "ASSEICEIRA RMR",
      "lon": "-8.94333499545977",
      "lat": "39.30114195836222"
    },
    {
      "id": "pt.ine.add.PTCONT.4394687",
      "street": "CSL QUINTINOS",
      "house": "1",
      "postcode": "2040-481",
      "city": "ASSEICEIRA RMR",
      "lon": "-8.945078513837238",
      "lat": "39.300535342215476"
    },
    {
      "id": "pt.ine.add.PTCONT.4400960",
      "street": "ESTR CAROLEIRAS",
      "house": "",
      "postcode": "2040-481",
      "city": "ASSEICEIRA RMR",
      "lon": "-8.939991369840282",
      "lat": "39.29768843608097"
    },
    {
      "id": "pt.ine.add.PTCONT.4402936",
      "street": "",
      "house": "",
      "postcode": "2040-481",
      "city": "ASSEICEIRA RMR",
      "lon": "-8.947214951576335",
      "lat": "39.30182645209008"
    },
    {
      "id": "pt.ine.add.PTCONT.4407295",
      "street": "ESTR CAROLEIRAS",
      "house": "24",
      "postcode": "2040-481",
      "city": "ASSEICEIRA RMR",
      "lon": "-8.943801494878457",
      "lat": "39.29937331782841"
    },
    {
      "id": "pt.ine.add.PTCONT.4411469",
      "street": "CSL QUINTINOS",
      "house": "",
      "postcode": "2040-481",
      "city": "ASSEICEIRA RMR",
      "lon": "-8.945592582380243",
      "lat": "39.301882821413365"
    },
    {
      "id": "pt.ine.add.PTCONT.4411480",
      "street": "ESTR CAROLEIRAS",
      "house": "22",
      "postcode": "2040-481",
      "city": "ASSEICEIRA RMR",
      "lon": "-8.943268760909575",
      "lat": "39.29841326560103"
    },
    {
      "id": "pt.ine.add.PTCONT.4416277",
      "street": "ESTR QUINTINOS",
      "house": "",
      "postcode": "2040-481",
      "city": "ASSEICEIRA RMR",
      "lon": "-8.93857959197195",
      "lat": "39.297905375689446"
    },
    {
      "id": "pt.ine.add.PTCONT.4416278",
      "street": "ESTR CAROLEIRAS",
      "house": "4",
      "postcode": "2040-481",
      "city": "ASSEICEIRA RMR",
      "lon": "-8.93979648670466",
      "lat": "39.29787893595173"
    },
    {
      "id": "pt.ine.add.PTCONT.4419428",
      "street": "CSL QUINTINOS",
      "house": "",
      "postcode": "2040-481",
      "city": "ASSEICEIRA RMR",
      "lon": "-8.946545530605565",
      "lat": "39.30208333026621"
    },
    {
      "id": "pt.ine.add.PTCONT.4421499",
      "street": "CSL CAROLEIRAS QTA DAS CAROLEIRAS",
      "house": "",
      "postcode": "2040-481",
      "city": "ASSEICEIRA RMR",
      "lon": "-8.942716857498427",
      "lat": "39.29981320683727"
    },
    {
      "id": "pt.ine.add.PTCONT.4427748",
      "street": "CSL QUINTINOS",
      "house": "7",
      "postcode": "2040-481",
      "city": "ASSEICEIRA RMR",
      "lon": "-8.944826880761108",
      "lat": "39.301834120096515"
    },
    {
      "id": "pt.ine.add.PTCONT.4427749",
      "street": "CSL CAROLEIRAS",
      "house": "2",
      "postcode": "2040-481",
      "city": "ASSEICEIRA RMR",
      "lon": "-8.940912887429924",
      "lat": "39.298186443957455"
    },
    {
      "id": "pt.ine.add.PTCONT.4428122",
      "street": "ESTR CAROLEIRAS",
      "house": "28",
      "postcode": "2040-481",
      "city": "ASSEICEIRA RMR",
      "lon": "-8.943946160027016",
      "lat": "39.29884989806313"
    },
    {
      "id": "pt.ine.add.PTCONT.4428515",
      "street": "ESTR CAROLEIRAS",
      "house": "10",
      "postcode": "2040-481",
      "city": "ASSEICEIRA RMR",
      "lon": "-8.941021865933644",
      "lat": "39.29758221125503"
    },
    {
      "id": "pt.ine.add.PTCONT.4440002",
      "street": "CSL CAROLEIRAS",
      "house": "",
      "postcode": "2040-481",
      "city": "ASSEICEIRA RMR",
      "lon": "-8.943127655062483",
      "lat": "39.30025169762219"
    },
    {
      "id": "pt.ine.add.PTCONT.4440918",
      "street": "CSL QUINTINOS",
      "house": "CX 3",
      "postcode": "2040-481",
      "city": "ASSEICEIRA RMR",
      "lon": "-8.944266250048107",
      "lat": "39.30247753207022"
    },
    {
      "id": "pt.ine.add.PTCONT.4456509",
      "street": "CSL QUINTINOS",
      "house": "",
      "postcode": "2040-481",
      "city": "ASSEICEIRA RMR",
      "lon": "-8.94658752032681",
      "lat": "39.30170473853227"
    },
    {
      "id": "pt.ine.add.PTCONT.4456510",
      "street": "ESTR CAROLEIRAS",
      "house": "",
      "postcode": "2040-481",
      "city": "ASSEICEIRA RMR",
      "lon": "-8.939714313049361",
      "lat": "39.29778943417984"
    },
    {
      "id": "pt.ine.add.PTCONT.4458156",
      "street": "CSL QUINTINOS",
      "house": "",
      "postcode": "2040-481",
      "city": "ASSEICEIRA RMR",
      "lon": "-8.945985983860124",
      "lat": "39.301817025477504"
    },
    {
      "id": "pt.ine.add.PTCONT.4458157",
      "street": "CSL CAROLEIRAS",
      "house": "16",
      "postcode": "2040-481",
      "city": "ASSEICEIRA RMR",
      "lon": "-8.943461740829385",
      "lat": "39.30006923051598"
    },
    {
      "id": "pt.ine.add.PTCONT.4464886",
      "street": "R ERNESTO ALVES",
      "house": "",
      "postcode": "2040-481",
      "city": "ASSEICEIRA RMR",
      "lon": "-8.94725652020105",
      "lat": "39.30141183464157"
    },
    {
      "id": "pt.ine.add.PTCONT.4472331",
      "street": "CSL QUINTINOS",
      "house": "",
      "postcode": "2040-481",
      "city": "ASSEICEIRA RMR",
      "lon": "-8.945573354983965",
      "lat": "39.30222522553085"
    },
    {
      "id": "pt.ine.add.PTCONT.4472332",
      "street": "ESTR CAROLEIRAS",
      "house": "14",
      "postcode": "2040-481",
      "city": "ASSEICEIRA RMR",
      "lon": "-8.94154358179372",
      "lat": "39.29758759674055"
    },
    {
      "id": "pt.ine.add.PTCONT.4484118",
      "street": "ESTR CAROLEIRAS",
      "house": "8",
      "postcode": "2040-481",
      "city": "ASSEICEIRA RMR",
      "lon": "-8.940894153679361",
      "lat": "39.297565083221976"
    },
    {
      "id": "pt.ine.add.PTCONT.4488898",
      "street": "ESTR CAROLEIRAS",
      "house": "12",
      "postcode": "2040-481",
      "city": "ASSEICEIRA RMR",
      "lon": "-8.941195943796348",
      "lat": "39.297599017332494"
    },
    {
      "id": "pt.ine.add.PTCONT.4502485",
      "street": "CSL QUINTINOS",
      "house": "CX 17",
      "postcode": "2040-481",
      "city": "ASSEICEIRA RMR",
      "lon": "-8.946249346342556",
      "lat": "39.30253575452289"
    },
    {
      "id": "pt.ine.add.PTCONT.4508835",
      "street": "CSL QUINTINOS",
      "house": "18",
      "postcode": "2040-481",
      "city": "ASSEICEIRA RMR",
      "lon": "-8.946339061301726",
      "lat": "39.3022739218845"
    },
    {
      "id": "pt.ine.add.PTCONT.4508947",
      "street": "ESTR CAROLEIRAS",
      "house": "36",
      "postcode": "2040-481",
      "city": "ASSEICEIRA RMR",
      "lon": "-8.946208419818172",
      "lat": "39.29799645900613"
    },
    {
      "id": "pt.ine.add.PTCONT.4512270",
      "street": "CSL CAROLEIRAS",
      "house": "8",
      "postcode": "2040-481",
      "city": "ASSEICEIRA RMR",
      "lon": "-8.94141049260706",
      "lat": "39.29811093331447"
    },
    {
      "id": "pt.ine.add.PTCONT.4512271",
      "street": "ESTR CAROLEIRAS",
      "house": "32",
      "postcode": "2040-481",
      "city": "ASSEICEIRA RMR",
      "lon": "-8.943552836879098",
      "lat": "39.29791589734422"
    },
    {
      "id": "pt.ine.add.PTCONT.4513223",
      "street": "",
      "house": "",
      "postcode": "2040-481",
      "city": "ASSEICEIRA RMR",
      "lon": "-8.945596643388095",
      "lat": "39.302234070105555"
    },
    {
      "id": "pt.ine.add.PTCONT.4518978",
      "street": "ESTR CAROLEIRAS",
      "house": "28",
      "postcode": "2040-481",
      "city": "ASSEICEIRA RMR",
      "lon": "-8.944166815876438",
      "lat": "39.298884389487434"
    },
    {
      "id": "pt.ine.add.PTCONT.4524133",
      "street": "CSL QUINTINOS",
      "house": "CX 8",
      "postcode": "2040-481",
      "city": "ASSEICEIRA RMR",
      "lon": "-8.944782800983116",
      "lat": "39.30203258371831"
    },
    {
      "id": "pt.ine.add.PTCONT.4535812",
      "street": "CSL QUINTINOS",
      "house": "3",
      "postcode": "2040-481",
      "city": "ASSEICEIRA RMR",
      "lon": "-8.944641095537461",
      "lat": "39.30180839400677"
    },
    {
      "id": "pt.ine.add.PTCONT.4539430",
      "street": "CSL QUINTINOS",
      "house": "",
      "postcode": "2040-481",
      "city": "ASSEICEIRA RMR",
      "lon": "-8.945883738533045",
      "lat": "39.301997881417954"
    },
    {
      "id": "pt.ine.add.PTCONT.4541404",
      "street": "CSL CAROLEIRAS",
      "house": "16",
      "postcode": "2040-481",
      "city": "ASSEICEIRA RMR",
      "lon": "-8.943587900264832",
      "lat": "39.29995125990551"
    },
    {
      "id": "pt.ine.add.PTCONT.4543373",
      "street": "ESTR CAROLEIRAS",
      "house": "",
      "postcode": "2040-481",
      "city": "ASSEICEIRA RMR",
      "lon": "-8.946299643250352",
      "lat": "39.29986930029534"
    },
    {
      "id": "pt.ine.add.PTCONT.4558023",
      "street": "CSL QUINTINOS",
      "house": "CX 20",
      "postcode": "2040-481",
      "city": "ASSEICEIRA RMR",
      "lon": "-8.946089999905865",
      "lat": "39.30178927784179"
    },
    {
      "id": "pt.ine.add.PTCONT.4564422",
      "street": "CSL QUINTINOS",
      "house": "CX 8",
      "postcode": "2040-481",
      "city": "ASSEICEIRA RMR",
      "lon": "-8.944899346296014",
      "lat": "39.3020858137235"
    },
    {
      "id": "pt.ine.add.PTCONT.4573064",
      "street": "CSL QUINTINOS",
      "house": "CX 2",
      "postcode": "2040-481",
      "city": "ASSEICEIRA RMR",
      "lon": "-8.943645735394098",
      "lat": "39.3019504347912"
    },
    {
      "id": "pt.ine.add.PTCONT.4583406",
      "street": "R QUINTINOS",
      "house": "21",
      "postcode": "2040-481",
      "city": "ASSEICEIRA RMR",
      "lon": "-8.943565069053951",
      "lat": "39.30098723612384"
    },
    {
      "id": "pt.ine.add.PTCONT.4587672",
      "street": "CSL CAROLEIRAS",
      "house": "4",
      "postcode": "2040-481",
      "city": "ASSEICEIRA RMR",
      "lon": "-8.941062023730217",
      "lat": "39.29805030239126"
    },
    {
      "id": "pt.ine.add.PTCONT.4608051",
      "street": "CSL QUINTINOS",
      "house": "",
      "postcode": "2040-481",
      "city": "ASSEICEIRA RMR",
      "lon": "-8.947192822043236",
      "lat": "39.30091688935763"
    },
    {
      "id": "pt.ine.add.PTCONT.4614205",
      "street": "ESTR CAROLEIRAS",
      "house": "3",
      "postcode": "2040-481",
      "city": "ASSEICEIRA RMR",
      "lon": "-8.943106305862878",
      "lat": "39.29940517801644"
    },
    {
      "id": "pt.ine.add.PTCONT.4620521",
      "street": "CSL QUINTINOS",
      "house": "4",
      "postcode": "2040-481",
      "city": "ASSEICEIRA RMR",
      "lon": "-8.944466436719795",
      "lat": "39.30274635016501"
    },
    {
      "id": "pt.ine.add.PTCONT.4620540",
      "street": "ESTR CAROLEIRAS",
      "house": "34",
      "postcode": "2040-481",
      "city": "ASSEICEIRA RMR",
      "lon": "-8.94420642625969",
      "lat": "39.29829865142476"
    },
    {
      "id": "pt.ine.add.PTCONT.4626480",
      "street": "CSL QUINTINOS",
      "house": "1",
      "postcode": "2040-481",
      "city": "ASSEICEIRA RMR",
      "lon": "-8.944561094983204",
      "lat": "39.30190802979454"
    },
    {
      "id": "pt.ine.add.PTCONT.4638985",
      "street": "ESTR CAROLEIRAS",
      "house": "6",
      "postcode": "2040-481",
      "city": "ASSEICEIRA RMR",
      "lon": "-8.940616788283087",
      "lat": "39.29763906426904"
    },
    {
      "id": "pt.ine.add.PTCONT.4642395",
      "street": "ESTR CAROLEIRAS",
      "house": "",
      "postcode": "2040-481",
      "city": "ASSEICEIRA RMR",
      "lon": "-8.940361881016933",
      "lat": "39.29764983915007"
    },
    {
      "id": "pt.ine.add.PTCONT.4645271",
      "street": "R JOÃO TEODOSIO BARBOSA",
      "house": "CK 14",
      "postcode": "2040-481",
      "city": "ASSEICEIRA RMR",
      "lon": "-8.94677259330451",
      "lat": "39.30066762819444"
    },
    {
      "id": "pt.ine.add.PTCONT.4645272",
      "street": "CSL CAROLEIRAS",
      "house": "12",
      "postcode": "2040-481",
      "city": "ASSEICEIRA RMR",
      "lon": "-8.941333184330885",
      "lat": "39.298444733141125"
    },
    {
      "id": "pt.ine.add.PTCONT.4645288",
      "street": "ESTR CAROLEIRAS",
      "house": "24",
      "postcode": "2040-481",
      "city": "ASSEICEIRA RMR",
      "lon": "-8.943478238929279",
      "lat": "39.29848386456291"
    },
    {
      "id": "pt.ine.add.PTCONT.4645289",
      "street": "CSL CAROLEIRAS",
      "house": "6",
      "postcode": "2040-481",
      "city": "ASSEICEIRA RMR",
      "lon": "-8.941145131290906",
      "lat": "39.29822086072074"
    },
    {
      "id": "pt.ine.add.PTCONT.4650176",
      "street": "CSL QUINTINOS",
      "house": "8",
      "postcode": "2040-481",
      "city": "ASSEICEIRA RMR",
      "lon": "-8.946051966594938",
      "lat": "39.30251011167967"
    },
    {
      "id": "pt.ine.add.PTCONT.4655573",
      "street": "CSL QUINTINOS",
      "house": "10",
      "postcode": "2040-481",
      "city": "ASSEICEIRA RMR",
      "lon": "-8.94516048939494",
      "lat": "39.3006068272943"
    },
    {
      "id": "pt.ine.add.PTCONT.4659626",
      "street": "CSL QUINTINOS",
      "house": "",
      "postcode": "2040-481",
      "city": "ASSEICEIRA RMR",
      "lon": "-8.946114720580534",
      "lat": "39.302924000154974"
    }
  ]
}