{
  "data": {
    "distrito": "Lisboa",
    "concelho": "Vila Franca de Xira",
    "freguesia": "União das freguesias de Alverca do Ribatejo e Sobralinho",
    "OBJECTID": 155,
    "BGRI2021": "11141300508",
    "DT21": "11",
    "DTMN21": "1114",
    "DTMNFR21": "111413",
    "DTMNFRSEC21": "111413005",
    "SECNUM21": "005",
    "SSNUM21": "08",
    "SECSSNUM21": "00508",
    "OBJECTID_1": 117671,
    "DT": "11",
    "CC": "14",
    "fr": "13",
    "SEC": "005",
    "SS": "08"
  },
  "addresses": [
    {
      "id": "pt.ine.add.PTCONT.2272823",
      "street": "R MANUEL MARIA VIEIRA",
      "house": "5",
      "postcode": "2615-115",
      "city": "ALVERCA DO RIBATEJO",
      "lon": "-9.037991519207855",
      "lat": "38.8969957176549"
    },
    {
      "id": "pt.ine.add.PTCONT.2272824",
      "street": "R MANUEL MARIA VIEIRA",
      "house": "5",
      "postcode": "2615-115",
      "city": "ALVERCA DO RIBATEJO",
      "lon": "-9.037991519207855",
      "lat": "38.8969957176549"
    },
    {
      "id": "pt.ine.add.PTCONT.2272825",
      "street": "R MANUEL MARIA VIEIRA",
      "house": "5",
      "postcode": "2615-115",
      "city": "ALVERCA DO RIBATEJO",
      "lon": "-9.037991519207855",
      "lat": "38.8969957176549"
    },
    {
      "id": "pt.ine.add.PTCONT.2272826",
      "street": "R MANUEL MARIA VIEIRA",
      "house": "5",
      "postcode": "2615-115",
      "city": "ALVERCA DO RIBATEJO",
      "lon": "-9.037991519207855",
      "lat": "38.8969957176549"
    },
    {
      "id": "pt.ine.add.PTCONT.2272827",
      "street": "R MANUEL MARIA VIEIRA",
      "house": "5",
      "postcode": "2615-115",
      "city": "ALVERCA DO RIBATEJO",
      "lon": "-9.037991519207855",
      "lat": "38.8969957176549"
    },
    {
      "id": "pt.ine.add.PTCONT.2282817",
      "street": "R JOAQUIM SABINO FARIA",
      "house": "8",
      "postcode": "2615-103",
      "city": "ALVERCA DO RIBATEJO",
      "lon": "-9.037774473893837",
      "lat": "38.89715053002837"
    },
    {
      "id": "pt.ine.add.PTCONT.2282818",
      "street": "R JOAQUIM SABINO FARIA",
      "house": "8",
      "postcode": "2615-103",
      "city": "ALVERCA DO RIBATEJO",
      "lon": "-9.037774473893837",
      "lat": "38.89715053002837"
    },
    {
      "id": "pt.ine.add.PTCONT.2282819",
      "street": "R JOAQUIM SABINO FARIA",
      "house": "8",
      "postcode": "2615-103",
      "city": "ALVERCA DO RIBATEJO",
      "lon": "-9.037774473893837",
      "lat": "38.89715053002837"
    },
    {
      "id": "pt.ine.add.PTCONT.2282820",
      "street": "R JOAQUIM SABINO FARIA",
      "house": "8",
      "postcode": "2615-103",
      "city": "ALVERCA DO RIBATEJO",
      "lon": "-9.037774473893837",
      "lat": "38.89715053002837"
    },
    {
      "id": "pt.ine.add.PTCONT.2284421",
      "street": "R JOAQUIM SABINO FARIA",
      "house": "8",
      "postcode": "2615-103",
      "city": "ALVERCA DO RIBATEJO",
      "lon": "-9.037774473893837",
      "lat": "38.89715053002837"
    },
    {
      "id": "pt.ine.add.PTCONT.2284590",
      "street": "R JOAQUIM SABINO FARIA",
      "house": "",
      "postcode": "2615-103",
      "city": "ALVERCA DO RIBATEJO",
      "lon": "-9.037774473893837",
      "lat": "38.89715053002837"
    },
    {
      "id": "pt.ine.add.PTCONT.2336949",
      "street": "R JOAQUIM SABINO FARIA",
      "house": "14",
      "postcode": "2615-103",
      "city": "ALVERCA DO RIBATEJO",
      "lon": "-9.037597817616438",
      "lat": "38.896854645517024"
    },
    {
      "id": "pt.ine.add.PTCONT.2336950",
      "street": "R JOAQUIM SABINO FARIA",
      "house": "14",
      "postcode": "2615-103",
      "city": "ALVERCA DO RIBATEJO",
      "lon": "-9.037597817616438",
      "lat": "38.896854645517024"
    },
    {
      "id": "pt.ine.add.PTCONT.2336951",
      "street": "R JOAQUIM SABINO FARIA",
      "house": "14",
      "postcode": "2615-103",
      "city": "ALVERCA DO RIBATEJO",
      "lon": "-9.037597817616438",
      "lat": "38.896854645517024"
    },
    {
      "id": "pt.ine.add.PTCONT.2336952",
      "street": "R JOAQUIM SABINO FARIA",
      "house": "14",
      "postcode": "2615-103",
      "city": "ALVERCA DO RIBATEJO",
      "lon": "-9.037597817616438",
      "lat": "38.896854645517024"
    },
    {
      "id": "pt.ine.add.PTCONT.2336953",
      "street": "R JOAQUIM SABINO FARIA",
      "house": "14",
      "postcode": "2615-103",
      "city": "ALVERCA DO RIBATEJO",
      "lon": "-9.037597817616438",
      "lat": "38.896854645517024"
    },
    {
      "id": "pt.ine.add.PTCONT.2336954",
      "street": "R JOAQUIM SABINO FARIA",
      "house": "14",
      "postcode": "2615-103",
      "city": "ALVERCA DO RIBATEJO",
      "lon": "-9.037597817616438",
      "lat": "38.896854645517024"
    },
    {
      "id": "pt.ine.add.PTCONT.2336955",
      "street": "R JOAQUIM SABINO FARIA",
      "house": "14",
      "postcode": "2615-103",
      "city": "ALVERCA DO RIBATEJO",
      "lon": "-9.037597817616438",
      "lat": "38.896854645517024"
    },
    {
      "id": "pt.ine.add.PTCONT.2339052",
      "street": "R MANUEL MARIA VIEIRA",
      "house": "11",
      "postcode": "2615-115",
      "city": "ALVERCA DO RIBATEJO",
      "lon": "-9.03780310822342",
      "lat": "38.8966819092048"
    },
    {
      "id": "pt.ine.add.PTCONT.2339053",
      "street": "R MANUEL MARIA VIEIRA",
      "house": "11",
      "postcode": "2615-115",
      "city": "ALVERCA DO RIBATEJO",
      "lon": "-9.03780310822342",
      "lat": "38.8966819092048"
    },
    {
      "id": "pt.ine.add.PTCONT.2339054",
      "street": "R MANUEL MARIA VIEIRA",
      "house": "11",
      "postcode": "2615-115",
      "city": "ALVERCA DO RIBATEJO",
      "lon": "-9.03780310822342",
      "lat": "38.8966819092048"
    },
    {
      "id": "pt.ine.add.PTCONT.2339055",
      "street": "R MANUEL MARIA VIEIRA",
      "house": "11",
      "postcode": "2615-115",
      "city": "ALVERCA DO RIBATEJO",
      "lon": "-9.03780310822342",
      "lat": "38.8966819092048"
    },
    {
      "id": "pt.ine.add.PTCONT.2339056",
      "street": "R MANUEL MARIA VIEIRA",
      "house": "11",
      "postcode": "2615-115",
      "city": "ALVERCA DO RIBATEJO",
      "lon": "-9.03780310822342",
      "lat": "38.8966819092048"
    },
    {
      "id": "pt.ine.add.PTCONT.2339074",
      "street": "R MANUEL MARIA VIEIRA",
      "house": "11",
      "postcode": "2615-115",
      "city": "ALVERCA DO RIBATEJO",
      "lon": "-9.03780310822342",
      "lat": "38.8966819092048"
    },
    {
      "id": "pt.ine.add.PTCONT.2537165",
      "street": "R JOSE DE SOUSA NAZARETH",
      "house": "MJT",
      "postcode": "2615-109",
      "city": "ALVERCA DO RIBATEJO",
      "lon": "-9.038133257276758",
      "lat": "38.897264849213585"
    },
    {
      "id": "pt.ine.add.PTCONT.2537166",
      "street": "R JOSE DE SOUSA NAZARETH",
      "house": "MJT",
      "postcode": "2615-109",
      "city": "ALVERCA DO RIBATEJO",
      "lon": "-9.038133257276758",
      "lat": "38.897264849213585"
    },
    {
      "id": "pt.ine.add.PTCONT.2537167",
      "street": "R JOSE DE SOUSA NAZARETH",
      "house": "MJT",
      "postcode": "2615-109",
      "city": "ALVERCA DO RIBATEJO",
      "lon": "-9.038133257276758",
      "lat": "38.897264849213585"
    },
    {
      "id": "pt.ine.add.PTCONT.2537168",
      "street": "R JOSE DE SOUSA NAZARETH",
      "house": "MJT",
      "postcode": "2615-109",
      "city": "ALVERCA DO RIBATEJO",
      "lon": "-9.038133257276758",
      "lat": "38.897264849213585"
    },
    {
      "id": "pt.ine.add.PTCONT.2537169",
      "street": "R JOSE DE SOUSA NAZARETH",
      "house": "MJT",
      "postcode": "2615-109",
      "city": "ALVERCA DO RIBATEJO",
      "lon": "-9.038133257276758",
      "lat": "38.897264849213585"
    },
    {
      "id": "pt.ine.add.PTCONT.2538966",
      "street": "R JOSE DE SOUSA NAZARETH",
      "house": "MJT",
      "postcode": "2615-109",
      "city": "ALVERCA DO RIBATEJO",
      "lon": "-9.038133257276758",
      "lat": "38.897264849213585"
    },
    {
      "id": "pt.ine.add.PTCONT.2564220",
      "street": "R MANUEL MARIA VIEIRA",
      "house": "9",
      "postcode": "2615-115",
      "city": "ALVERCA DO RIBATEJO",
      "lon": "-9.037861993618836",
      "lat": "38.89678053730621"
    },
    {
      "id": "pt.ine.add.PTCONT.2564221",
      "street": "R MANUEL MARIA VIEIRA",
      "house": "9",
      "postcode": "2615-115",
      "city": "ALVERCA DO RIBATEJO",
      "lon": "-9.037861993618836",
      "lat": "38.89678053730621"
    },
    {
      "id": "pt.ine.add.PTCONT.2564222",
      "street": "R MANUEL MARIA VIEIRA",
      "house": "9",
      "postcode": "2615-115",
      "city": "ALVERCA DO RIBATEJO",
      "lon": "-9.037861993618836",
      "lat": "38.89678053730621"
    },
    {
      "id": "pt.ine.add.PTCONT.2564223",
      "street": "R MANUEL MARIA VIEIRA",
      "house": "9",
      "postcode": "2615-115",
      "city": "ALVERCA DO RIBATEJO",
      "lon": "-9.037861993618836",
      "lat": "38.89678053730621"
    },
    {
      "id": "pt.ine.add.PTCONT.2564224",
      "street": "R MANUEL MARIA VIEIRA",
      "house": "9",
      "postcode": "2615-115",
      "city": "ALVERCA DO RIBATEJO",
      "lon": "-9.037861993618836",
      "lat": "38.89678053730621"
    },
    {
      "id": "pt.ine.add.PTCONT.2564225",
      "street": "R MANUEL MARIA VIEIRA",
      "house": "9",
      "postcode": "2615-115",
      "city": "ALVERCA DO RIBATEJO",
      "lon": "-9.037861993618836",
      "lat": "38.89678053730621"
    },
    {
      "id": "pt.ine.add.PTCONT.2564226",
      "street": "R MANUEL MARIA VIEIRA",
      "house": "9",
      "postcode": "2615-115",
      "city": "ALVERCA DO RIBATEJO",
      "lon": "-9.037861993618836",
      "lat": "38.89678053730621"
    },
    {
      "id": "pt.ine.add.PTCONT.2565785",
      "street": "R MANUEL MARIA VIEIRA",
      "house": "9",
      "postcode": "2615-115",
      "city": "ALVERCA DO RIBATEJO",
      "lon": "-9.037861993618836",
      "lat": "38.89678053730621"
    },
    {
      "id": "pt.ine.add.PTCONT.2662562",
      "street": "R JOAQUIM SABINO FARIA",
      "house": "6",
      "postcode": "2615-103",
      "city": "ALVERCA DO RIBATEJO",
      "lon": "-9.037833588229143",
      "lat": "38.897267171704186"
    },
    {
      "id": "pt.ine.add.PTCONT.2662563",
      "street": "R JOAQUIM SABINO FARIA",
      "house": "6",
      "postcode": "2615-103",
      "city": "ALVERCA DO RIBATEJO",
      "lon": "-9.037833588229143",
      "lat": "38.897267171704186"
    },
    {
      "id": "pt.ine.add.PTCONT.2662564",
      "street": "R JOAQUIM SABINO FARIA",
      "house": "6",
      "postcode": "2615-103",
      "city": "ALVERCA DO RIBATEJO",
      "lon": "-9.037833588229143",
      "lat": "38.897267171704186"
    },
    {
      "id": "pt.ine.add.PTCONT.2662565",
      "street": "R JOAQUIM SABINO FARIA",
      "house": "6",
      "postcode": "2615-103",
      "city": "ALVERCA DO RIBATEJO",
      "lon": "-9.037833588229143",
      "lat": "38.897267171704186"
    },
    {
      "id": "pt.ine.add.PTCONT.2662566",
      "street": "R JOAQUIM SABINO FARIA",
      "house": "6",
      "postcode": "2615-103",
      "city": "ALVERCA DO RIBATEJO",
      "lon": "-9.037833588229143",
      "lat": "38.897267171704186"
    },
    {
      "id": "pt.ine.add.PTCONT.2662567",
      "street": "R JOAQUIM SABINO FARIA",
      "house": "6",
      "postcode": "2615-103",
      "city": "ALVERCA DO RIBATEJO",
      "lon": "-9.037833588229143",
      "lat": "38.897267171704186"
    },
    {
      "id": "pt.ine.add.PTCONT.2875684",
      "street": "R MANUEL MARIA VIEIRA",
      "house": "3",
      "postcode": "2615-115",
      "city": "ALVERCA DO RIBATEJO",
      "lon": "-9.038050290813297",
      "lat": "38.897085338864116"
    },
    {
      "id": "pt.ine.add.PTCONT.2875685",
      "street": "R MANUEL MARIA VIEIRA",
      "house": "3",
      "postcode": "2615-115",
      "city": "ALVERCA DO RIBATEJO",
      "lon": "-9.038050290813297",
      "lat": "38.897085338864116"
    },
    {
      "id": "pt.ine.add.PTCONT.2876851",
      "street": "R MANUEL MARIA VIEIRA",
      "house": "3",
      "postcode": "2615-115",
      "city": "ALVERCA DO RIBATEJO",
      "lon": "-9.038050290813297",
      "lat": "38.897085338864116"
    },
    {
      "id": "pt.ine.add.PTCONT.2878698",
      "street": "R MANUEL MARIA VIEIRA",
      "house": "3",
      "postcode": "2615-115",
      "city": "ALVERCA DO RIBATEJO",
      "lon": "-9.038050290813297",
      "lat": "38.897085338864116"
    },
    {
      "id": "pt.ine.add.PTCONT.2885991",
      "street": "R JOSÉ FERREIRA TARRE",
      "house": "22",
      "postcode": "2615-112",
      "city": "ALVERCA DO RIBATEJO",
      "lon": "-9.037697777691136",
      "lat": "38.89655661790546"
    },
    {
      "id": "pt.ine.add.PTCONT.2885992",
      "street": "R JOSÉ FERREIRA TARRE",
      "house": "22",
      "postcode": "2615-112",
      "city": "ALVERCA DO RIBATEJO",
      "lon": "-9.037697777691136",
      "lat": "38.89655661790546"
    },
    {
      "id": "pt.ine.add.PTCONT.2885993",
      "street": "R JOSÉ FERREIRA TARRE",
      "house": "22",
      "postcode": "2615-112",
      "city": "ALVERCA DO RIBATEJO",
      "lon": "-9.037697777691136",
      "lat": "38.89655661790546"
    },
    {
      "id": "pt.ine.add.PTCONT.2890278",
      "street": "R JOSÉ FERREIRA TARRE",
      "house": "22",
      "postcode": "2615-112",
      "city": "ALVERCA DO RIBATEJO",
      "lon": "-9.037697777691136",
      "lat": "38.89655661790546"
    },
    {
      "id": "pt.ine.add.PTCONT.2913580",
      "street": "R JOAQUIM SABINO FARIA",
      "house": "10",
      "postcode": "2615-103",
      "city": "ALVERCA DO RIBATEJO",
      "lon": "-9.037715588303024",
      "lat": "38.89705190189123"
    },
    {
      "id": "pt.ine.add.PTCONT.2913581",
      "street": "R JOAQUIM SABINO FARIA",
      "house": "10",
      "postcode": "2615-103",
      "city": "ALVERCA DO RIBATEJO",
      "lon": "-9.037715588303024",
      "lat": "38.89705190189123"
    },
    {
      "id": "pt.ine.add.PTCONT.2913583",
      "street": "R JOAQUIM SABINO FARIA",
      "house": "10",
      "postcode": "2615-103",
      "city": "ALVERCA DO RIBATEJO",
      "lon": "-9.037715588303024",
      "lat": "38.89705190189123"
    },
    {
      "id": "pt.ine.add.PTCONT.2913584",
      "street": "R JOAQUIM SABINO FARIA",
      "house": "10",
      "postcode": "2615-103",
      "city": "ALVERCA DO RIBATEJO",
      "lon": "-9.037715588303024",
      "lat": "38.89705190189123"
    },
    {
      "id": "pt.ine.add.PTCONT.2914935",
      "street": "R JOAQUIM SABINO FARIA",
      "house": "10",
      "postcode": "2615-103",
      "city": "ALVERCA DO RIBATEJO",
      "lon": "-9.037715588303024",
      "lat": "38.89705190189123"
    },
    {
      "id": "pt.ine.add.PTCONT.2915148",
      "street": "R JOAQUIM SABINO FARIA",
      "house": "10",
      "postcode": "2615-103",
      "city": "ALVERCA DO RIBATEJO",
      "lon": "-9.037715588303024",
      "lat": "38.89705190189123"
    },
    {
      "id": "pt.ine.add.PTCONT.2931342",
      "street": "R JOAQUIM SABINO FARIA",
      "house": "2",
      "postcode": "2615-103",
      "city": "ALVERCA DO RIBATEJO",
      "lon": "-9.037986394801056",
      "lat": "38.89750018697532"
    },
    {
      "id": "pt.ine.add.PTCONT.2931343",
      "street": "R JOAQUIM SABINO FARIA",
      "house": "2",
      "postcode": "2615-103",
      "city": "ALVERCA DO RIBATEJO",
      "lon": "-9.037986394801056",
      "lat": "38.89750018697532"
    },
    {
      "id": "pt.ine.add.PTCONT.2931344",
      "street": "R JOAQUIM SABINO FARIA",
      "house": "2",
      "postcode": "2615-103",
      "city": "ALVERCA DO RIBATEJO",
      "lon": "-9.037986394801056",
      "lat": "38.89750018697532"
    },
    {
      "id": "pt.ine.add.PTCONT.2931345",
      "street": "R JOAQUIM SABINO FARIA",
      "house": "2",
      "postcode": "2615-103",
      "city": "ALVERCA DO RIBATEJO",
      "lon": "-9.037986394801056",
      "lat": "38.89750018697532"
    },
    {
      "id": "pt.ine.add.PTCONT.2931346",
      "street": "R JOAQUIM SABINO FARIA",
      "house": "2",
      "postcode": "2615-103",
      "city": "ALVERCA DO RIBATEJO",
      "lon": "-9.037986394801056",
      "lat": "38.89750018697532"
    },
    {
      "id": "pt.ine.add.PTCONT.2931347",
      "street": "R JOAQUIM SABINO FARIA",
      "house": "2",
      "postcode": "2615-103",
      "city": "ALVERCA DO RIBATEJO",
      "lon": "-9.037986394801056",
      "lat": "38.89750018697532"
    },
    {
      "id": "pt.ine.add.PTCONT.3022960",
      "street": "R MANUEL MARIA VIEIRA",
      "house": "7",
      "postcode": "2615-115",
      "city": "ALVERCA DO RIBATEJO",
      "lon": "-9.037920879179255",
      "lat": "38.896879165374315"
    },
    {
      "id": "pt.ine.add.PTCONT.3022961",
      "street": "R MANUEL MARIA VIEIRA",
      "house": "7",
      "postcode": "2615-115",
      "city": "ALVERCA DO RIBATEJO",
      "lon": "-9.037920879179255",
      "lat": "38.896879165374315"
    },
    {
      "id": "pt.ine.add.PTCONT.3022962",
      "street": "R MANUEL MARIA VIEIRA",
      "house": "7",
      "postcode": "2615-115",
      "city": "ALVERCA DO RIBATEJO",
      "lon": "-9.037920879179255",
      "lat": "38.896879165374315"
    },
    {
      "id": "pt.ine.add.PTCONT.3022963",
      "street": "R MANUEL MARIA VIEIRA",
      "house": "7",
      "postcode": "2615-115",
      "city": "ALVERCA DO RIBATEJO",
      "lon": "-9.037920879179255",
      "lat": "38.896879165374315"
    },
    {
      "id": "pt.ine.add.PTCONT.3022964",
      "street": "R MANUEL MARIA VIEIRA",
      "house": "7",
      "postcode": "2615-115",
      "city": "ALVERCA DO RIBATEJO",
      "lon": "-9.037920879179255",
      "lat": "38.896879165374315"
    },
    {
      "id": "pt.ine.add.PTCONT.3022965",
      "street": "R MANUEL MARIA VIEIRA",
      "house": "7",
      "postcode": "2615-115",
      "city": "ALVERCA DO RIBATEJO",
      "lon": "-9.037920879179255",
      "lat": "38.896879165374315"
    },
    {
      "id": "pt.ine.add.PTCONT.3022966",
      "street": "R MANUEL MARIA VIEIRA",
      "house": "7",
      "postcode": "2615-115",
      "city": "ALVERCA DO RIBATEJO",
      "lon": "-9.037920879179255",
      "lat": "38.896879165374315"
    },
    {
      "id": "pt.ine.add.PTCONT.3134555",
      "street": "R JOAQUIM SABINO FARIA",
      "house": "16",
      "postcode": "2615-103",
      "city": "ALVERCA DO RIBATEJO",
      "lon": "-9.037539046771174",
      "lat": "38.89676502406745"
    },
    {
      "id": "pt.ine.add.PTCONT.3134556",
      "street": "R JOAQUIM SABINO FARIA",
      "house": "16",
      "postcode": "2615-103",
      "city": "ALVERCA DO RIBATEJO",
      "lon": "-9.037539046771174",
      "lat": "38.89676502406745"
    },
    {
      "id": "pt.ine.add.PTCONT.3134557",
      "street": "R JOAQUIM SABINO FARIA",
      "house": "16",
      "postcode": "2615-103",
      "city": "ALVERCA DO RIBATEJO",
      "lon": "-9.037539046771174",
      "lat": "38.89676502406745"
    },
    {
      "id": "pt.ine.add.PTCONT.3236990",
      "street": "R JOAQUIM SABINO FARIA",
      "house": "18",
      "postcode": "2615-103",
      "city": "ALVERCA DO RIBATEJO",
      "lon": "-9.03746863619526",
      "lat": "38.896666485072565"
    },
    {
      "id": "pt.ine.add.PTCONT.3236991",
      "street": "R JOAQUIM SABINO FARIA",
      "house": "18",
      "postcode": "2615-103",
      "city": "ALVERCA DO RIBATEJO",
      "lon": "-9.03746863619526",
      "lat": "38.896666485072565"
    },
    {
      "id": "pt.ine.add.PTCONT.3236992",
      "street": "R BOMBEIROS VOLUNTARIOS",
      "house": "36",
      "postcode": "2615-052",
      "city": "ALVERCA DO RIBATEJO",
      "lon": "-9.03746863619526",
      "lat": "38.896666485072565"
    },
    {
      "id": "pt.ine.add.PTCONT.3236993",
      "street": "R JOAQUIM SABINO FARIA",
      "house": "18",
      "postcode": "2615-103",
      "city": "ALVERCA DO RIBATEJO",
      "lon": "-9.03746863619526",
      "lat": "38.896666485072565"
    },
    {
      "id": "pt.ine.add.PTCONT.3236994",
      "street": "R JOAQUIM SABINO FARIA",
      "house": "18",
      "postcode": "2615-103",
      "city": "ALVERCA DO RIBATEJO",
      "lon": "-9.03746863619526",
      "lat": "38.896666485072565"
    },
    {
      "id": "pt.ine.add.PTCONT.3236995",
      "street": "R JOAQUIM SABINO FARIA",
      "house": "18",
      "postcode": "2615-103",
      "city": "ALVERCA DO RIBATEJO",
      "lon": "-9.03746863619526",
      "lat": "38.896666485072565"
    },
    {
      "id": "pt.ine.add.PTCONT.3236996",
      "street": "R JOAQUIM SABINO FARIA",
      "house": "18",
      "postcode": "2615-103",
      "city": "ALVERCA DO RIBATEJO",
      "lon": "-9.03746863619526",
      "lat": "38.896666485072565"
    },
    {
      "id": "pt.ine.add.PTCONT.3338536",
      "street": "R JOAQUIM SABINO FARIA",
      "house": "4",
      "postcode": "2615-103",
      "city": "ALVERCA DO RIBATEJO",
      "lon": "-9.037903999914661",
      "lat": "38.89736571045579"
    },
    {
      "id": "pt.ine.add.PTCONT.3338537",
      "street": "R JOAQUIM SABINO FARIA",
      "house": "4",
      "postcode": "2615-103",
      "city": "ALVERCA DO RIBATEJO",
      "lon": "-9.037903999914661",
      "lat": "38.89736571045579"
    },
    {
      "id": "pt.ine.add.PTCONT.3338538",
      "street": "R JOAQUIM SABINO FARIA",
      "house": "4",
      "postcode": "2615-103",
      "city": "ALVERCA DO RIBATEJO",
      "lon": "-9.037903999914661",
      "lat": "38.89736571045579"
    },
    {
      "id": "pt.ine.add.PTCONT.3338540",
      "street": "R JOAQUIM SABINO FARIA",
      "house": "4",
      "postcode": "2615-103",
      "city": "ALVERCA DO RIBATEJO",
      "lon": "-9.037903999914661",
      "lat": "38.89736571045579"
    },
    {
      "id": "pt.ine.add.PTCONT.3339816",
      "street": "R JOAQUIM SABINO FARIA",
      "house": "4",
      "postcode": "2615-103",
      "city": "ALVERCA DO RIBATEJO",
      "lon": "-9.037903999914661",
      "lat": "38.89736571045579"
    },
    {
      "id": "pt.ine.add.PTCONT.3347390",
      "street": "R JOAQUIM SABINO FARIA",
      "house": "12",
      "postcode": "2615-103",
      "city": "ALVERCA DO RIBATEJO",
      "lon": "-9.03766834282794",
      "lat": "38.89696219121333"
    },
    {
      "id": "pt.ine.add.PTCONT.3347391",
      "street": "R JOAQUIM SABINO FARIA",
      "house": "12",
      "postcode": "2615-103",
      "city": "ALVERCA DO RIBATEJO",
      "lon": "-9.03766834282794",
      "lat": "38.89696219121333"
    },
    {
      "id": "pt.ine.add.PTCONT.3347392",
      "street": "R JOAQUIM SABINO FARIA",
      "house": "12",
      "postcode": "2615-103",
      "city": "ALVERCA DO RIBATEJO",
      "lon": "-9.03766834282794",
      "lat": "38.89696219121333"
    },
    {
      "id": "pt.ine.add.PTCONT.3347393",
      "street": "R JOAQUIM SABINO FARIA",
      "house": "12",
      "postcode": "2615-103",
      "city": "ALVERCA DO RIBATEJO",
      "lon": "-9.03766834282794",
      "lat": "38.89696219121333"
    },
    {
      "id": "pt.ine.add.PTCONT.3347394",
      "street": "R JOAQUIM SABINO FARIA",
      "house": "12",
      "postcode": "2615-103",
      "city": "ALVERCA DO RIBATEJO",
      "lon": "-9.03766834282794",
      "lat": "38.89696219121333"
    },
    {
      "id": "pt.ine.add.PTCONT.3347395",
      "street": "R JOAQUIM SABINO FARIA",
      "house": "12",
      "postcode": "2615-103",
      "city": "ALVERCA DO RIBATEJO",
      "lon": "-9.03766834282794",
      "lat": "38.89696219121333"
    },
    {
      "id": "pt.ine.add.PTCONT.3434081",
      "street": "R MANUEL MARIA VIEIRA",
      "house": "5",
      "postcode": "2615-115",
      "city": "ALVERCA DO RIBATEJO",
      "lon": "-9.037991519207855",
      "lat": "38.8969957176549"
    },
    {
      "id": "pt.ine.add.PTCONT.3440611",
      "street": "R MANUEL MARIA VIEIRA",
      "house": "3",
      "postcode": "2615-115",
      "city": "ALVERCA DO RIBATEJO",
      "lon": "-9.038050290813297",
      "lat": "38.897085338864116"
    }
  ]
}