{
  "data": {
    "distrito": "Viseu",
    "concelho": "Carregal do Sal",
    "freguesia": "Oliveira do Conde",
    "OBJECTID": 340,
    "BGRI2021": "18020400204",
    "DT21": "18",
    "DTMN21": "1802",
    "DTMNFR21": "180204",
    "DTMNFRSEC21": "180204002",
    "SECNUM21": "002",
    "SSNUM21": "04",
    "SECSSNUM21": "00204",
    "OBJECTID_1": 188760,
    "DT": "18",
    "CC": "02",
    "fr": "04",
    "SEC": "002",
    "SS": "04"
  },
  "addresses": [
    {
      "id": "pt.ine.add.PTCONT.5430722",
      "street": "R NOVA",
      "house": "81",
      "postcode": "3430-358",
      "city": "CARREGAL DO SAL",
      "lon": "-7.966830359437042",
      "lat": "40.4379185415854"
    },
    {
      "id": "pt.ine.add.PTCONT.5434024",
      "street": "R QUELHA",
      "house": "14",
      "postcode": "3430-365",
      "city": "CARREGAL DO SAL",
      "lon": "-7.96402446752742",
      "lat": "40.436457518963465"
    },
    {
      "id": "pt.ine.add.PTCONT.5434308",
      "street": "R CONTORNO",
      "house": "4",
      "postcode": "3430-352",
      "city": "CARREGAL DO SAL",
      "lon": "-7.963285302648863",
      "lat": "40.43690477130701"
    },
    {
      "id": "pt.ine.add.PTCONT.5436077",
      "street": "R QUELHA",
      "house": "12",
      "postcode": "3430-365",
      "city": "CARREGAL DO SAL",
      "lon": "-7.96407714333109",
      "lat": "40.436438112567984"
    },
    {
      "id": "pt.ine.add.PTCONT.5443484",
      "street": "R QUELHA",
      "house": "38",
      "postcode": "3430-365",
      "city": "CARREGAL DO SAL",
      "lon": "-7.963745583535336",
      "lat": "40.43665329220908"
    },
    {
      "id": "pt.ine.add.PTCONT.5445198",
      "street": "R NOVA",
      "house": "",
      "postcode": "3430-358",
      "city": "CARREGAL DO SAL",
      "lon": "-7.96619538367853",
      "lat": "40.43732326291343"
    },
    {
      "id": "pt.ine.add.PTCONT.5447509",
      "street": "R PICADEIRO",
      "house": "12",
      "postcode": "3430-341",
      "city": "CARREGAL DO SAL",
      "lon": "-7.966228492612211",
      "lat": "40.438232867182386"
    },
    {
      "id": "pt.ine.add.PTCONT.5449390",
      "street": "R NOVA",
      "house": "33",
      "postcode": "3430-358",
      "city": "CARREGAL DO SAL",
      "lon": "-7.966077145564959",
      "lat": "40.437476185817275"
    },
    {
      "id": "pt.ine.add.PTCONT.5456423",
      "street": "R PICADEIRO",
      "house": "11",
      "postcode": "3430-341",
      "city": "CARREGAL DO SAL",
      "lon": "-7.966299431686824",
      "lat": "40.438142914470944"
    },
    {
      "id": "pt.ine.add.PTCONT.5463454",
      "street": "R COMEND JOSE NUNES MARTINS",
      "house": "62",
      "postcode": "3430-352",
      "city": "CARREGAL DO SAL",
      "lon": "-7.963318566388496",
      "lat": "40.43677201499535"
    },
    {
      "id": "pt.ine.add.PTCONT.5474244",
      "street": "R PICADEIRO",
      "house": "",
      "postcode": "3430-341",
      "city": "CARREGAL DO SAL",
      "lon": "-7.9661108100242926",
      "lat": "40.43816065317657"
    },
    {
      "id": "pt.ine.add.PTCONT.5474478",
      "street": "R NOVA",
      "house": "",
      "postcode": "3430-358",
      "city": "CARREGAL DO SAL",
      "lon": "-7.966101631052988",
      "lat": "40.437106995265985"
    },
    {
      "id": "pt.ine.add.PTCONT.5478044",
      "street": "R NOVA",
      "house": "",
      "postcode": "3430-358",
      "city": "CARREGAL DO SAL",
      "lon": "-7.96605408630548",
      "lat": "40.43726902576342"
    },
    {
      "id": "pt.ine.add.PTCONT.5492692",
      "street": "R COMEND JOSE NUNES MARTINS",
      "house": "86",
      "postcode": "3430-352",
      "city": "CARREGAL DO SAL",
      "lon": "-7.962742789841196",
      "lat": "40.43704806128367"
    },
    {
      "id": "pt.ine.add.PTCONT.5498196",
      "street": "R NOVA",
      "house": "75",
      "postcode": "3430-358",
      "city": "CARREGAL DO SAL",
      "lon": "-7.966677407522708",
      "lat": "40.43781025538132"
    },
    {
      "id": "pt.ine.add.PTCONT.5513126",
      "street": "R CONTORNO",
      "house": "16",
      "postcode": "3430-352",
      "city": "CARREGAL DO SAL",
      "lon": "-7.96347405732345",
      "lat": "40.436833004336016"
    },
    {
      "id": "pt.ine.add.PTCONT.5514406",
      "street": "R CONTORNO",
      "house": "",
      "postcode": "3430-352",
      "city": "CARREGAL DO SAL",
      "lon": "-7.963356063050317",
      "lat": "40.436886864206755"
    },
    {
      "id": "pt.ine.add.PTCONT.5516624",
      "street": "R QUELHA",
      "house": "16",
      "postcode": "3430-365",
      "city": "CARREGAL DO SAL",
      "lon": "-7.963962645321116",
      "lat": "40.436476685014405"
    },
    {
      "id": "pt.ine.add.PTCONT.5516635",
      "street": "R COMEND JOSE NUNES MARTINS",
      "house": "78",
      "postcode": "3430-352",
      "city": "CARREGAL DO SAL",
      "lon": "-7.963108401481545",
      "lat": "40.43694953886756"
    },
    {
      "id": "pt.ine.add.PTCONT.5516636",
      "street": "R CONTORNO",
      "house": "7",
      "postcode": "3430-352",
      "city": "CARREGAL DO SAL",
      "lon": "-7.9633440960020785",
      "lat": "40.43695889072051"
    },
    {
      "id": "pt.ine.add.PTCONT.5524074",
      "street": "R NOVA",
      "house": "49",
      "postcode": "3430-358",
      "city": "CARREGAL DO SAL",
      "lon": "-7.966348311466768",
      "lat": "40.43744055523872"
    },
    {
      "id": "pt.ine.add.PTCONT.5529017",
      "street": "R PICADEIRO",
      "house": "10",
      "postcode": "3430-341",
      "city": "CARREGAL DO SAL",
      "lon": "-7.966334611876581",
      "lat": "40.43821500929843"
    },
    {
      "id": "pt.ine.add.PTCONT.5529318",
      "street": "R QUELHA",
      "house": "10",
      "postcode": "3430-365",
      "city": "CARREGAL DO SAL",
      "lon": "-7.964135101326257",
      "lat": "40.43641971888408"
    },
    {
      "id": "pt.ine.add.PTCONT.5531936",
      "street": "R CONTORNO",
      "house": "13",
      "postcode": "3430-352",
      "city": "CARREGAL DO SAL",
      "lon": "-7.96350927907047",
      "lat": "40.43688708907699"
    },
    {
      "id": "pt.ine.add.PTCONT.5531937",
      "street": "R COMEND JOSE NUNES MARTINS",
      "house": "108",
      "postcode": "3430-352",
      "city": "CARREGAL DO SAL",
      "lon": "-7.962412534814246",
      "lat": "40.43714663475048"
    },
    {
      "id": "pt.ine.add.PTCONT.5533659",
      "street": "LG S PEDRO",
      "house": "4",
      "postcode": "3430-341",
      "city": "CARREGAL DO SAL",
      "lon": "-7.966298719465865",
      "lat": "40.43843108972594"
    },
    {
      "id": "pt.ine.add.PTCONT.5535910",
      "street": "R QUELHA",
      "house": "6",
      "postcode": "3430-365",
      "city": "CARREGAL DO SAL",
      "lon": "-7.9642598617847415",
      "lat": "40.436381319752236"
    },
    {
      "id": "pt.ine.add.PTCONT.5536383",
      "street": "R NOVA",
      "house": "73",
      "postcode": "3430-358",
      "city": "CARREGAL DO SAL",
      "lon": "-7.966630463389912",
      "lat": "40.43772913820361"
    },
    {
      "id": "pt.ine.add.PTCONT.5540432",
      "street": "R CONTORNO",
      "house": "11",
      "postcode": "3430-352",
      "city": "CARREGAL DO SAL",
      "lon": "-7.963473785730594",
      "lat": "40.43694107006722"
    },
    {
      "id": "pt.ine.add.PTCONT.5542019",
      "street": "R DR LUIS ALMEIDA E MELO",
      "house": "1",
      "postcode": "3430-354",
      "city": "CARREGAL DO SAL",
      "lon": "-7.962655762967303",
      "lat": "40.43884002931534"
    },
    {
      "id": "pt.ine.add.PTCONT.5544049",
      "street": "R COMEND JOSE NUNES MARTINS",
      "house": "94",
      "postcode": "3430-352",
      "city": "CARREGAL DO SAL",
      "lon": "-7.962683746772761",
      "lat": "40.4370930018129"
    },
    {
      "id": "pt.ine.add.PTCONT.5549416",
      "street": "R IGREJA",
      "house": "",
      "postcode": "3430-351",
      "city": "CARREGAL DO SAL",
      "lon": "-7.967170139515198",
      "lat": "40.43873853109083"
    },
    {
      "id": "pt.ine.add.PTCONT.5552153",
      "street": "R COMEND JOSE NUNES MARTINS",
      "house": "104",
      "postcode": "3430-352",
      "city": "CARREGAL DO SAL",
      "lon": "-7.9625774235462785",
      "lat": "40.43719190564163"
    },
    {
      "id": "pt.ine.add.PTCONT.5553431",
      "street": "R QUELHA",
      "house": "",
      "postcode": "3430-365",
      "city": "CARREGAL DO SAL",
      "lon": "-7.963651432732068",
      "lat": "40.43659912117625"
    },
    {
      "id": "pt.ine.add.PTCONT.5554580",
      "street": "R PICADEIRO",
      "house": "",
      "postcode": "3430-341",
      "city": "CARREGAL DO SAL",
      "lon": "-7.966476089320071",
      "lat": "40.438197202286034"
    },
    {
      "id": "pt.ine.add.PTCONT.5556284",
      "street": "R QUELHA",
      "house": "",
      "postcode": "3430-365",
      "city": "CARREGAL DO SAL",
      "lon": "-7.96433773390552",
      "lat": "40.436363965467926"
    },
    {
      "id": "pt.ine.add.PTCONT.5559248",
      "street": "R PICADEIRO",
      "house": "8",
      "postcode": "3430-341",
      "city": "CARREGAL DO SAL",
      "lon": "-7.966535086387888",
      "lat": "40.438170270779544"
    },
    {
      "id": "pt.ine.add.PTCONT.5559249",
      "street": "R COMEND JOSE NUNES MARTINS",
      "house": "50",
      "postcode": "3430-352",
      "city": "CARREGAL DO SAL",
      "lon": "-7.963533416384738",
      "lat": "40.4366619867093"
    },
    {
      "id": "pt.ine.add.PTCONT.5559571",
      "street": "R PICADEIRO",
      "house": "6",
      "postcode": "3430-341",
      "city": "CARREGAL DO SAL",
      "lon": "-7.966759177157249",
      "lat": "40.438107554878165"
    },
    {
      "id": "pt.ine.add.PTCONT.5563187",
      "street": "R QUELHA",
      "house": "",
      "postcode": "3430-365",
      "city": "CARREGAL DO SAL",
      "lon": "-7.964196922640658",
      "lat": "40.43640086883281"
    },
    {
      "id": "pt.ine.add.PTCONT.5563613",
      "street": "R PICADEIRO",
      "house": "2",
      "postcode": "3430-341",
      "city": "CARREGAL DO SAL",
      "lon": "-7.966877237402686",
      "lat": "40.43802667511224"
    },
    {
      "id": "pt.ine.add.PTCONT.5563614",
      "street": "R PICADEIRO",
      "house": "2",
      "postcode": "3430-341",
      "city": "CARREGAL DO SAL",
      "lon": "-7.966877237402686",
      "lat": "40.43802667511224"
    },
    {
      "id": "pt.ine.add.PTCONT.5569196",
      "street": "R COMEND JOSE NUNES MARTINS",
      "house": "116",
      "postcode": "3430-352",
      "city": "CARREGAL DO SAL",
      "lon": "-7.962212060638028",
      "lat": "40.43719136612912"
    },
    {
      "id": "pt.ine.add.PTCONT.5571638",
      "street": "R PICADEIRO",
      "house": "5",
      "postcode": "3430-341",
      "city": "CARREGAL DO SAL",
      "lon": "-7.966417425820748",
      "lat": "40.438089051607534"
    },
    {
      "id": "pt.ine.add.PTCONT.5571639",
      "street": "R NOVA",
      "house": "23",
      "postcode": "3430-358",
      "city": "CARREGAL DO SAL",
      "lon": "-7.966477667853129",
      "lat": "40.437557813387755"
    },
    {
      "id": "pt.ine.add.PTCONT.5571640",
      "street": "LG MARIA DOURADA",
      "house": "",
      "postcode": "3430-352",
      "city": "CARREGAL DO SAL",
      "lon": "-7.963178844566118",
      "lat": "40.43705770855806"
    },
    {
      "id": "pt.ine.add.PTCONT.5574631",
      "street": "R NOVA",
      "house": "41",
      "postcode": "3430-358",
      "city": "CARREGAL DO SAL",
      "lon": "-7.966254179733546",
      "lat": "40.437377380848474"
    },
    {
      "id": "pt.ine.add.PTCONT.5582109",
      "street": "R COMEND JOSE NUNES MARTINS",
      "house": "84",
      "postcode": "3430-352",
      "city": "CARREGAL DO SAL",
      "lon": "-7.962907905639807",
      "lat": "40.43700327693369"
    },
    {
      "id": "pt.ine.add.PTCONT.5583944",
      "street": "R COMEND JOSE NUNES MARTINS",
      "house": "",
      "postcode": "3430-352",
      "city": "CARREGAL DO SAL",
      "lon": "-7.9623416827557785",
      "lat": "40.4372005631778"
    },
    {
      "id": "pt.ine.add.PTCONT.5591188",
      "street": "R COMEND JOSE NUNES MARTINS",
      "house": "",
      "postcode": "3430-352",
      "city": "CARREGAL DO SAL",
      "lon": "-7.963368233893621",
      "lat": "40.43673378839128"
    },
    {
      "id": "pt.ine.add.PTCONT.5593309",
      "street": "R COMEND JOSE NUNES MARTINS",
      "house": "102",
      "postcode": "3430-352",
      "city": "CARREGAL DO SAL",
      "lon": "-7.962683587604207",
      "lat": "40.43715604015089"
    },
    {
      "id": "pt.ine.add.PTCONT.5596942",
      "street": "R NOVA",
      "house": "31",
      "postcode": "3430-358",
      "city": "CARREGAL DO SAL",
      "lon": "-7.965983170125188",
      "lat": "40.43734997286109"
    },
    {
      "id": "pt.ine.add.PTCONT.5596943",
      "street": "R NOVA",
      "house": "13",
      "postcode": "3430-358",
      "city": "CARREGAL DO SAL",
      "lon": "-7.965960713325577",
      "lat": "40.436899664864"
    },
    {
      "id": "pt.ine.add.PTCONT.5598795",
      "street": "R IGREJA",
      "house": "3",
      "postcode": "3430-351",
      "city": "CARREGAL DO SAL",
      "lon": "-7.966946246566473",
      "lat": "40.43872019849206"
    },
    {
      "id": "pt.ine.add.PTCONT.5600627",
      "street": "R COMEND JOSE NUNES MARTINS",
      "house": "66",
      "postcode": "3430-352",
      "city": "CARREGAL DO SAL",
      "lon": "-7.963197345166671",
      "lat": "40.436860504259535"
    },
    {
      "id": "pt.ine.add.PTCONT.5604655",
      "street": "R CONTORNO",
      "house": "14",
      "postcode": "3430-352",
      "city": "CARREGAL DO SAL",
      "lon": "-7.963415082850955",
      "lat": "40.43685092880894"
    },
    {
      "id": "pt.ine.add.PTCONT.5605923",
      "street": "R QUELHA",
      "house": "20",
      "postcode": "3430-365",
      "city": "CARREGAL DO SAL",
      "lon": "-7.963804806219832",
      "lat": "40.43653630730596"
    },
    {
      "id": "pt.ine.add.PTCONT.5611665",
      "street": "R NOVA",
      "house": "",
      "postcode": "3430-358",
      "city": "CARREGAL DO SAL",
      "lon": "-7.964440901164327",
      "lat": "40.436672319752624"
    },
    {
      "id": "pt.ine.add.PTCONT.5611678",
      "street": "R COMEND JOSE NUNES MARTINS",
      "house": "58",
      "postcode": "3430-352",
      "city": "CARREGAL DO SAL",
      "lon": "-7.963474306282278",
      "lat": "40.43673394408065"
    },
    {
      "id": "pt.ine.add.PTCONT.5615656",
      "street": "R NOVA",
      "house": "53",
      "postcode": "3430-358",
      "city": "CARREGAL DO SAL",
      "lon": "-7.966430701896502",
      "lat": "40.43748570160428"
    },
    {
      "id": "pt.ine.add.PTCONT.5627080",
      "street": "R NOVA",
      "house": "",
      "postcode": "3430-358",
      "city": "CARREGAL DO SAL",
      "lon": "-7.966183352765259",
      "lat": "40.43742230615568"
    },
    {
      "id": "pt.ine.add.PTCONT.5630570",
      "street": "R NOVA",
      "house": "",
      "postcode": "3430-358",
      "city": "CARREGAL DO SAL",
      "lon": "-7.966324850838483",
      "lat": "40.437395493844555"
    },
    {
      "id": "pt.ine.add.PTCONT.5632500",
      "street": "R COMEND JOSE NUNES MARTINS",
      "house": "72",
      "postcode": "3430-352",
      "city": "CARREGAL DO SAL",
      "lon": "-7.963132131947054",
      "lat": "40.43688653518501"
    },
    {
      "id": "pt.ine.add.PTCONT.5634695",
      "street": "R NOVA",
      "house": "",
      "postcode": "3430-358",
      "city": "CARREGAL DO SAL",
      "lon": "-7.965843122611053",
      "lat": "40.436791428658864"
    },
    {
      "id": "pt.ine.add.PTCONT.5636503",
      "street": "R IGREJA",
      "house": "5",
      "postcode": "3430-351",
      "city": "CARREGAL DO SAL",
      "lon": "-7.967052720916101",
      "lat": "40.438558252327475"
    },
    {
      "id": "pt.ine.add.PTCONT.5647746",
      "street": "R IGREJA",
      "house": "1",
      "postcode": "3430-351",
      "city": "CARREGAL DO SAL",
      "lon": "-7.967358629825397",
      "lat": "40.438774823520156"
    },
    {
      "id": "pt.ine.add.PTCONT.5653374",
      "street": "R CONTORNO",
      "house": "5",
      "postcode": "3430-352",
      "city": "CARREGAL DO SAL",
      "lon": "-7.963296816622711",
      "lat": "40.43701285434801"
    },
    {
      "id": "pt.ine.add.PTCONT.5654670",
      "street": "LG S PEDRO",
      "house": "2",
      "postcode": "3430-341",
      "city": "CARREGAL DO SAL",
      "lon": "-7.966122373292",
      "lat": "40.43825072496875"
    },
    {
      "id": "pt.ine.add.PTCONT.5657143",
      "street": "R NOVA",
      "house": "",
      "postcode": "3430-358",
      "city": "CARREGAL DO SAL",
      "lon": "-7.966559947404707",
      "lat": "40.437647987050006"
    },
    {
      "id": "pt.ine.add.PTCONT.5660535",
      "street": "R COMEND JOSE NUNES MARTINS",
      "house": "",
      "postcode": "3430-352",
      "city": "CARREGAL DO SAL",
      "lon": "-7.963239046955133",
      "lat": "40.436834364007446"
    },
    {
      "id": "pt.ine.add.PTCONT.5662850",
      "street": "R CABEÃ‡O",
      "house": "8",
      "postcode": "3430-345",
      "city": "CARREGAL DO SAL",
      "lon": "-7.962105713750826",
      "lat": "40.43729927499694"
    },
    {
      "id": "pt.ine.add.PTCONT.5669679",
      "street": "R PICADEIRO",
      "house": "",
      "postcode": "3430-341",
      "city": "CARREGAL DO SAL",
      "lon": "-7.966287378517553",
      "lat": "40.43825096318669"
    },
    {
      "id": "pt.ine.add.PTCONT.5669963",
      "street": "R QUELHA",
      "house": "2",
      "postcode": "3430-365",
      "city": "CARREGAL DO SAL",
      "lon": "-7.964394590778289",
      "lat": "40.436339048254524"
    }
  ]
}