{
  "data": {
    "distrito": "Aveiro",
    "concelho": "Santa Maria da Feira",
    "freguesia": "União das freguesias de Santa Maria da Feira, Travanca, Sanfins e Espargo",
    "OBJECTID": 1486,
    "BGRI2021": "01093501506",
    "DT21": "01",
    "DTMN21": "0109",
    "DTMNFR21": "010935",
    "DTMNFRSEC21": "010935015",
    "SECNUM21": "015",
    "SSNUM21": "06",
    "SECSSNUM21": "01506",
    "OBJECTID_1": 7133,
    "DT": "01",
    "CC": "09",
    "fr": "35",
    "SEC": "015",
    "SS": "06"
  },
  "addresses": [
    {
      "id": "pt.ine.add.PTCONT.298543",
      "street": "R LUIS CAMPOS",
      "house": "17 19",
      "postcode": "4520-238",
      "city": "SANTA MARIA DA FEIRA",
      "lon": "-8.53713856229205",
      "lat": "40.93221612950567"
    },
    {
      "id": "pt.ine.add.PTCONT.299877",
      "street": "R LUIS CAMPOS",
      "house": "17",
      "postcode": "4520-238",
      "city": "SANTA MARIA DA FEIRA",
      "lon": "-8.53713856229205",
      "lat": "40.93221612950567"
    },
    {
      "id": "pt.ine.add.PTCONT.314265",
      "street": "R LUIS CAMPOS",
      "house": "66",
      "postcode": "4520-238",
      "city": "SANTA MARIA DA FEIRA",
      "lon": "-8.53683205209355",
      "lat": "40.93257739144449"
    },
    {
      "id": "pt.ine.add.PTCONT.314266",
      "street": "R LUIS CAMPOS",
      "house": "66",
      "postcode": "4520-238",
      "city": "SANTA MARIA DA FEIRA",
      "lon": "-8.53683205209355",
      "lat": "40.93257739144449"
    },
    {
      "id": "pt.ine.add.PTCONT.314268",
      "street": "R LUIS CAMPOS",
      "house": "66",
      "postcode": "4520-238",
      "city": "SANTA MARIA DA FEIRA",
      "lon": "-8.53683205209355",
      "lat": "40.93257739144449"
    },
    {
      "id": "pt.ine.add.PTCONT.314269",
      "street": "R LUIS CAMPOS",
      "house": "66",
      "postcode": "4520-238",
      "city": "SANTA MARIA DA FEIRA",
      "lon": "-8.53683205209355",
      "lat": "40.93257739144449"
    },
    {
      "id": "pt.ine.add.PTCONT.314270",
      "street": "R LUIS CAMPOS",
      "house": "66",
      "postcode": "4520-238",
      "city": "SANTA MARIA DA FEIRA",
      "lon": "-8.53683205209355",
      "lat": "40.93257739144449"
    },
    {
      "id": "pt.ine.add.PTCONT.314271",
      "street": "R LUIS CAMPOS",
      "house": "25",
      "postcode": "4520-238",
      "city": "SANTA MARIA DA FEIRA",
      "lon": "-8.53683205209355",
      "lat": "40.93257739144449"
    },
    {
      "id": "pt.ine.add.PTCONT.314272",
      "street": "R LUIS CAMPOS",
      "house": "66",
      "postcode": "4520-238",
      "city": "SANTA MARIA DA FEIRA",
      "lon": "-8.53683205209355",
      "lat": "40.93257739144449"
    },
    {
      "id": "pt.ine.add.PTCONT.314273",
      "street": "R LUIS CAMPOS",
      "house": "66",
      "postcode": "4520-238",
      "city": "SANTA MARIA DA FEIRA",
      "lon": "-8.53683205209355",
      "lat": "40.93257739144449"
    },
    {
      "id": "pt.ine.add.PTCONT.314274",
      "street": "R LUIS CAMPOS",
      "house": "66",
      "postcode": "4520-238",
      "city": "SANTA MARIA DA FEIRA",
      "lon": "-8.53683205209355",
      "lat": "40.93257739144449"
    },
    {
      "id": "pt.ine.add.PTCONT.314275",
      "street": "R LUIS CAMPOS",
      "house": "66",
      "postcode": "4520-238",
      "city": "SANTA MARIA DA FEIRA",
      "lon": "-8.53683205209355",
      "lat": "40.93257739144449"
    },
    {
      "id": "pt.ine.add.PTCONT.314276",
      "street": "R LUIS CAMPOS",
      "house": "66",
      "postcode": "4520-238",
      "city": "SANTA MARIA DA FEIRA",
      "lon": "-8.53683205209355",
      "lat": "40.93257739144449"
    },
    {
      "id": "pt.ine.add.PTCONT.314277",
      "street": "R LUIS CAMPOS",
      "house": "66",
      "postcode": "4520-238",
      "city": "SANTA MARIA DA FEIRA",
      "lon": "-8.53683205209355",
      "lat": "40.93257739144449"
    },
    {
      "id": "pt.ine.add.PTCONT.314278",
      "street": "R LUIS CAMPOS",
      "house": "66",
      "postcode": "4520-238",
      "city": "SANTA MARIA DA FEIRA",
      "lon": "-8.53683205209355",
      "lat": "40.93257739144449"
    },
    {
      "id": "pt.ine.add.PTCONT.315460",
      "street": "R LUIS CAMPOS",
      "house": "66",
      "postcode": "4520-238",
      "city": "SANTA MARIA DA FEIRA",
      "lon": "-8.53683205209355",
      "lat": "40.93257739144449"
    },
    {
      "id": "pt.ine.add.PTCONT.315513",
      "street": "R LUIS CAMPOS",
      "house": "66",
      "postcode": "4520-238",
      "city": "SANTA MARIA DA FEIRA",
      "lon": "-8.53683205209355",
      "lat": "40.93257739144449"
    },
    {
      "id": "pt.ine.add.PTCONT.324470",
      "street": "R LUIS CAMPOS",
      "house": "13-15",
      "postcode": "4520-238",
      "city": "SANTA MARIA DA FEIRA",
      "lon": "-8.53709079532039",
      "lat": "40.93217127331338"
    },
    {
      "id": "pt.ine.add.PTCONT.324471",
      "street": "R LUIS CAMPOS",
      "house": "13-15",
      "postcode": "4520-238",
      "city": "SANTA MARIA DA FEIRA",
      "lon": "-8.53709079532039",
      "lat": "40.93217127331338"
    },
    {
      "id": "pt.ine.add.PTCONT.341078",
      "street": "R LUIS CAMPOS",
      "house": "44",
      "postcode": "4520-238",
      "city": "SANTA MARIA DA FEIRA",
      "lon": "-8.536520828158807",
      "lat": "40.9321642640258"
    },
    {
      "id": "pt.ine.add.PTCONT.341079",
      "street": "R LUIS CAMPOS",
      "house": "14",
      "postcode": "4520-238",
      "city": "SANTA MARIA DA FEIRA",
      "lon": "-8.536520828158807",
      "lat": "40.9321642640258"
    },
    {
      "id": "pt.ine.add.PTCONT.341080",
      "street": "R LUIS CAMPOS",
      "house": "13",
      "postcode": "4520-238",
      "city": "SANTA MARIA DA FEIRA",
      "lon": "-8.536520828158807",
      "lat": "40.9321642640258"
    },
    {
      "id": "pt.ine.add.PTCONT.341081",
      "street": "R LUIS CAMPOS",
      "house": "44",
      "postcode": "4520-238",
      "city": "SANTA MARIA DA FEIRA",
      "lon": "-8.536520828158807",
      "lat": "40.9321642640258"
    },
    {
      "id": "pt.ine.add.PTCONT.341082",
      "street": "R LUIS CAMPOS",
      "house": "44",
      "postcode": "4520-238",
      "city": "SANTA MARIA DA FEIRA",
      "lon": "-8.536520828158807",
      "lat": "40.9321642640258"
    },
    {
      "id": "pt.ine.add.PTCONT.341083",
      "street": "R LUIS CAMPOS",
      "house": "44",
      "postcode": "4520-238",
      "city": "SANTA MARIA DA FEIRA",
      "lon": "-8.536520828158807",
      "lat": "40.9321642640258"
    },
    {
      "id": "pt.ine.add.PTCONT.341084",
      "street": "R LUIS CAMPOS",
      "house": "25",
      "postcode": "4520-238",
      "city": "SANTA MARIA DA FEIRA",
      "lon": "-8.536520828158807",
      "lat": "40.9321642640258"
    },
    {
      "id": "pt.ine.add.PTCONT.341085",
      "street": "R LUIS CAMPOS",
      "house": "44-23",
      "postcode": "4520-238",
      "city": "SANTA MARIA DA FEIRA",
      "lon": "-8.536520828158807",
      "lat": "40.9321642640258"
    },
    {
      "id": "pt.ine.add.PTCONT.341086",
      "street": "R LUIS CAMPOS",
      "house": "44",
      "postcode": "4520-238",
      "city": "SANTA MARIA DA FEIRA",
      "lon": "-8.536520828158807",
      "lat": "40.9321642640258"
    },
    {
      "id": "pt.ine.add.PTCONT.341087",
      "street": "R LUIS CAMPOS",
      "house": "44",
      "postcode": "4520-238",
      "city": "SANTA MARIA DA FEIRA",
      "lon": "-8.536520828158807",
      "lat": "40.9321642640258"
    },
    {
      "id": "pt.ine.add.PTCONT.341088",
      "street": "R LUIS CAMPOS",
      "house": "44",
      "postcode": "4520-238",
      "city": "SANTA MARIA DA FEIRA",
      "lon": "-8.536520828158807",
      "lat": "40.9321642640258"
    },
    {
      "id": "pt.ine.add.PTCONT.341089",
      "street": "R LUIS CAMPOS",
      "house": "44",
      "postcode": "4520-238",
      "city": "SANTA MARIA DA FEIRA",
      "lon": "-8.536520828158807",
      "lat": "40.9321642640258"
    },
    {
      "id": "pt.ine.add.PTCONT.342356",
      "street": "R LUIS CAMPOS",
      "house": "44",
      "postcode": "4520-238",
      "city": "SANTA MARIA DA FEIRA",
      "lon": "-8.536520828158807",
      "lat": "40.9321642640258"
    },
    {
      "id": "pt.ine.add.PTCONT.342423",
      "street": "R LUIS CAMPOS",
      "house": "44",
      "postcode": "4520-238",
      "city": "SANTA MARIA DA FEIRA",
      "lon": "-8.536520828158807",
      "lat": "40.9321642640258"
    },
    {
      "id": "pt.ine.add.PTCONT.345089",
      "street": "R LUIS CAMPOS",
      "house": "29",
      "postcode": "4520-238",
      "city": "SANTA MARIA DA FEIRA",
      "lon": "-8.537365085809121",
      "lat": "40.93236841564913"
    },
    {
      "id": "pt.ine.add.PTCONT.347129",
      "street": "R LUIS CAMPOS",
      "house": "44",
      "postcode": "4520-238",
      "city": "SANTA MARIA DA FEIRA",
      "lon": "-8.536520828158807",
      "lat": "40.9321642640258"
    },
    {
      "id": "pt.ine.add.PTCONT.5257",
      "street": "TV DE PICALHOS",
      "house": "10-12",
      "postcode": "4520-156",
      "city": "SANTA MARIA DA FEIRA",
      "lon": "-8.537411096555113",
      "lat": "40.932125127170735"
    },
    {
      "id": "pt.ine.add.PTCONT.5258",
      "street": "TV DE PICALHOS",
      "house": "12",
      "postcode": "4520-156",
      "city": "SANTA MARIA DA FEIRA",
      "lon": "-8.537411096555113",
      "lat": "40.932125127170735"
    },
    {
      "id": "pt.ine.add.PTCONT.15569",
      "street": "R DA VELHA",
      "house": "17",
      "postcode": "4520-252",
      "city": "SANTA MARIA DA FEIRA",
      "lon": "-8.539847751145615",
      "lat": "40.93347897045351"
    },
    {
      "id": "pt.ine.add.PTCONT.20962",
      "street": "R LUIS CAMPOS",
      "house": "56",
      "postcode": "4520-238",
      "city": "SANTA MARIA DA FEIRA",
      "lon": "-8.536676439639743",
      "lat": "40.932370827846114"
    },
    {
      "id": "pt.ine.add.PTCONT.20963",
      "street": "R LUIS CAMPOS",
      "house": "56",
      "postcode": "4520-238",
      "city": "SANTA MARIA DA FEIRA",
      "lon": "-8.536676439639743",
      "lat": "40.932370827846114"
    },
    {
      "id": "pt.ine.add.PTCONT.20964",
      "street": "R LUIS CAMPOS",
      "house": "56",
      "postcode": "4520-238",
      "city": "SANTA MARIA DA FEIRA",
      "lon": "-8.536676439639743",
      "lat": "40.932370827846114"
    },
    {
      "id": "pt.ine.add.PTCONT.20965",
      "street": "R LUIS CAMPOS",
      "house": "56",
      "postcode": "4520-238",
      "city": "SANTA MARIA DA FEIRA",
      "lon": "-8.536676439639743",
      "lat": "40.932370827846114"
    },
    {
      "id": "pt.ine.add.PTCONT.20966",
      "street": "R LUIS CAMPOS",
      "house": "56",
      "postcode": "4520-238",
      "city": "SANTA MARIA DA FEIRA",
      "lon": "-8.536676439639743",
      "lat": "40.932370827846114"
    },
    {
      "id": "pt.ine.add.PTCONT.20967",
      "street": "R LUIS CAMPOS",
      "house": "56",
      "postcode": "4520-238",
      "city": "SANTA MARIA DA FEIRA",
      "lon": "-8.536676439639743",
      "lat": "40.932370827846114"
    },
    {
      "id": "pt.ine.add.PTCONT.20968",
      "street": "R LUIS CAMPOS",
      "house": "56",
      "postcode": "4520-238",
      "city": "SANTA MARIA DA FEIRA",
      "lon": "-8.536676439639743",
      "lat": "40.932370827846114"
    },
    {
      "id": "pt.ine.add.PTCONT.20969",
      "street": "R LUIS CAMPOS",
      "house": "56",
      "postcode": "4520-238",
      "city": "SANTA MARIA DA FEIRA",
      "lon": "-8.536676439639743",
      "lat": "40.932370827846114"
    },
    {
      "id": "pt.ine.add.PTCONT.20970",
      "street": "R LUIS CAMPOS",
      "house": "56",
      "postcode": "4520-238",
      "city": "SANTA MARIA DA FEIRA",
      "lon": "-8.536676439639743",
      "lat": "40.932370827846114"
    },
    {
      "id": "pt.ine.add.PTCONT.24831",
      "street": "R VELHA",
      "house": "13",
      "postcode": "4520-252",
      "city": "SANTA MARIA DA FEIRA",
      "lon": "-8.539662079348172",
      "lat": "40.933251806127785"
    },
    {
      "id": "pt.ine.add.PTCONT.24832",
      "street": "R VELHA",
      "house": "13",
      "postcode": "4520-252",
      "city": "SANTA MARIA DA FEIRA",
      "lon": "-8.539662079348172",
      "lat": "40.933251806127785"
    },
    {
      "id": "pt.ine.add.PTCONT.31886",
      "street": "R VELHA",
      "house": "9",
      "postcode": "4520-252",
      "city": "SANTA MARIA DA FEIRA",
      "lon": "-8.539291578492628",
      "lat": "40.93285690465639"
    },
    {
      "id": "pt.ine.add.PTCONT.31887",
      "street": "R VELHA",
      "house": "9",
      "postcode": "4520-252",
      "city": "SANTA MARIA DA FEIRA",
      "lon": "-8.539291578492628",
      "lat": "40.93285690465639"
    },
    {
      "id": "pt.ine.add.PTCONT.32205",
      "street": "R REGIMENTO ENGENHARIA ESPINHO",
      "house": "2",
      "postcode": "4520-245",
      "city": "SANTA MARIA DA FEIRA",
      "lon": "-8.537554398210382",
      "lat": "40.93225969528675"
    },
    {
      "id": "pt.ine.add.PTCONT.32206",
      "street": "R REGIMENTO ENGENHARIA ESPINHO",
      "house": "2/4",
      "postcode": "4520-245",
      "city": "SANTA MARIA DA FEIRA",
      "lon": "-8.537554398210382",
      "lat": "40.93225969528675"
    },
    {
      "id": "pt.ine.add.PTCONT.32207",
      "street": "R REGIMENTO ENGENHARIA ESPINHO",
      "house": "6",
      "postcode": "4520-245",
      "city": "SANTA MARIA DA FEIRA",
      "lon": "-8.537482610055656",
      "lat": "40.93216989995829"
    },
    {
      "id": "pt.ine.add.PTCONT.32208",
      "street": "R REGIMENTO ENGENHARIA ESPINHO",
      "house": "6/8",
      "postcode": "4520-245",
      "city": "SANTA MARIA DA FEIRA",
      "lon": "-8.537482610055656",
      "lat": "40.93216989995829"
    },
    {
      "id": "pt.ine.add.PTCONT.59416",
      "street": "R VELHA",
      "house": "25",
      "postcode": "4520-252",
      "city": "SANTA MARIA DA FEIRA",
      "lon": "-8.54022477064911",
      "lat": "40.93400621626134"
    },
    {
      "id": "pt.ine.add.PTCONT.62588",
      "street": "TV VELHA",
      "house": "12",
      "postcode": "4520-262",
      "city": "SANTA MARIA DA FEIRA",
      "lon": "-8.540364211332756",
      "lat": "40.93351046498018"
    },
    {
      "id": "pt.ine.add.PTCONT.70642",
      "street": "R VELHA",
      "house": "27",
      "postcode": "4520-252",
      "city": "SANTA MARIA DA FEIRA",
      "lon": "-8.540356319150321",
      "lat": "40.934158831747986"
    },
    {
      "id": "pt.ine.add.PTCONT.85341",
      "street": "R LUIS CAMPOS",
      "house": "21-23",
      "postcode": "4520-238",
      "city": "SANTA MARIA DA FEIRA",
      "lon": "-8.53722200376516",
      "lat": "40.93226986536987"
    },
    {
      "id": "pt.ine.add.PTCONT.85342",
      "street": "R LUIS CAMPOS",
      "house": "21-23",
      "postcode": "4520-238",
      "city": "SANTA MARIA DA FEIRA",
      "lon": "-8.53722200376516",
      "lat": "40.93226986536987"
    },
    {
      "id": "pt.ine.add.PTCONT.104088",
      "street": "TV VELHA",
      "house": "14",
      "postcode": "4520-262",
      "city": "SANTA MARIA DA FEIRA",
      "lon": "-8.54029335787904",
      "lat": "40.93357374815181"
    },
    {
      "id": "pt.ine.add.PTCONT.108369",
      "street": "TV PINHAL",
      "house": "5",
      "postcode": "4520-252",
      "city": "SANTA MARIA DA FEIRA",
      "lon": "-8.54099189594477",
      "lat": "40.93324710988205"
    },
    {
      "id": "pt.ine.add.PTCONT.136309",
      "street": "R VELHA",
      "house": "25 DTO",
      "postcode": "4520-252",
      "city": "SANTA MARIA DA FEIRA",
      "lon": "-8.540343229160825",
      "lat": "40.933960774434716"
    },
    {
      "id": "pt.ine.add.PTCONT.166199",
      "street": "R JOÃO ANTÓNIO ANDRADE",
      "house": "38",
      "postcode": "4520-232",
      "city": "SANTA MARIA DA FEIRA",
      "lon": "-8.54177775720574",
      "lat": "40.933604515695436"
    },
    {
      "id": "pt.ine.add.PTCONT.169283",
      "street": "R VELHA",
      "house": "1",
      "postcode": "4520-252",
      "city": "SANTA MARIA DA FEIRA",
      "lon": "-8.538564224752097",
      "lat": "40.9323552007673"
    },
    {
      "id": "pt.ine.add.PTCONT.172762",
      "street": "R LUIS CAMPOS",
      "house": "5 7",
      "postcode": "4520-238",
      "city": "SANTA MARIA DA FEIRA",
      "lon": "-8.53694771410894",
      "lat": "40.93207272268653"
    },
    {
      "id": "pt.ine.add.PTCONT.172881",
      "street": "R LUIS CAMPOS",
      "house": "5 7",
      "postcode": "4520-238",
      "city": "SANTA MARIA DA FEIRA",
      "lon": "-8.53694771410894",
      "lat": "40.93207272268653"
    },
    {
      "id": "pt.ine.add.PTCONT.187875",
      "street": "R LUIS CAMPOS",
      "house": "25/27",
      "postcode": "4520-238",
      "city": "SANTA MARIA DA FEIRA",
      "lon": "-8.537281698970979",
      "lat": "40.93232368440787"
    },
    {
      "id": "pt.ine.add.PTCONT.187876",
      "street": "R LUIS CAMPOS",
      "house": "27",
      "postcode": "4520-238",
      "city": "SANTA MARIA DA FEIRA",
      "lon": "-8.537281698970979",
      "lat": "40.93232368440787"
    },
    {
      "id": "pt.ine.add.PTCONT.194338",
      "street": "R LUIS CAMPOS",
      "house": "29/31",
      "postcode": "4520-238",
      "city": "SANTA MARIA DA FEIRA",
      "lon": "-8.537365085809121",
      "lat": "40.93236841564913"
    },
    {
      "id": "pt.ine.add.PTCONT.206539",
      "street": "R VELHA",
      "house": "3",
      "postcode": "4520-252",
      "city": "SANTA MARIA DA FEIRA",
      "lon": "-8.538934057270719",
      "lat": "40.932642050464274"
    },
    {
      "id": "pt.ine.add.PTCONT.214882",
      "street": "R VELHA",
      "house": "15",
      "postcode": "4520-252",
      "city": "SANTA MARIA DA FEIRA",
      "lon": "-8.540053403067311",
      "lat": "40.93316938339006"
    },
    {
      "id": "pt.ine.add.PTCONT.223092",
      "street": "R VELHA",
      "house": "29",
      "postcode": "4520-252",
      "city": "SANTA MARIA DA FEIRA",
      "lon": "-8.540464674261639",
      "lat": "40.93440157607801"
    },
    {
      "id": "pt.ine.add.PTCONT.271841",
      "street": "R LUIS CAMPOS",
      "house": "1",
      "postcode": "4520-238",
      "city": "SANTA MARIA DA FEIRA",
      "lon": "-8.536887909758992",
      "lat": "40.932000894434346"
    },
    {
      "id": "pt.ine.add.PTCONT.275628",
      "street": "R LUIS CAMPOS",
      "house": "9 11",
      "postcode": "4520-238",
      "city": "SANTA MARIA DA FEIRA",
      "lon": "-8.537019227242203",
      "lat": "40.93211749576359"
    },
    {
      "id": "pt.ine.add.PTCONT.275629",
      "street": "R LUIS CAMPOS",
      "house": "11",
      "postcode": "4520-238",
      "city": "SANTA MARIA DA FEIRA",
      "lon": "-8.537019227242203",
      "lat": "40.93211749576359"
    },
    {
      "id": "pt.ine.add.PTCONT.276683",
      "street": "TV PINHAL",
      "house": "3",
      "postcode": "4520-252",
      "city": "SANTA MARIA DA FEIRA",
      "lon": "-8.540896078548153",
      "lat": "40.93311237815683"
    },
    {
      "id": "pt.ine.add.PTCONT.279891",
      "street": "TV PINHAL",
      "house": "1",
      "postcode": "4520-252",
      "city": "SANTA MARIA DA FEIRA",
      "lon": "-8.540740562903247",
      "lat": "40.93292382915284"
    }
  ]
}