{
  "data": {
    "distrito": "Porto",
    "concelho": "Gondomar",
    "freguesia": "Rio Tinto",
    "OBJECTID": 454,
    "BGRI2021": "13040801008",
    "DT21": "13",
    "DTMN21": "1304",
    "DTMNFR21": "130408",
    "DTMNFRSEC21": "130408010",
    "SECNUM21": "010",
    "SSNUM21": "08",
    "SECSSNUM21": "01008",
    "OBJECTID_1": 129480,
    "DT": "13",
    "CC": "04",
    "fr": "08",
    "SEC": "010",
    "SS": "08"
  },
  "addresses": [
    {
      "id": "pt.ine.add.PTCONT.3566333",
      "street": "TV ARROTEIAS",
      "house": "129",
      "postcode": "4435-020",
      "city": "RIO TINTO",
      "lon": "-8.573346594917385",
      "lat": "41.18823471782943"
    },
    {
      "id": "pt.ine.add.PTCONT.3583497",
      "street": "CC FONTE DOS CORTICOS",
      "house": "41",
      "postcode": "4435-258",
      "city": "RIO TINTO",
      "lon": "-8.57349907162251",
      "lat": "41.18786495838255"
    },
    {
      "id": "pt.ine.add.PTCONT.3585370",
      "street": "TV ARROTEIAS",
      "house": "253",
      "postcode": "4435-020",
      "city": "RIO TINTO",
      "lon": "-8.574915639180421",
      "lat": "41.187589403875016"
    },
    {
      "id": "pt.ine.add.PTCONT.3585371",
      "street": "TV ARROTEIAS",
      "house": "253",
      "postcode": "4435-020",
      "city": "RIO TINTO",
      "lon": "-8.574915639180421",
      "lat": "41.187589403875016"
    },
    {
      "id": "pt.ine.add.PTCONT.3590063",
      "street": "TV ARROTEIAS",
      "house": "253",
      "postcode": "4435-020",
      "city": "RIO TINTO",
      "lon": "-8.574915639180421",
      "lat": "41.187589403875016"
    },
    {
      "id": "pt.ine.add.PTCONT.3596446",
      "street": "CC FONTE CORTICOS",
      "house": "163",
      "postcode": "4435-258",
      "city": "RIO TINTO",
      "lon": "-8.57378489067331",
      "lat": "41.18782784789897"
    },
    {
      "id": "pt.ine.add.PTCONT.3614778",
      "street": "CC FONTE DOS CORTICOS",
      "house": "82",
      "postcode": "4435-258",
      "city": "RIO TINTO",
      "lon": "-8.573963859587792",
      "lat": "41.18785417589544"
    },
    {
      "id": "pt.ine.add.PTCONT.3622155",
      "street": "CC PEDREIRAS",
      "house": "13",
      "postcode": "4435-384",
      "city": "RIO TINTO",
      "lon": "-8.574950307052212",
      "lat": "41.18742719337813"
    },
    {
      "id": "pt.ine.add.PTCONT.3630594",
      "street": "R MONTE DE CAMARﾃグ",
      "house": "3",
      "postcode": "4435-344",
      "city": "RIO TINTO",
      "lon": "-8.574956960037113",
      "lat": "41.18664379319113"
    },
    {
      "id": "pt.ine.add.PTCONT.3649627",
      "street": "TV ARROTEIAS",
      "house": "203",
      "postcode": "4435-020",
      "city": "RIO TINTO",
      "lon": "-8.574356830034054",
      "lat": "41.18779864517716"
    },
    {
      "id": "pt.ine.add.PTCONT.3680243",
      "street": "TV PEDREIRAS",
      "house": "3",
      "postcode": "4435-385",
      "city": "RIO TINTO",
      "lon": "-8.574713376832761",
      "lat": "41.18764420542334"
    },
    {
      "id": "pt.ine.add.PTCONT.3686108",
      "street": "CC FONTE DOS CORTICOS",
      "house": "61",
      "postcode": "4435-258",
      "city": "RIO TINTO",
      "lon": "-8.57370145639805",
      "lat": "41.187828167109515"
    },
    {
      "id": "pt.ine.add.PTCONT.3750470",
      "street": "TV RIO",
      "house": "176",
      "postcode": "4435-420",
      "city": "RIO TINTO",
      "lon": "-8.575076573508209",
      "lat": "41.18670636439173"
    },
    {
      "id": "pt.ine.add.PTCONT.3753876",
      "street": "CC FONTE DOS CORTICOS",
      "house": "60",
      "postcode": "4435-258",
      "city": "RIO TINTO",
      "lon": "-8.573571069491528",
      "lat": "41.18793671749934"
    },
    {
      "id": "pt.ine.add.PTCONT.3776151",
      "street": "CC FONTE DOS CORTICOS",
      "house": "19",
      "postcode": "4435-258",
      "city": "RIO TINTO",
      "lon": "-8.573178760704366",
      "lat": "41.18809129036589"
    },
    {
      "id": "pt.ine.add.PTCONT.3779025",
      "street": "R CASTANHEIRA",
      "house": "271",
      "postcode": "4435-158",
      "city": "RIO TINTO",
      "lon": "-8.575369563931696",
      "lat": "41.184193037504315"
    },
    {
      "id": "pt.ine.add.PTCONT.3793512",
      "street": "TV PEDREIRAS",
      "house": "55",
      "postcode": "4435-385",
      "city": "RIO TINTO",
      "lon": "-8.574296146220235",
      "lat": "41.18763680015485"
    },
    {
      "id": "pt.ine.add.PTCONT.3793513",
      "street": "TV PEDREIRAS",
      "house": "55 CS5",
      "postcode": "4435-385",
      "city": "RIO TINTO",
      "lon": "-8.574296146220235",
      "lat": "41.18763680015485"
    },
    {
      "id": "pt.ine.add.PTCONT.3793514",
      "street": "TV PEDREIRAS",
      "house": "55",
      "postcode": "4435-385",
      "city": "RIO TINTO",
      "lon": "-8.574296146220235",
      "lat": "41.18763680015485"
    },
    {
      "id": "pt.ine.add.PTCONT.3793564",
      "street": "CC FONTE DOS CORTICOS",
      "house": "99",
      "postcode": "4435-258",
      "city": "RIO TINTO",
      "lon": "-8.574296146220235",
      "lat": "41.18763680015485"
    },
    {
      "id": "pt.ine.add.PTCONT.3897403",
      "street": "CC PEDREIRAS",
      "house": "CASA 3",
      "postcode": "4435-384",
      "city": "RIO TINTO",
      "lon": "-8.574998346700138",
      "lat": "41.187481034905275"
    },
    {
      "id": "pt.ine.add.PTCONT.3897404",
      "street": "TV ARROTEIAS",
      "house": "203 B",
      "postcode": "4435-020",
      "city": "RIO TINTO",
      "lon": "-8.574475779929509",
      "lat": "41.18776217217089"
    },
    {
      "id": "pt.ine.add.PTCONT.3945497",
      "street": "TV ARROTEIAS",
      "house": "165",
      "postcode": "4435-020",
      "city": "RIO TINTO",
      "lon": "-8.574214887658917",
      "lat": "41.18796126639723"
    },
    {
      "id": "pt.ine.add.PTCONT.3958469",
      "street": "CC FONTE DOS CORTICOS",
      "house": "69",
      "postcode": "4435-258",
      "city": "RIO TINTO",
      "lon": "-8.573856345384632",
      "lat": "41.18781857016745"
    },
    {
      "id": "pt.ine.add.PTCONT.3976456",
      "street": "TV PEDREIRAS",
      "house": "14",
      "postcode": "4435-385",
      "city": "RIO TINTO",
      "lon": "-8.574784589178813",
      "lat": "41.187598910822906"
    },
    {
      "id": "pt.ine.add.PTCONT.3981361",
      "street": "R CASTANHEIRA",
      "house": "277",
      "postcode": "4435-158",
      "city": "RIO TINTO",
      "lon": "-8.575250197034237",
      "lat": "41.1841664828728"
    },
    {
      "id": "pt.ine.add.PTCONT.3998316",
      "street": "TV QUINTﾃグ QTAO",
      "house": "5",
      "postcode": "4435-502",
      "city": "RIO TINTO",
      "lon": "-8.574880480977889",
      "lat": "41.184131884343465"
    },
    {
      "id": "pt.ine.add.PTCONT.4009753",
      "street": "CC FONTE DOS CORTICOS",
      "house": "68",
      "postcode": "4435-258",
      "city": "RIO TINTO",
      "lon": "-8.573666242043412",
      "lat": "41.187909340566215"
    },
    {
      "id": "pt.ine.add.PTCONT.4044174",
      "street": "TV PEDREIRAS",
      "house": "16",
      "postcode": "4435-385",
      "city": "RIO TINTO",
      "lon": "-8.574676953971485",
      "lat": "41.18754529771207"
    },
    {
      "id": "pt.ine.add.PTCONT.4070647",
      "street": "CC PEDREIRAS",
      "house": "1",
      "postcode": "4435-384",
      "city": "RIO TINTO",
      "lon": "-8.575034467300041",
      "lat": "41.187534922147016"
    },
    {
      "id": "pt.ine.add.PTCONT.4090216",
      "street": "TV QUINTAO",
      "house": "33",
      "postcode": "4435-502",
      "city": "RIO TINTO",
      "lon": "-8.574106381832337",
      "lat": "41.184224894067036"
    },
    {
      "id": "pt.ine.add.PTCONT.4090217",
      "street": "TV QUINTAO",
      "house": "31",
      "postcode": "4435-502",
      "city": "RIO TINTO",
      "lon": "-8.574106381832337",
      "lat": "41.184224894067036"
    },
    {
      "id": "pt.ine.add.PTCONT.4134262",
      "street": "TV DAS ARROTEIAS",
      "house": "177",
      "postcode": "4435-020",
      "city": "RIO TINTO",
      "lon": "-8.574166002370532",
      "lat": "41.187781367511"
    },
    {
      "id": "pt.ine.add.PTCONT.4162385",
      "street": "R MONTE DE CAMARﾃグ",
      "house": "47",
      "postcode": "4435-344",
      "city": "RIO TINTO",
      "lon": "-8.574491999431816",
      "lat": "41.18662756741816"
    },
    {
      "id": "pt.ine.add.PTCONT.4169890",
      "street": "TV ARROTEIAS",
      "house": "155",
      "postcode": "4435-020",
      "city": "RIO TINTO",
      "lon": "-8.574132238664102",
      "lat": "41.18807863887844"
    },
    {
      "id": "pt.ine.add.PTCONT.4175261",
      "street": "TV ARROTEIAS",
      "house": "125 C1",
      "postcode": "4435-020",
      "city": "RIO TINTO",
      "lon": "-8.57391950427485",
      "lat": "41.188349582444665"
    },
    {
      "id": "pt.ine.add.PTCONT.4175262",
      "street": "TV ARROTEIAS",
      "house": "125",
      "postcode": "4435-020",
      "city": "RIO TINTO",
      "lon": "-8.57391950427485",
      "lat": "41.188349582444665"
    },
    {
      "id": "pt.ine.add.PTCONT.4175263",
      "street": "TV ARROTEIAS",
      "house": "125 CS3",
      "postcode": "4435-020",
      "city": "RIO TINTO",
      "lon": "-8.57391950427485",
      "lat": "41.188349582444665"
    },
    {
      "id": "pt.ine.add.PTCONT.4214775",
      "street": "TV ARROTEIAS",
      "house": "177",
      "postcode": "4435-020",
      "city": "RIO TINTO",
      "lon": "-8.574262201861785",
      "lat": "41.18790705934342"
    },
    {
      "id": "pt.ine.add.PTCONT.4240828",
      "street": "TV PEDREIRAS",
      "house": "15",
      "postcode": "4435-385",
      "city": "RIO TINTO",
      "lon": "-8.57460568112559",
      "lat": "41.18758158817261"
    },
    {
      "id": "pt.ine.add.PTCONT.4260292",
      "street": "CC FONTE DOS CORTICOS",
      "house": "53",
      "postcode": "4435-258",
      "city": "RIO TINTO",
      "lon": "-8.573606223631858",
      "lat": "41.18784653999685"
    },
    {
      "id": "pt.ine.add.PTCONT.4284839",
      "street": "TV ARROTEIAS",
      "house": "157",
      "postcode": "4435-020",
      "city": "RIO TINTO",
      "lon": "-8.574179553019079",
      "lat": "41.18802443185891"
    },
    {
      "id": "pt.ine.add.PTCONT.4313975",
      "street": "CC FONTE DOS CORTICOS",
      "house": "74",
      "postcode": "4435-258",
      "city": "RIO TINTO",
      "lon": "-8.57386862685924",
      "lat": "41.187872548999515"
    },
    {
      "id": "pt.ine.add.PTCONT.4320804",
      "street": "TV PEDREIRAS",
      "house": "45",
      "postcode": "4435-385",
      "city": "RIO TINTO",
      "lon": "-8.574175867121337",
      "lat": "41.18747518333975"
    },
    {
      "id": "pt.ine.add.PTCONT.4320805",
      "street": "TV PEDREIRAS",
      "house": "45 C2",
      "postcode": "4435-385",
      "city": "RIO TINTO",
      "lon": "-8.574175867121337",
      "lat": "41.18747518333975"
    },
    {
      "id": "pt.ine.add.PTCONT.4320981",
      "street": "TV PEDREIRAS",
      "house": "N 45 C3",
      "postcode": "4435-385",
      "city": "RIO TINTO",
      "lon": "-8.574175867121337",
      "lat": "41.18747518333975"
    },
    {
      "id": "pt.ine.add.PTCONT.4327420",
      "street": "TV QUINTﾃグ",
      "house": "35",
      "postcode": "4435-502",
      "city": "RIO TINTO",
      "lon": "-8.574011275182635",
      "lat": "41.18426127543347"
    },
    {
      "id": "pt.ine.add.PTCONT.4375432",
      "street": "TV ARROTEIAS",
      "house": "145",
      "postcode": "4435-020",
      "city": "RIO TINTO",
      "lon": "-8.574061387804713",
      "lat": "41.18817795751818"
    },
    {
      "id": "pt.ine.add.PTCONT.4390822",
      "street": "CC FONTE CORTICOS",
      "house": "",
      "postcode": "4435-258",
      "city": "RIO TINTO",
      "lon": "-8.574296146220235",
      "lat": "41.18763680015485"
    }
  ]
}