{
  "data": {
    "distrito": "Viseu",
    "concelho": "Carregal do Sal",
    "freguesia": "Oliveira do Conde",
    "OBJECTID": 206,
    "BGRI2021": "18020400120",
    "DT21": "18",
    "DTMN21": "1802",
    "DTMNFR21": "180204",
    "DTMNFRSEC21": "180204001",
    "SECNUM21": "001",
    "SSNUM21": "20",
    "SECSSNUM21": "00120",
    "OBJECTID_1": 188854,
    "DT": "18",
    "CC": "02",
    "fr": "04",
    "SEC": "001",
    "SS": "20"
  },
  "addresses": [
    {
      "id": "pt.ine.add.PTCONT.5427340",
      "street": "R LAGE GRANDE",
      "house": "",
      "postcode": "3430-372",
      "city": "CARREGAL DO SAL",
      "lon": "-7.966299975184302",
      "lat": "40.433153861079184"
    },
    {
      "id": "pt.ine.add.PTCONT.5438217",
      "street": "BR LAGE GRANDE",
      "house": "",
      "postcode": "3430-372",
      "city": "CARREGAL DO SAL",
      "lon": "-7.96614984122033",
      "lat": "40.431910882905555"
    },
    {
      "id": "pt.ine.add.PTCONT.5445396",
      "street": "QTA PALAMES",
      "house": "",
      "postcode": "3430-373",
      "city": "CARREGAL DO SAL",
      "lon": "-7.971325067246075",
      "lat": "40.431242826773"
    },
    {
      "id": "pt.ine.add.PTCONT.5445397",
      "street": "R MOCHADA",
      "house": "",
      "postcode": "3430-356",
      "city": "CARREGAL DO SAL",
      "lon": "-7.96978612542749",
      "lat": "40.43896739406361"
    },
    {
      "id": "pt.ine.add.PTCONT.5456403",
      "street": "R NOVA",
      "house": "12",
      "postcode": "3430-358",
      "city": "CARREGAL DO SAL",
      "lon": "-7.966407574823553",
      "lat": "40.43730555805407"
    },
    {
      "id": "pt.ine.add.PTCONT.5458200",
      "street": "R PASSO",
      "house": "5",
      "postcode": "3430-361",
      "city": "CARREGAL DO SAL",
      "lon": "-7.969102152967046",
      "lat": "40.439119519407264"
    },
    {
      "id": "pt.ine.add.PTCONT.5458201",
      "street": "R PASSO",
      "house": "",
      "postcode": "3430-361",
      "city": "CARREGAL DO SAL",
      "lon": "-7.969154533230647",
      "lat": "40.43932585675054"
    },
    {
      "id": "pt.ine.add.PTCONT.5460290",
      "street": "PC BRASIL PORTUGAL",
      "house": "2",
      "postcode": "3430-344",
      "city": "CARREGAL DO SAL",
      "lon": "-7.967700782165429",
      "lat": "40.43863122543316"
    },
    {
      "id": "pt.ine.add.PTCONT.5460291",
      "street": "R OUTEIRO",
      "house": "",
      "postcode": "3430-360",
      "city": "CARREGAL DO SAL",
      "lon": "-7.969632206627527",
      "lat": "40.439255352765066"
    },
    {
      "id": "pt.ine.add.PTCONT.5465686",
      "street": "R ALCOICE",
      "house": "",
      "postcode": "3430-358",
      "city": "CARREGAL DO SAL",
      "lon": "-7.970013806477671",
      "lat": "40.43741876789968"
    },
    {
      "id": "pt.ine.add.PTCONT.5468889",
      "street": "QTA ROCADAS",
      "house": "",
      "postcode": "3430-425",
      "city": "CARREGAL DO SAL",
      "lon": "-7.976317512341729",
      "lat": "40.42804373898573"
    },
    {
      "id": "pt.ine.add.PTCONT.5472672",
      "street": "R NOVA",
      "house": "",
      "postcode": "3430-358",
      "city": "CARREGAL DO SAL",
      "lon": "-7.967418644006637",
      "lat": "40.438333639631935"
    },
    {
      "id": "pt.ine.add.PTCONT.5472673",
      "street": "R NOVA",
      "house": "38",
      "postcode": "3430-358",
      "city": "CARREGAL DO SAL",
      "lon": "-7.966701490208699",
      "lat": "40.43760316332378"
    },
    {
      "id": "pt.ine.add.PTCONT.5472674",
      "street": "R NOVA",
      "house": "34",
      "postcode": "3430-358",
      "city": "CARREGAL DO SAL",
      "lon": "-7.966642760229575",
      "lat": "40.43752202918308"
    },
    {
      "id": "pt.ine.add.PTCONT.5481681",
      "street": "R OUTEIRO",
      "house": "10",
      "postcode": "3430-360",
      "city": "CARREGAL DO SAL",
      "lon": "-7.969478832349641",
      "lat": "40.43931817433529"
    },
    {
      "id": "pt.ine.add.PTCONT.5484593",
      "street": "R ALCOICE",
      "house": "",
      "postcode": "3430-358",
      "city": "CARREGAL DO SAL",
      "lon": "-7.9705613166363545",
      "lat": "40.43519517747917"
    },
    {
      "id": "pt.ine.add.PTCONT.5485519",
      "street": "QTA ROCADAS",
      "house": "",
      "postcode": "3430-425",
      "city": "CARREGAL DO SAL",
      "lon": "-7.9767438539718345",
      "lat": "40.42713475822817"
    },
    {
      "id": "pt.ine.add.PTCONT.5487275",
      "street": "R SEIXAL",
      "house": "3",
      "postcode": "3430-425",
      "city": "CARREGAL DO SAL",
      "lon": "-7.979781854912575",
      "lat": "40.4281564515566"
    },
    {
      "id": "pt.ine.add.PTCONT.5488888",
      "street": "R PASSO",
      "house": "6",
      "postcode": "3430-361",
      "city": "CARREGAL DO SAL",
      "lon": "-7.9691371178695345",
      "lat": "40.43928166814179"
    },
    {
      "id": "pt.ine.add.PTCONT.5492691",
      "street": "BR LAGE GRANDE",
      "house": "",
      "postcode": "3430-372",
      "city": "CARREGAL DO SAL",
      "lon": "-7.967267998561878",
      "lat": "40.43248884543558"
    },
    {
      "id": "pt.ine.add.PTCONT.5496150",
      "street": "R PASSO",
      "house": "1",
      "postcode": "3430-361",
      "city": "CARREGAL DO SAL",
      "lon": "-7.968854554242715",
      "lat": "40.439155189918225"
    },
    {
      "id": "pt.ine.add.PTCONT.5505313",
      "street": "BR LAGE GRANDE",
      "house": "1",
      "postcode": "3430-372",
      "city": "CARREGAL DO SAL",
      "lon": "-7.9686123757369725",
      "lat": "40.43213054533838"
    },
    {
      "id": "pt.ine.add.PTCONT.5507166",
      "street": "QTA ROCADAS",
      "house": "",
      "postcode": "3430-425",
      "city": "CARREGAL DO SAL",
      "lon": "-7.976223133224196",
      "lat": "40.42808863858253"
    },
    {
      "id": "pt.ine.add.PTCONT.5507263",
      "street": "R MOCHADA",
      "house": "14",
      "postcode": "3430-356",
      "city": "CARREGAL DO SAL",
      "lon": "-7.969526457647999",
      "lat": "40.43912012056627"
    },
    {
      "id": "pt.ine.add.PTCONT.5525855",
      "street": "R BOICO",
      "house": "5",
      "postcode": "3430-343",
      "city": "CARREGAL DO SAL",
      "lon": "-7.964963963521557",
      "lat": "40.43487197915653"
    },
    {
      "id": "pt.ine.add.PTCONT.5529016",
      "street": "R MOCHADA",
      "house": "",
      "postcode": "3430-356",
      "city": "CARREGAL DO SAL",
      "lon": "-7.970021915007478",
      "lat": "40.438940710405326"
    },
    {
      "id": "pt.ine.add.PTCONT.5533658",
      "street": "R ALCOICE",
      "house": "",
      "postcode": "3430-358",
      "city": "CARREGAL DO SAL",
      "lon": "-7.9682687830077565",
      "lat": "40.43770446926861"
    },
    {
      "id": "pt.ine.add.PTCONT.5544048",
      "street": "R LAGE GRANDE",
      "house": "",
      "postcode": "3430-372",
      "city": "CARREGAL DO SAL",
      "lon": "-7.966911896456309",
      "lat": "40.43352396854282"
    },
    {
      "id": "pt.ine.add.PTCONT.5545730",
      "street": "R OUTEIRO",
      "house": "",
      "postcode": "3430-360",
      "city": "CARREGAL DO SAL",
      "lon": "-7.969003172529038",
      "lat": "40.43938969006162"
    },
    {
      "id": "pt.ine.add.PTCONT.5556274",
      "street": "R OUTEIRO",
      "house": "",
      "postcode": "3430-360",
      "city": "CARREGAL DO SAL",
      "lon": "-7.969076185831366",
      "lat": "40.439353585237804"
    },
    {
      "id": "pt.ine.add.PTCONT.5561953",
      "street": "BR LAGE GRANDE",
      "house": "",
      "postcode": "3430-372",
      "city": "CARREGAL DO SAL",
      "lon": "-7.966219193080569",
      "lat": "40.4324603196571"
    },
    {
      "id": "pt.ine.add.PTCONT.5567394",
      "street": "R NOVA",
      "house": "40",
      "postcode": "3430-358",
      "city": "CARREGAL DO SAL",
      "lon": "-7.966736692747003",
      "lat": "40.437666252558074"
    },
    {
      "id": "pt.ine.add.PTCONT.5567399",
      "street": "R ANTÓNIO RODRIGUES SILVA",
      "house": "2",
      "postcode": "3430-342",
      "city": "CARREGAL DO SAL",
      "lon": "-7.968500571486123",
      "lat": "40.439316785577454"
    },
    {
      "id": "pt.ine.add.PTCONT.5571637",
      "street": "R NOVA",
      "house": "",
      "postcode": "3430-358",
      "city": "CARREGAL DO SAL",
      "lon": "-7.966960293955163",
      "lat": "40.4378016567713"
    },
    {
      "id": "pt.ine.add.PTCONT.5572859",
      "street": "BR LAGE GRANDE",
      "house": "8",
      "postcode": "3430-372",
      "city": "CARREGAL DO SAL",
      "lon": "-7.968117823068443",
      "lat": "40.431958735762265"
    },
    {
      "id": "pt.ine.add.PTCONT.5578143",
      "street": "BR LAGE GRANDE",
      "house": "12",
      "postcode": "3430-372",
      "city": "CARREGAL DO SAL",
      "lon": "-7.9688845484689645",
      "lat": "40.43167165080408"
    },
    {
      "id": "pt.ine.add.PTCONT.5582085",
      "street": "QTA PALAMES",
      "house": "",
      "postcode": "3430-373",
      "city": "CARREGAL DO SAL",
      "lon": "-7.97151338800526",
      "lat": "40.43134215086891"
    },
    {
      "id": "pt.ine.add.PTCONT.5583912",
      "street": "R LAGE GRANDE",
      "house": "17",
      "postcode": "3430-372",
      "city": "CARREGAL DO SAL",
      "lon": "-7.965792854567607",
      "lat": "40.433297216542066"
    },
    {
      "id": "pt.ine.add.PTCONT.5583919",
      "street": "R PASSO",
      "house": "3",
      "postcode": "3430-361",
      "city": "CARREGAL DO SAL",
      "lon": "-7.969196333540112",
      "lat": "40.43916468051625"
    },
    {
      "id": "pt.ine.add.PTCONT.5587647",
      "street": "R PASSO",
      "house": "9",
      "postcode": "3430-361",
      "city": "CARREGAL DO SAL",
      "lon": "-7.9689639336279345",
      "lat": "40.43923067634246"
    },
    {
      "id": "pt.ine.add.PTCONT.5591361",
      "street": "R ALCOICE",
      "house": "",
      "postcode": "3430-358",
      "city": "CARREGAL DO SAL",
      "lon": "-7.9706552326423425",
      "lat": "40.43534840322183"
    },
    {
      "id": "pt.ine.add.PTCONT.5602305",
      "street": "QTA ROCADAS",
      "house": "",
      "postcode": "3430-425",
      "city": "CARREGAL DO SAL",
      "lon": "-7.9741837254262595",
      "lat": "40.42839204104084"
    },
    {
      "id": "pt.ine.add.PTCONT.5605916",
      "street": "QTA MONTURO",
      "house": "",
      "postcode": "3430-373",
      "city": "CARREGAL DO SAL",
      "lon": "-7.972292906540596",
      "lat": "40.43062279614211"
    },
    {
      "id": "pt.ine.add.PTCONT.5608966",
      "street": "R BOICO",
      "house": "13",
      "postcode": "3430-343",
      "city": "CARREGAL DO SAL",
      "lon": "-7.965438090031379",
      "lat": "40.43378300044779"
    },
    {
      "id": "pt.ine.add.PTCONT.5609620",
      "street": "R NOVA",
      "house": "",
      "postcode": "3430-358",
      "city": "CARREGAL DO SAL",
      "lon": "-7.966513470306947",
      "lat": "40.437377754782965"
    },
    {
      "id": "pt.ine.add.PTCONT.5619219",
      "street": "BR LAGE GRANDE",
      "house": "10",
      "postcode": "3430-372",
      "city": "CARREGAL DO SAL",
      "lon": "-7.968459675640284",
      "lat": "40.43192320104014"
    },
    {
      "id": "pt.ine.add.PTCONT.5624881",
      "street": "R S SEBASTIÃO",
      "house": "1",
      "postcode": "3430-367",
      "city": "CARREGAL DO SAL",
      "lon": "-7.964608735110372",
      "lat": "40.435537869964875"
    },
    {
      "id": "pt.ine.add.PTCONT.5624882",
      "street": "R BOICO",
      "house": "9",
      "postcode": "3430-343",
      "city": "CARREGAL DO SAL",
      "lon": "-7.96533155223691",
      "lat": "40.43397196171588"
    },
    {
      "id": "pt.ine.add.PTCONT.5627079",
      "street": "R PASSO",
      "house": "8",
      "postcode": "3430-361",
      "city": "CARREGAL DO SAL",
      "lon": "-7.969085088699629",
      "lat": "40.43923837510315"
    },
    {
      "id": "pt.ine.add.PTCONT.5632479",
      "street": "R NOVA",
      "house": "28",
      "postcode": "3430-358",
      "city": "CARREGAL DO SAL",
      "lon": "-7.966583985954957",
      "lat": "40.437458905968036"
    },
    {
      "id": "pt.ine.add.PTCONT.5632487",
      "street": "QTA MOCHADA",
      "house": "",
      "postcode": "3430-356",
      "city": "CARREGAL DO SAL",
      "lon": "-7.970235283791535",
      "lat": "40.43843670272959"
    },
    {
      "id": "pt.ine.add.PTCONT.5636612",
      "street": "CASA DAS ROCADAS",
      "house": "",
      "postcode": "3430-425",
      "city": "CARREGAL DO SAL",
      "lon": "-7.977074413778524",
      "lat": "40.4268740445336"
    },
    {
      "id": "pt.ine.add.PTCONT.5638180",
      "street": "BR LAGE GRANDE",
      "house": "6",
      "postcode": "3430-372",
      "city": "CARREGAL DO SAL",
      "lon": "-7.967799518080481",
      "lat": "40.432003308663965"
    },
    {
      "id": "pt.ine.add.PTCONT.5645719",
      "street": "R NOVA",
      "house": "10",
      "postcode": "3430-358",
      "city": "CARREGAL DO SAL",
      "lon": "-7.9663252068814465",
      "lat": "40.43725140619277"
    },
    {
      "id": "pt.ine.add.PTCONT.5650557",
      "street": "R MOCHADA",
      "house": "",
      "postcode": "3430-356",
      "city": "CARREGAL DO SAL",
      "lon": "-7.96955033566263",
      "lat": "40.43899407724045"
    },
    {
      "id": "pt.ine.add.PTCONT.5651260",
      "street": "LG PELOURINHO",
      "house": "",
      "postcode": "3430-362",
      "city": "CARREGAL DO SAL",
      "lon": "-7.968912828211289",
      "lat": "40.43942543792215"
    },
    {
      "id": "pt.ine.add.PTCONT.5653373",
      "street": "R NOVA",
      "house": "2",
      "postcode": "3430-358",
      "city": "CARREGAL DO SAL",
      "lon": "-7.966337259806207",
      "lat": "40.437143357453856"
    },
    {
      "id": "pt.ine.add.PTCONT.5654916",
      "street": "R NOVA",
      "house": "",
      "postcode": "3430-358",
      "city": "CARREGAL DO SAL",
      "lon": "-7.966278263558817",
      "lat": "40.437170288865815"
    },
    {
      "id": "pt.ine.add.PTCONT.5658694",
      "street": "R NOVA",
      "house": "18",
      "postcode": "3430-358",
      "city": "CARREGAL DO SAL",
      "lon": "-7.966666798501833",
      "lat": "40.43733294807921"
    },
    {
      "id": "pt.ine.add.PTCONT.5660277",
      "street": "R NOVA",
      "house": "18",
      "postcode": "3430-358",
      "city": "CARREGAL DO SAL",
      "lon": "-7.966666798501833",
      "lat": "40.43733294807921"
    }
  ]
}