{
  "data": {
    "distrito": "Lisboa",
    "concelho": "Amadora",
    "freguesia": "Águas Livres",
    "OBJECTID": 336,
    "BGRI2021": "11151302103",
    "DT21": "11",
    "DTMN21": "1115",
    "DTMNFR21": "111513",
    "DTMNFRSEC21": "111513021",
    "SECNUM21": "021",
    "SSNUM21": "03",
    "SECSSNUM21": "02103",
    "OBJECTID_1": 118506,
    "DT": "11",
    "CC": "15",
    "fr": "13",
    "SEC": "021",
    "SS": "03"
  },
  "addresses": [
    {
      "id": "pt.ine.add.PTCONT.2420326",
      "street": "LG 1 DE DEZEMBRO",
      "house": "5",
      "postcode": "2720-464",
      "city": "AMADORA",
      "lon": "-9.223705369513016",
      "lat": "38.75023199176913"
    },
    {
      "id": "pt.ine.add.PTCONT.2420327",
      "street": "LG 1 DE DEZEMBRO",
      "house": "5",
      "postcode": "2720-464",
      "city": "AMADORA",
      "lon": "-9.223705369513016",
      "lat": "38.75023199176913"
    },
    {
      "id": "pt.ine.add.PTCONT.2420328",
      "street": "LG 1 DE DEZEMBRO",
      "house": "5",
      "postcode": "2720-464",
      "city": "AMADORA",
      "lon": "-9.223705369513016",
      "lat": "38.75023199176913"
    },
    {
      "id": "pt.ine.add.PTCONT.2420329",
      "street": "LG 1 DE DEZEMBRO",
      "house": "5",
      "postcode": "2720-464",
      "city": "AMADORA",
      "lon": "-9.223705369513016",
      "lat": "38.75023199176913"
    },
    {
      "id": "pt.ine.add.PTCONT.2420330",
      "street": "LG 1 DE DEZEMBRO",
      "house": "5",
      "postcode": "2720-464",
      "city": "AMADORA",
      "lon": "-9.223705369513016",
      "lat": "38.75023199176913"
    },
    {
      "id": "pt.ine.add.PTCONT.2420331",
      "street": "LG 1 DE DEZEMBRO",
      "house": "5",
      "postcode": "2720-464",
      "city": "AMADORA",
      "lon": "-9.223705369513016",
      "lat": "38.75023199176913"
    },
    {
      "id": "pt.ine.add.PTCONT.2420332",
      "street": "LG 1 DE DEZEMBRO",
      "house": "5",
      "postcode": "2720-464",
      "city": "AMADORA",
      "lon": "-9.223705369513016",
      "lat": "38.75023199176913"
    },
    {
      "id": "pt.ine.add.PTCONT.2420333",
      "street": "LG 1 DE DEZEMBRO",
      "house": "5",
      "postcode": "2720-464",
      "city": "AMADORA",
      "lon": "-9.223705369513016",
      "lat": "38.75023199176913"
    },
    {
      "id": "pt.ine.add.PTCONT.2420334",
      "street": "LG 1 DE DEZEMBRO",
      "house": "5",
      "postcode": "2720-464",
      "city": "AMADORA",
      "lon": "-9.223705369513016",
      "lat": "38.75023199176913"
    },
    {
      "id": "pt.ine.add.PTCONT.2420335",
      "street": "LG 1 DE DEZEMBRO",
      "house": "5",
      "postcode": "2720-464",
      "city": "AMADORA",
      "lon": "-9.223705369513016",
      "lat": "38.75023199176913"
    },
    {
      "id": "pt.ine.add.PTCONT.2420336",
      "street": "LG 1 DE DEZEMBRO",
      "house": "5",
      "postcode": "2720-464",
      "city": "AMADORA",
      "lon": "-9.223705369513016",
      "lat": "38.75023199176913"
    },
    {
      "id": "pt.ine.add.PTCONT.2420337",
      "street": "LG 1 DE DEZEMBRO",
      "house": "5",
      "postcode": "2720-464",
      "city": "AMADORA",
      "lon": "-9.223705369513016",
      "lat": "38.75023199176913"
    },
    {
      "id": "pt.ine.add.PTCONT.2420338",
      "street": "LG 1 DE DEZEMBRO",
      "house": "5",
      "postcode": "2720-464",
      "city": "AMADORA",
      "lon": "-9.223705369513016",
      "lat": "38.75023199176913"
    },
    {
      "id": "pt.ine.add.PTCONT.2420339",
      "street": "LG 1 DE DEZEMBRO",
      "house": "5",
      "postcode": "2720-464",
      "city": "AMADORA",
      "lon": "-9.223705369513016",
      "lat": "38.75023199176913"
    },
    {
      "id": "pt.ine.add.PTCONT.2420340",
      "street": "LG 1 DE DEZEMBRO",
      "house": "5",
      "postcode": "2720-464",
      "city": "AMADORA",
      "lon": "-9.223705369513016",
      "lat": "38.75023199176913"
    },
    {
      "id": "pt.ine.add.PTCONT.2420341",
      "street": "LG 1 DE DEZEMBRO",
      "house": "5",
      "postcode": "2720-464",
      "city": "AMADORA",
      "lon": "-9.223705369513016",
      "lat": "38.75023199176913"
    },
    {
      "id": "pt.ine.add.PTCONT.2420343",
      "street": "LG 1 DE DEZEMBRO",
      "house": "5",
      "postcode": "2720-464",
      "city": "AMADORA",
      "lon": "-9.223705369513016",
      "lat": "38.75023199176913"
    },
    {
      "id": "pt.ine.add.PTCONT.2420344",
      "street": "LG 1 DE DEZEMBRO",
      "house": "5",
      "postcode": "2720-464",
      "city": "AMADORA",
      "lon": "-9.223705369513016",
      "lat": "38.75023199176913"
    },
    {
      "id": "pt.ine.add.PTCONT.2420345",
      "street": "LG 1 DE DEZEMBRO",
      "house": "5",
      "postcode": "2720-464",
      "city": "AMADORA",
      "lon": "-9.223705369513016",
      "lat": "38.75023199176913"
    },
    {
      "id": "pt.ine.add.PTCONT.2420346",
      "street": "LG 1 DE DEZEMBRO",
      "house": "5",
      "postcode": "2720-464",
      "city": "AMADORA",
      "lon": "-9.223705369513016",
      "lat": "38.75023199176913"
    },
    {
      "id": "pt.ine.add.PTCONT.2420347",
      "street": "LG 1 DE DEZEMBRO",
      "house": "5",
      "postcode": "2720-464",
      "city": "AMADORA",
      "lon": "-9.223705369513016",
      "lat": "38.75023199176913"
    },
    {
      "id": "pt.ine.add.PTCONT.2420348",
      "street": "LG 1 DE DEZEMBRO",
      "house": "5",
      "postcode": "2720-464",
      "city": "AMADORA",
      "lon": "-9.223705369513016",
      "lat": "38.75023199176913"
    },
    {
      "id": "pt.ine.add.PTCONT.2420349",
      "street": "LG 1 DE DEZEMBRO",
      "house": "5",
      "postcode": "2720-464",
      "city": "AMADORA",
      "lon": "-9.223705369513016",
      "lat": "38.75023199176913"
    },
    {
      "id": "pt.ine.add.PTCONT.2420407",
      "street": "LG 1 DE DEZEMBRO",
      "house": "5",
      "postcode": "2720-464",
      "city": "AMADORA",
      "lon": "-9.223705369513016",
      "lat": "38.75023199176913"
    },
    {
      "id": "pt.ine.add.PTCONT.2420408",
      "street": "LG 1 DE DEZEMBRO",
      "house": "5",
      "postcode": "2720-464",
      "city": "AMADORA",
      "lon": "-9.223705369513016",
      "lat": "38.75023199176913"
    },
    {
      "id": "pt.ine.add.PTCONT.2420409",
      "street": "LG 1 DE DEZEMBRO",
      "house": "5",
      "postcode": "2720-464",
      "city": "AMADORA",
      "lon": "-9.223705369513016",
      "lat": "38.75023199176913"
    },
    {
      "id": "pt.ine.add.PTCONT.2420410",
      "street": "LG 1 DE DEZEMBRO",
      "house": "5",
      "postcode": "2720-464",
      "city": "AMADORA",
      "lon": "-9.223705369513016",
      "lat": "38.75023199176913"
    },
    {
      "id": "pt.ine.add.PTCONT.2420411",
      "street": "LG 1 DE DEZEMBRO",
      "house": "5",
      "postcode": "2720-464",
      "city": "AMADORA",
      "lon": "-9.223705369513016",
      "lat": "38.75023199176913"
    },
    {
      "id": "pt.ine.add.PTCONT.2420412",
      "street": "LG 1 DE DEZEMBRO",
      "house": "5",
      "postcode": "2720-464",
      "city": "AMADORA",
      "lon": "-9.223705369513016",
      "lat": "38.75023199176913"
    },
    {
      "id": "pt.ine.add.PTCONT.2420413",
      "street": "LG 1 DE DEZEMBRO",
      "house": "5",
      "postcode": "2720-464",
      "city": "AMADORA",
      "lon": "-9.223705369513016",
      "lat": "38.75023199176913"
    },
    {
      "id": "pt.ine.add.PTCONT.2420414",
      "street": "LG 1 DE DEZEMBRO",
      "house": "5",
      "postcode": "2720-464",
      "city": "AMADORA",
      "lon": "-9.223705369513016",
      "lat": "38.75023199176913"
    },
    {
      "id": "pt.ine.add.PTCONT.2420415",
      "street": "LG 1 DE DEZEMBRO",
      "house": "5",
      "postcode": "2720-464",
      "city": "AMADORA",
      "lon": "-9.223705369513016",
      "lat": "38.75023199176913"
    },
    {
      "id": "pt.ine.add.PTCONT.2420416",
      "street": "LG 1 DE DEZEMBRO",
      "house": "5",
      "postcode": "2720-464",
      "city": "AMADORA",
      "lon": "-9.223705369513016",
      "lat": "38.75023199176913"
    },
    {
      "id": "pt.ine.add.PTCONT.2420417",
      "street": "LG 1 DE DEZEMBRO",
      "house": "5",
      "postcode": "2720-464",
      "city": "AMADORA",
      "lon": "-9.223705369513016",
      "lat": "38.75023199176913"
    },
    {
      "id": "pt.ine.add.PTCONT.2420418",
      "street": "LG 1 DE DEZEMBRO",
      "house": "5",
      "postcode": "2720-464",
      "city": "AMADORA",
      "lon": "-9.223705369513016",
      "lat": "38.75023199176913"
    },
    {
      "id": "pt.ine.add.PTCONT.2420419",
      "street": "LG 1 DE DEZEMBRO",
      "house": "5",
      "postcode": "2720-464",
      "city": "AMADORA",
      "lon": "-9.223705369513016",
      "lat": "38.75023199176913"
    },
    {
      "id": "pt.ine.add.PTCONT.2420420",
      "street": "LG 1 DE DEZEMBRO",
      "house": "5",
      "postcode": "2720-464",
      "city": "AMADORA",
      "lon": "-9.223705369513016",
      "lat": "38.75023199176913"
    },
    {
      "id": "pt.ine.add.PTCONT.2420421",
      "street": "LG 1 DE DEZEMBRO",
      "house": "5",
      "postcode": "2720-464",
      "city": "AMADORA",
      "lon": "-9.223705369513016",
      "lat": "38.75023199176913"
    },
    {
      "id": "pt.ine.add.PTCONT.2420422",
      "street": "LG 1 DE DEZEMBRO",
      "house": "5",
      "postcode": "2720-464",
      "city": "AMADORA",
      "lon": "-9.223705369513016",
      "lat": "38.75023199176913"
    },
    {
      "id": "pt.ine.add.PTCONT.2420423",
      "street": "LG 1 DE DEZEMBRO",
      "house": "5",
      "postcode": "2720-464",
      "city": "AMADORA",
      "lon": "-9.223705369513016",
      "lat": "38.75023199176913"
    },
    {
      "id": "pt.ine.add.PTCONT.2420424",
      "street": "LG 1 DE DEZEMBRO",
      "house": "5",
      "postcode": "2720-464",
      "city": "AMADORA",
      "lon": "-9.223705369513016",
      "lat": "38.75023199176913"
    },
    {
      "id": "pt.ine.add.PTCONT.2420425",
      "street": "LG 1 DE DEZEMBRO",
      "house": "5",
      "postcode": "2720-464",
      "city": "AMADORA",
      "lon": "-9.223705369513016",
      "lat": "38.75023199176913"
    },
    {
      "id": "pt.ine.add.PTCONT.2420426",
      "street": "LG 1 DE DEZEMBRO",
      "house": "5",
      "postcode": "2720-464",
      "city": "AMADORA",
      "lon": "-9.223705369513016",
      "lat": "38.75023199176913"
    },
    {
      "id": "pt.ine.add.PTCONT.2421275",
      "street": "LG 1 DE DEZEMBRO",
      "house": "5",
      "postcode": "2720-464",
      "city": "AMADORA",
      "lon": "-9.223705369513016",
      "lat": "38.75023199176913"
    },
    {
      "id": "pt.ine.add.PTCONT.2421276",
      "street": "LG 1 DE DEZEMBRO",
      "house": "5",
      "postcode": "2720-464",
      "city": "AMADORA",
      "lon": "-9.223705369513016",
      "lat": "38.75023199176913"
    },
    {
      "id": "pt.ine.add.PTCONT.2421500",
      "street": "LG 1 DE DEZEMBRO",
      "house": "5",
      "postcode": "2720-464",
      "city": "AMADORA",
      "lon": "-9.223705369513016",
      "lat": "38.75023199176913"
    },
    {
      "id": "pt.ine.add.PTCONT.2441563",
      "street": "AV ANTÓNIO SÉRGIO",
      "house": "5",
      "postcode": "2720-045",
      "city": "AMADORA",
      "lon": "-9.225899972718654",
      "lat": "38.750824022590805"
    },
    {
      "id": "pt.ine.add.PTCONT.2441564",
      "street": "AV ANTÓNIO SÉRGIO",
      "house": "5",
      "postcode": "2720-045",
      "city": "AMADORA",
      "lon": "-9.225899972718654",
      "lat": "38.750824022590805"
    },
    {
      "id": "pt.ine.add.PTCONT.2441565",
      "street": "AV ANTÓNIO SÉRGIO",
      "house": "5",
      "postcode": "2720-045",
      "city": "AMADORA",
      "lon": "-9.225899972718654",
      "lat": "38.750824022590805"
    },
    {
      "id": "pt.ine.add.PTCONT.2441566",
      "street": "AV ANTÓNIO SÉRGIO",
      "house": "5",
      "postcode": "2720-045",
      "city": "AMADORA",
      "lon": "-9.225899972718654",
      "lat": "38.750824022590805"
    },
    {
      "id": "pt.ine.add.PTCONT.2441567",
      "street": "AV ANTÓNIO SÉRGIO",
      "house": "5",
      "postcode": "2720-045",
      "city": "AMADORA",
      "lon": "-9.225899972718654",
      "lat": "38.750824022590805"
    },
    {
      "id": "pt.ine.add.PTCONT.2441568",
      "street": "AV ANTÓNIO SÉRGIO",
      "house": "5",
      "postcode": "2720-045",
      "city": "AMADORA",
      "lon": "-9.225899972718654",
      "lat": "38.750824022590805"
    },
    {
      "id": "pt.ine.add.PTCONT.2441569",
      "street": "AV ANTÓNIO SÉRGIO",
      "house": "5",
      "postcode": "2720-045",
      "city": "AMADORA",
      "lon": "-9.225899972718654",
      "lat": "38.750824022590805"
    },
    {
      "id": "pt.ine.add.PTCONT.2441570",
      "street": "AV ANTÓNIO SÉRGIO",
      "house": "5",
      "postcode": "2720-045",
      "city": "AMADORA",
      "lon": "-9.225899972718654",
      "lat": "38.750824022590805"
    },
    {
      "id": "pt.ine.add.PTCONT.2441571",
      "street": "AV ANTÓNIO SÉRGIO",
      "house": "5",
      "postcode": "2720-045",
      "city": "AMADORA",
      "lon": "-9.225899972718654",
      "lat": "38.750824022590805"
    },
    {
      "id": "pt.ine.add.PTCONT.2441572",
      "street": "AV ANTÓNIO SÉRGIO",
      "house": "5",
      "postcode": "2720-045",
      "city": "AMADORA",
      "lon": "-9.225899972718654",
      "lat": "38.750824022590805"
    },
    {
      "id": "pt.ine.add.PTCONT.2441573",
      "street": "AV ANTÓNIO SÉRGIO",
      "house": "5",
      "postcode": "2720-045",
      "city": "AMADORA",
      "lon": "-9.225899972718654",
      "lat": "38.750824022590805"
    },
    {
      "id": "pt.ine.add.PTCONT.2441574",
      "street": "AV ANTÓNIO SÉRGIO",
      "house": "5",
      "postcode": "2720-045",
      "city": "AMADORA",
      "lon": "-9.225899972718654",
      "lat": "38.750824022590805"
    },
    {
      "id": "pt.ine.add.PTCONT.2441575",
      "street": "AV ANTÓNIO SÉRGIO",
      "house": "5",
      "postcode": "2720-045",
      "city": "AMADORA",
      "lon": "-9.225899972718654",
      "lat": "38.750824022590805"
    },
    {
      "id": "pt.ine.add.PTCONT.2441576",
      "street": "AV ANTÓNIO SÉRGIO",
      "house": "5",
      "postcode": "2720-045",
      "city": "AMADORA",
      "lon": "-9.225899972718654",
      "lat": "38.750824022590805"
    },
    {
      "id": "pt.ine.add.PTCONT.2441577",
      "street": "AV ANTÓNIO SÉRGIO",
      "house": "5",
      "postcode": "2720-045",
      "city": "AMADORA",
      "lon": "-9.225899972718654",
      "lat": "38.750824022590805"
    },
    {
      "id": "pt.ine.add.PTCONT.2441578",
      "street": "AV ANTÓNIO SÉRGIO",
      "house": "5",
      "postcode": "2720-045",
      "city": "AMADORA",
      "lon": "-9.225899972718654",
      "lat": "38.750824022590805"
    },
    {
      "id": "pt.ine.add.PTCONT.2441579",
      "street": "AV ANTÓNIO SÉRGIO",
      "house": "5",
      "postcode": "2720-045",
      "city": "AMADORA",
      "lon": "-9.225899972718654",
      "lat": "38.750824022590805"
    },
    {
      "id": "pt.ine.add.PTCONT.2441580",
      "street": "AV ANTÓNIO SÉRGIO",
      "house": "5",
      "postcode": "2720-045",
      "city": "AMADORA",
      "lon": "-9.225899972718654",
      "lat": "38.750824022590805"
    },
    {
      "id": "pt.ine.add.PTCONT.2441581",
      "street": "AV ANTÓNIO SÉRGIO",
      "house": "5",
      "postcode": "2720-045",
      "city": "AMADORA",
      "lon": "-9.225899972718654",
      "lat": "38.750824022590805"
    },
    {
      "id": "pt.ine.add.PTCONT.2441582",
      "street": "AV ANTÓNIO SÉRGIO",
      "house": "5",
      "postcode": "2720-045",
      "city": "AMADORA",
      "lon": "-9.225899972718654",
      "lat": "38.750824022590805"
    },
    {
      "id": "pt.ine.add.PTCONT.2441583",
      "street": "AV ANTÓNIO SÉRGIO",
      "house": "5",
      "postcode": "2720-045",
      "city": "AMADORA",
      "lon": "-9.225899972718654",
      "lat": "38.750824022590805"
    },
    {
      "id": "pt.ine.add.PTCONT.2441584",
      "street": "AV ANTÓNIO SÉRGIO",
      "house": "5",
      "postcode": "2720-045",
      "city": "AMADORA",
      "lon": "-9.225899972718654",
      "lat": "38.750824022590805"
    },
    {
      "id": "pt.ine.add.PTCONT.2441585",
      "street": "AV ANTÓNIO SÉRGIO",
      "house": "5",
      "postcode": "2720-045",
      "city": "AMADORA",
      "lon": "-9.225899972718654",
      "lat": "38.750824022590805"
    },
    {
      "id": "pt.ine.add.PTCONT.2441586",
      "street": "AV ANTÓNIO SÉRGIO",
      "house": "5",
      "postcode": "2720-045",
      "city": "AMADORA",
      "lon": "-9.225899972718654",
      "lat": "38.750824022590805"
    },
    {
      "id": "pt.ine.add.PTCONT.2441587",
      "street": "AV ANTÓNIO SÉRGIO",
      "house": "5",
      "postcode": "2720-045",
      "city": "AMADORA",
      "lon": "-9.225899972718654",
      "lat": "38.750824022590805"
    },
    {
      "id": "pt.ine.add.PTCONT.2441588",
      "street": "AV ANTÓNIO SÉRGIO",
      "house": "5",
      "postcode": "2720-045",
      "city": "AMADORA",
      "lon": "-9.225899972718654",
      "lat": "38.750824022590805"
    },
    {
      "id": "pt.ine.add.PTCONT.2441589",
      "street": "AV ANTÓNIO SÉRGIO",
      "house": "5",
      "postcode": "2720-045",
      "city": "AMADORA",
      "lon": "-9.225899972718654",
      "lat": "38.750824022590805"
    },
    {
      "id": "pt.ine.add.PTCONT.2441590",
      "street": "AV ANTÓNIO SÉRGIO",
      "house": "5",
      "postcode": "2720-045",
      "city": "AMADORA",
      "lon": "-9.225899972718654",
      "lat": "38.750824022590805"
    },
    {
      "id": "pt.ine.add.PTCONT.2441591",
      "street": "AV ANTÓNIO SÉRGIO",
      "house": "5",
      "postcode": "2720-045",
      "city": "AMADORA",
      "lon": "-9.225899972718654",
      "lat": "38.750824022590805"
    },
    {
      "id": "pt.ine.add.PTCONT.2441592",
      "street": "AV ANTÓNIO SÉRGIO",
      "house": "5",
      "postcode": "2720-045",
      "city": "AMADORA",
      "lon": "-9.225899972718654",
      "lat": "38.750824022590805"
    },
    {
      "id": "pt.ine.add.PTCONT.2441593",
      "street": "AV ANTÓNIO SÉRGIO",
      "house": "5",
      "postcode": "2720-045",
      "city": "AMADORA",
      "lon": "-9.225899972718654",
      "lat": "38.750824022590805"
    },
    {
      "id": "pt.ine.add.PTCONT.2441594",
      "street": "AV ANTÓNIO SÉRGIO",
      "house": "5",
      "postcode": "2720-045",
      "city": "AMADORA",
      "lon": "-9.225899972718654",
      "lat": "38.750824022590805"
    },
    {
      "id": "pt.ine.add.PTCONT.2441595",
      "street": "AV ANTÓNIO SÉRGIO",
      "house": "5",
      "postcode": "2720-045",
      "city": "AMADORA",
      "lon": "-9.225899972718654",
      "lat": "38.750824022590805"
    },
    {
      "id": "pt.ine.add.PTCONT.2441597",
      "street": "AV ANTÓNIO SÉRGIO",
      "house": "5",
      "postcode": "2720-045",
      "city": "AMADORA",
      "lon": "-9.225899972718654",
      "lat": "38.750824022590805"
    },
    {
      "id": "pt.ine.add.PTCONT.2441598",
      "street": "AV ANTÓNIO SÉRGIO",
      "house": "5",
      "postcode": "2720-045",
      "city": "AMADORA",
      "lon": "-9.225899972718654",
      "lat": "38.750824022590805"
    },
    {
      "id": "pt.ine.add.PTCONT.2441599",
      "street": "AV ANTÓNIO SÉRGIO",
      "house": "5",
      "postcode": "2720-045",
      "city": "AMADORA",
      "lon": "-9.225899972718654",
      "lat": "38.750824022590805"
    },
    {
      "id": "pt.ine.add.PTCONT.2456492",
      "street": "R CHE GUEVARA",
      "house": "12",
      "postcode": "2720-099",
      "city": "AMADORA",
      "lon": "-9.225096215344742",
      "lat": "38.75016495896685"
    },
    {
      "id": "pt.ine.add.PTCONT.2456493",
      "street": "R CHE GUEVARA",
      "house": "12",
      "postcode": "2720-099",
      "city": "AMADORA",
      "lon": "-9.225096215344742",
      "lat": "38.75016495896685"
    },
    {
      "id": "pt.ine.add.PTCONT.2456494",
      "street": "R CHE GUEVARA",
      "house": "12",
      "postcode": "2720-099",
      "city": "AMADORA",
      "lon": "-9.225096215344742",
      "lat": "38.75016495896685"
    },
    {
      "id": "pt.ine.add.PTCONT.2456495",
      "street": "R CHE GUEVARA",
      "house": "12",
      "postcode": "2720-099",
      "city": "AMADORA",
      "lon": "-9.225096215344742",
      "lat": "38.75016495896685"
    },
    {
      "id": "pt.ine.add.PTCONT.2469615",
      "street": "LG 1 DE DEZEMBRO",
      "house": "2",
      "postcode": "2720-464",
      "city": "AMADORA",
      "lon": "-9.224211156909071",
      "lat": "38.75020925566129"
    },
    {
      "id": "pt.ine.add.PTCONT.2469616",
      "street": "LG 1 DE DEZEMBRO",
      "house": "2",
      "postcode": "2720-464",
      "city": "AMADORA",
      "lon": "-9.224211156909071",
      "lat": "38.75020925566129"
    },
    {
      "id": "pt.ine.add.PTCONT.2469617",
      "street": "R CHE GUEVARA",
      "house": "10",
      "postcode": "2720-099",
      "city": "AMADORA",
      "lon": "-9.224946148517184",
      "lat": "38.750130329789066"
    },
    {
      "id": "pt.ine.add.PTCONT.2469618",
      "street": "R CHE GUEVARA",
      "house": "10",
      "postcode": "2720-099",
      "city": "AMADORA",
      "lon": "-9.224946148517184",
      "lat": "38.750130329789066"
    },
    {
      "id": "pt.ine.add.PTCONT.2469619",
      "street": "R CHE GUEVARA",
      "house": "10",
      "postcode": "2720-099",
      "city": "AMADORA",
      "lon": "-9.224946148517184",
      "lat": "38.750130329789066"
    },
    {
      "id": "pt.ine.add.PTCONT.2474318",
      "street": "R CHE GUEVARA",
      "house": "10",
      "postcode": "2720-099",
      "city": "AMADORA",
      "lon": "-9.224946148517184",
      "lat": "38.750130329789066"
    },
    {
      "id": "pt.ine.add.PTCONT.2491204",
      "street": "R CHE GUEVARA",
      "house": "10",
      "postcode": "2720-099",
      "city": "AMADORA",
      "lon": "-9.224657379489775",
      "lat": "38.7500519569368"
    },
    {
      "id": "pt.ine.add.PTCONT.2491205",
      "street": "R CHE GUEVARA",
      "house": "10",
      "postcode": "2720-099",
      "city": "AMADORA",
      "lon": "-9.224657379489775",
      "lat": "38.7500519569368"
    },
    {
      "id": "pt.ine.add.PTCONT.2491206",
      "street": "R CHE GUEVARA",
      "house": "10",
      "postcode": "2720-099",
      "city": "AMADORA",
      "lon": "-9.224657379489775",
      "lat": "38.7500519569368"
    },
    {
      "id": "pt.ine.add.PTCONT.2491207",
      "street": "R CHE GUEVARA",
      "house": "6",
      "postcode": "2720-099",
      "city": "AMADORA",
      "lon": "-9.224657379489775",
      "lat": "38.7500519569368"
    },
    {
      "id": "pt.ine.add.PTCONT.2510937",
      "street": "R VASCO DA GAMA FERNANDES",
      "house": "8",
      "postcode": "2720-538",
      "city": "AMADORA",
      "lon": "-9.224409697613769",
      "lat": "38.75040557326071"
    },
    {
      "id": "pt.ine.add.PTCONT.2510938",
      "street": "R VASCO DA GAMA FERNANDES",
      "house": "8",
      "postcode": "2720-538",
      "city": "AMADORA",
      "lon": "-9.224409697613769",
      "lat": "38.75040557326071"
    },
    {
      "id": "pt.ine.add.PTCONT.2564806",
      "street": "LG 1 DE DEZEMBRO",
      "house": "4",
      "postcode": "2720-464",
      "city": "AMADORA",
      "lon": "-9.223874737974642",
      "lat": "38.750023232301174"
    },
    {
      "id": "pt.ine.add.PTCONT.2564807",
      "street": "LG 1 DE DEZEMBRO",
      "house": "4",
      "postcode": "2720-464",
      "city": "AMADORA",
      "lon": "-9.223874737974642",
      "lat": "38.750023232301174"
    },
    {
      "id": "pt.ine.add.PTCONT.2564808",
      "street": "LG 1 DE DEZEMBRO",
      "house": "4",
      "postcode": "2720-464",
      "city": "AMADORA",
      "lon": "-9.223874737974642",
      "lat": "38.750023232301174"
    },
    {
      "id": "pt.ine.add.PTCONT.2564809",
      "street": "LG 1 DE DEZEMBRO",
      "house": "4",
      "postcode": "2720-464",
      "city": "AMADORA",
      "lon": "-9.223874737974642",
      "lat": "38.750023232301174"
    },
    {
      "id": "pt.ine.add.PTCONT.2564810",
      "street": "LG 1 DE DEZEMBRO",
      "house": "4",
      "postcode": "2720-464",
      "city": "AMADORA",
      "lon": "-9.223874737974642",
      "lat": "38.750023232301174"
    },
    {
      "id": "pt.ine.add.PTCONT.2564811",
      "street": "LG 1 DE DEZEMBRO",
      "house": "4",
      "postcode": "2720-464",
      "city": "AMADORA",
      "lon": "-9.223874737974642",
      "lat": "38.750023232301174"
    },
    {
      "id": "pt.ine.add.PTCONT.2564812",
      "street": "LG 1 DE DEZEMBRO",
      "house": "4",
      "postcode": "2720-464",
      "city": "AMADORA",
      "lon": "-9.223874737974642",
      "lat": "38.750023232301174"
    },
    {
      "id": "pt.ine.add.PTCONT.2564813",
      "street": "LG 1 DE DEZEMBRO",
      "house": "4",
      "postcode": "2720-464",
      "city": "AMADORA",
      "lon": "-9.223874737974642",
      "lat": "38.750023232301174"
    },
    {
      "id": "pt.ine.add.PTCONT.2564814",
      "street": "LG 1 DE DEZEMBRO",
      "house": "4",
      "postcode": "2720-464",
      "city": "AMADORA",
      "lon": "-9.223874737974642",
      "lat": "38.750023232301174"
    },
    {
      "id": "pt.ine.add.PTCONT.2564815",
      "street": "LG 1 DE DEZEMBRO",
      "house": "4",
      "postcode": "2720-464",
      "city": "AMADORA",
      "lon": "-9.223874737974642",
      "lat": "38.750023232301174"
    },
    {
      "id": "pt.ine.add.PTCONT.2564816",
      "street": "LG 1 DE DEZEMBRO",
      "house": "4",
      "postcode": "2720-464",
      "city": "AMADORA",
      "lon": "-9.223874737974642",
      "lat": "38.750023232301174"
    },
    {
      "id": "pt.ine.add.PTCONT.2564817",
      "street": "LG 1 DE DEZEMBRO",
      "house": "4",
      "postcode": "2720-464",
      "city": "AMADORA",
      "lon": "-9.223874737974642",
      "lat": "38.750023232301174"
    },
    {
      "id": "pt.ine.add.PTCONT.2564818",
      "street": "LG 1 DE DEZEMBRO",
      "house": "4",
      "postcode": "2720-464",
      "city": "AMADORA",
      "lon": "-9.223874737974642",
      "lat": "38.750023232301174"
    },
    {
      "id": "pt.ine.add.PTCONT.2564819",
      "street": "LG 1 DE DEZEMBRO",
      "house": "4",
      "postcode": "2720-464",
      "city": "AMADORA",
      "lon": "-9.223874737974642",
      "lat": "38.750023232301174"
    },
    {
      "id": "pt.ine.add.PTCONT.2564820",
      "street": "LG 1 DE DEZEMBRO",
      "house": "4",
      "postcode": "2720-464",
      "city": "AMADORA",
      "lon": "-9.223874737974642",
      "lat": "38.750023232301174"
    },
    {
      "id": "pt.ine.add.PTCONT.2564877",
      "street": "LG 1 DE DEZEMBRO",
      "house": "4",
      "postcode": "2720-464",
      "city": "AMADORA",
      "lon": "-9.223874737974642",
      "lat": "38.750023232301174"
    },
    {
      "id": "pt.ine.add.PTCONT.2564878",
      "street": "LG 1 DE DEZEMBRO",
      "house": "4",
      "postcode": "2720-464",
      "city": "AMADORA",
      "lon": "-9.223874737974642",
      "lat": "38.750023232301174"
    },
    {
      "id": "pt.ine.add.PTCONT.2564879",
      "street": "LG 1 DE DEZEMBRO",
      "house": "4",
      "postcode": "2720-464",
      "city": "AMADORA",
      "lon": "-9.223874737974642",
      "lat": "38.750023232301174"
    },
    {
      "id": "pt.ine.add.PTCONT.2565249",
      "street": "R VASCO DA GAMA FERNANDES",
      "house": "10",
      "postcode": "2720-538",
      "city": "AMADORA",
      "lon": "-9.224282633434093",
      "lat": "38.75037072845657"
    },
    {
      "id": "pt.ine.add.PTCONT.2565533",
      "street": "LG 1 DE DEZEMBRO",
      "house": "4",
      "postcode": "2720-464",
      "city": "AMADORA",
      "lon": "-9.223874737974642",
      "lat": "38.750023232301174"
    },
    {
      "id": "pt.ine.add.PTCONT.2565534",
      "street": "LG 1 DE DEZEMBRO",
      "house": "4",
      "postcode": "2720-464",
      "city": "AMADORA",
      "lon": "-9.223874737974642",
      "lat": "38.750023232301174"
    },
    {
      "id": "pt.ine.add.PTCONT.2565535",
      "street": "LG 1 DE DEZEMBRO",
      "house": "4",
      "postcode": "2720-464",
      "city": "AMADORA",
      "lon": "-9.223874737974642",
      "lat": "38.750023232301174"
    },
    {
      "id": "pt.ine.add.PTCONT.2565536",
      "street": "LG 1 DE DEZEMBRO",
      "house": "4",
      "postcode": "2720-464",
      "city": "AMADORA",
      "lon": "-9.223874737974642",
      "lat": "38.750023232301174"
    },
    {
      "id": "pt.ine.add.PTCONT.2565537",
      "street": "LG 1 DE DEZEMBRO",
      "house": "4",
      "postcode": "2720-464",
      "city": "AMADORA",
      "lon": "-9.223874737974642",
      "lat": "38.750023232301174"
    },
    {
      "id": "pt.ine.add.PTCONT.2565538",
      "street": "LG 1 DE DEZEMBRO",
      "house": "4",
      "postcode": "2720-464",
      "city": "AMADORA",
      "lon": "-9.223874737974642",
      "lat": "38.750023232301174"
    },
    {
      "id": "pt.ine.add.PTCONT.2565539",
      "street": "LG 1 DE DEZEMBRO",
      "house": "4",
      "postcode": "2720-464",
      "city": "AMADORA",
      "lon": "-9.223874737974642",
      "lat": "38.750023232301174"
    },
    {
      "id": "pt.ine.add.PTCONT.2565540",
      "street": "LG 1 DE DEZEMBRO",
      "house": "4",
      "postcode": "2720-464",
      "city": "AMADORA",
      "lon": "-9.223874737974642",
      "lat": "38.750023232301174"
    },
    {
      "id": "pt.ine.add.PTCONT.2565541",
      "street": "LG 1 DE DEZEMBRO",
      "house": "4",
      "postcode": "2720-464",
      "city": "AMADORA",
      "lon": "-9.223874737974642",
      "lat": "38.750023232301174"
    },
    {
      "id": "pt.ine.add.PTCONT.2565542",
      "street": "LG 1 DE DEZEMBRO",
      "house": "4",
      "postcode": "2720-464",
      "city": "AMADORA",
      "lon": "-9.223874737974642",
      "lat": "38.750023232301174"
    },
    {
      "id": "pt.ine.add.PTCONT.2565543",
      "street": "LG 1 DE DEZEMBRO",
      "house": "4",
      "postcode": "2720-464",
      "city": "AMADORA",
      "lon": "-9.223874737974642",
      "lat": "38.750023232301174"
    },
    {
      "id": "pt.ine.add.PTCONT.2565544",
      "street": "LG 1 DE DEZEMBRO",
      "house": "4",
      "postcode": "2720-464",
      "city": "AMADORA",
      "lon": "-9.223874737974642",
      "lat": "38.750023232301174"
    },
    {
      "id": "pt.ine.add.PTCONT.2565545",
      "street": "LG 1 DE DEZEMBRO",
      "house": "4",
      "postcode": "2720-464",
      "city": "AMADORA",
      "lon": "-9.223874737974642",
      "lat": "38.750023232301174"
    },
    {
      "id": "pt.ine.add.PTCONT.2565546",
      "street": "LG 1 DE DEZEMBRO",
      "house": "4",
      "postcode": "2720-464",
      "city": "AMADORA",
      "lon": "-9.223874737974642",
      "lat": "38.750023232301174"
    },
    {
      "id": "pt.ine.add.PTCONT.2565547",
      "street": "LG 1 DE DEZEMBRO",
      "house": "4",
      "postcode": "2720-464",
      "city": "AMADORA",
      "lon": "-9.223874737974642",
      "lat": "38.750023232301174"
    },
    {
      "id": "pt.ine.add.PTCONT.2565628",
      "street": "LG 1 DE DEZEMBRO",
      "house": "4",
      "postcode": "2720-464",
      "city": "AMADORA",
      "lon": "-9.223874737974642",
      "lat": "38.750023232301174"
    },
    {
      "id": "pt.ine.add.PTCONT.2565674",
      "street": "R VASCO DA GAMA FERNANDES",
      "house": "10",
      "postcode": "2720-538",
      "city": "AMADORA",
      "lon": "-9.224282633434093",
      "lat": "38.75037072845657"
    },
    {
      "id": "pt.ine.add.PTCONT.2565902",
      "street": "LG 1 DE DEZEMBRO",
      "house": "4",
      "postcode": "2720-464",
      "city": "AMADORA",
      "lon": "-9.223874737974642",
      "lat": "38.750023232301174"
    },
    {
      "id": "pt.ine.add.PTCONT.2566141",
      "street": "LG 1 DE DEZEMBRO",
      "house": "4",
      "postcode": "2720-464",
      "city": "AMADORA",
      "lon": "-9.223874737974642",
      "lat": "38.750023232301174"
    },
    {
      "id": "pt.ine.add.PTCONT.2575422",
      "street": "LG 1 DE DEZEMBRO",
      "house": "6",
      "postcode": "2720-464",
      "city": "AMADORA",
      "lon": "-9.22338182317514",
      "lat": "38.750135924694376"
    },
    {
      "id": "pt.ine.add.PTCONT.2575423",
      "street": "LG 1 DE DEZEMBRO",
      "house": "6",
      "postcode": "2720-464",
      "city": "AMADORA",
      "lon": "-9.22338182317514",
      "lat": "38.750135924694376"
    },
    {
      "id": "pt.ine.add.PTCONT.2575424",
      "street": "LG 1 DE DEZEMBRO",
      "house": "6",
      "postcode": "2720-464",
      "city": "AMADORA",
      "lon": "-9.22338182317514",
      "lat": "38.750135924694376"
    },
    {
      "id": "pt.ine.add.PTCONT.2575425",
      "street": "LG 1 DE DEZEMBRO",
      "house": "6",
      "postcode": "2720-464",
      "city": "AMADORA",
      "lon": "-9.22338182317514",
      "lat": "38.750135924694376"
    },
    {
      "id": "pt.ine.add.PTCONT.2575426",
      "street": "LG 1 DE DEZEMBRO",
      "house": "6",
      "postcode": "2720-464",
      "city": "AMADORA",
      "lon": "-9.22338182317514",
      "lat": "38.750135924694376"
    },
    {
      "id": "pt.ine.add.PTCONT.2575427",
      "street": "LG 1 DE DEZEMBRO",
      "house": "6",
      "postcode": "2720-464",
      "city": "AMADORA",
      "lon": "-9.22338182317514",
      "lat": "38.750135924694376"
    },
    {
      "id": "pt.ine.add.PTCONT.2575428",
      "street": "LG 1 DE DEZEMBRO",
      "house": "6",
      "postcode": "2720-464",
      "city": "AMADORA",
      "lon": "-9.22338182317514",
      "lat": "38.750135924694376"
    },
    {
      "id": "pt.ine.add.PTCONT.2575429",
      "street": "LG 1 DE DEZEMBRO",
      "house": "6",
      "postcode": "2720-464",
      "city": "AMADORA",
      "lon": "-9.22338182317514",
      "lat": "38.750135924694376"
    },
    {
      "id": "pt.ine.add.PTCONT.2575430",
      "street": "LG 1 DE DEZEMBRO",
      "house": "6",
      "postcode": "2720-464",
      "city": "AMADORA",
      "lon": "-9.22338182317514",
      "lat": "38.750135924694376"
    },
    {
      "id": "pt.ine.add.PTCONT.2575431",
      "street": "LG 1 DE DEZEMBRO",
      "house": "6",
      "postcode": "2720-464",
      "city": "AMADORA",
      "lon": "-9.22338182317514",
      "lat": "38.750135924694376"
    },
    {
      "id": "pt.ine.add.PTCONT.2575432",
      "street": "LG 1 DE DEZEMBRO",
      "house": "6",
      "postcode": "2720-464",
      "city": "AMADORA",
      "lon": "-9.22338182317514",
      "lat": "38.750135924694376"
    },
    {
      "id": "pt.ine.add.PTCONT.2575433",
      "street": "LG 1 DE DEZEMBRO",
      "house": "6",
      "postcode": "2720-464",
      "city": "AMADORA",
      "lon": "-9.22338182317514",
      "lat": "38.750135924694376"
    },
    {
      "id": "pt.ine.add.PTCONT.2575434",
      "street": "LG 1 DE DEZEMBRO",
      "house": "6",
      "postcode": "2720-464",
      "city": "AMADORA",
      "lon": "-9.22338182317514",
      "lat": "38.750135924694376"
    },
    {
      "id": "pt.ine.add.PTCONT.2575435",
      "street": "LG 1 DE DEZEMBRO",
      "house": "6",
      "postcode": "2720-464",
      "city": "AMADORA",
      "lon": "-9.22338182317514",
      "lat": "38.750135924694376"
    },
    {
      "id": "pt.ine.add.PTCONT.2575436",
      "street": "LG 1 DE DEZEMBRO",
      "house": "6",
      "postcode": "2720-464",
      "city": "AMADORA",
      "lon": "-9.22338182317514",
      "lat": "38.750135924694376"
    },
    {
      "id": "pt.ine.add.PTCONT.2575437",
      "street": "LG 1 DE DEZEMBRO",
      "house": "6",
      "postcode": "2720-464",
      "city": "AMADORA",
      "lon": "-9.22338182317514",
      "lat": "38.750135924694376"
    },
    {
      "id": "pt.ine.add.PTCONT.2575438",
      "street": "LG 1 DE DEZEMBRO",
      "house": "6",
      "postcode": "2720-464",
      "city": "AMADORA",
      "lon": "-9.22338182317514",
      "lat": "38.750135924694376"
    },
    {
      "id": "pt.ine.add.PTCONT.2575439",
      "street": "LG 1 DE DEZEMBRO",
      "house": "6",
      "postcode": "2720-464",
      "city": "AMADORA",
      "lon": "-9.22338182317514",
      "lat": "38.750135924694376"
    },
    {
      "id": "pt.ine.add.PTCONT.2575440",
      "street": "LG 1 DE DEZEMBRO",
      "house": "6",
      "postcode": "2720-464",
      "city": "AMADORA",
      "lon": "-9.22338182317514",
      "lat": "38.750135924694376"
    },
    {
      "id": "pt.ine.add.PTCONT.2575441",
      "street": "LG 1 DE DEZEMBRO",
      "house": "6",
      "postcode": "2720-464",
      "city": "AMADORA",
      "lon": "-9.22338182317514",
      "lat": "38.750135924694376"
    },
    {
      "id": "pt.ine.add.PTCONT.2575442",
      "street": "LG 1 DE DEZEMBRO",
      "house": "6",
      "postcode": "2720-464",
      "city": "AMADORA",
      "lon": "-9.22338182317514",
      "lat": "38.750135924694376"
    },
    {
      "id": "pt.ine.add.PTCONT.2575449",
      "street": "LG 1 DE DEZEMBRO",
      "house": "6",
      "postcode": "2720-464",
      "city": "AMADORA",
      "lon": "-9.22338182317514",
      "lat": "38.750135924694376"
    },
    {
      "id": "pt.ine.add.PTCONT.2575450",
      "street": "LG 1 DE DEZEMBRO",
      "house": "6",
      "postcode": "2720-464",
      "city": "AMADORA",
      "lon": "-9.22338182317514",
      "lat": "38.750135924694376"
    },
    {
      "id": "pt.ine.add.PTCONT.2575451",
      "street": "LG 1 DE DEZEMBRO",
      "house": "6",
      "postcode": "2720-464",
      "city": "AMADORA",
      "lon": "-9.22338182317514",
      "lat": "38.750135924694376"
    },
    {
      "id": "pt.ine.add.PTCONT.2575452",
      "street": "LG 1 DE DEZEMBRO",
      "house": "6",
      "postcode": "2720-464",
      "city": "AMADORA",
      "lon": "-9.22338182317514",
      "lat": "38.750135924694376"
    },
    {
      "id": "pt.ine.add.PTCONT.2575453",
      "street": "LG 1 DE DEZEMBRO",
      "house": "6",
      "postcode": "2720-464",
      "city": "AMADORA",
      "lon": "-9.22338182317514",
      "lat": "38.750135924694376"
    },
    {
      "id": "pt.ine.add.PTCONT.2575454",
      "street": "LG 1 DE DEZEMBRO",
      "house": "6",
      "postcode": "2720-464",
      "city": "AMADORA",
      "lon": "-9.22338182317514",
      "lat": "38.750135924694376"
    },
    {
      "id": "pt.ine.add.PTCONT.2575455",
      "street": "LG 1 DE DEZEMBRO",
      "house": "6",
      "postcode": "2720-464",
      "city": "AMADORA",
      "lon": "-9.22338182317514",
      "lat": "38.750135924694376"
    },
    {
      "id": "pt.ine.add.PTCONT.2575463",
      "street": "LG 1 DE DEZEMBRO",
      "house": "6",
      "postcode": "2720-464",
      "city": "AMADORA",
      "lon": "-9.22338182317514",
      "lat": "38.750135924694376"
    },
    {
      "id": "pt.ine.add.PTCONT.2575464",
      "street": "LG 1 DE DEZEMBRO",
      "house": "6",
      "postcode": "2720-464",
      "city": "AMADORA",
      "lon": "-9.22338182317514",
      "lat": "38.750135924694376"
    },
    {
      "id": "pt.ine.add.PTCONT.2575465",
      "street": "LG 1 DE DEZEMBRO",
      "house": "6",
      "postcode": "2720-464",
      "city": "AMADORA",
      "lon": "-9.22338182317514",
      "lat": "38.750135924694376"
    },
    {
      "id": "pt.ine.add.PTCONT.2575466",
      "street": "LG 1 DE DEZEMBRO",
      "house": "6",
      "postcode": "2720-464",
      "city": "AMADORA",
      "lon": "-9.22338182317514",
      "lat": "38.750135924694376"
    },
    {
      "id": "pt.ine.add.PTCONT.2575467",
      "street": "LG 1 DE DEZEMBRO",
      "house": "6",
      "postcode": "2720-464",
      "city": "AMADORA",
      "lon": "-9.22338182317514",
      "lat": "38.750135924694376"
    },
    {
      "id": "pt.ine.add.PTCONT.2575468",
      "street": "LG 1 DE DEZEMBRO",
      "house": "6",
      "postcode": "2720-464",
      "city": "AMADORA",
      "lon": "-9.22338182317514",
      "lat": "38.750135924694376"
    },
    {
      "id": "pt.ine.add.PTCONT.2575469",
      "street": "LG 1 DE DEZEMBRO",
      "house": "6",
      "postcode": "2720-464",
      "city": "AMADORA",
      "lon": "-9.22338182317514",
      "lat": "38.750135924694376"
    },
    {
      "id": "pt.ine.add.PTCONT.2575470",
      "street": "LG 1 DE DEZEMBRO",
      "house": "6",
      "postcode": "2720-464",
      "city": "AMADORA",
      "lon": "-9.22338182317514",
      "lat": "38.750135924694376"
    },
    {
      "id": "pt.ine.add.PTCONT.2575471",
      "street": "LG 1 DE DEZEMBRO",
      "house": "6",
      "postcode": "2720-464",
      "city": "AMADORA",
      "lon": "-9.22338182317514",
      "lat": "38.750135924694376"
    },
    {
      "id": "pt.ine.add.PTCONT.2575472",
      "street": "LG 1 DE DEZEMBRO",
      "house": "6",
      "postcode": "2720-464",
      "city": "AMADORA",
      "lon": "-9.22338182317514",
      "lat": "38.750135924694376"
    },
    {
      "id": "pt.ine.add.PTCONT.2575473",
      "street": "LG 1 DE DEZEMBRO",
      "house": "6",
      "postcode": "2720-464",
      "city": "AMADORA",
      "lon": "-9.22338182317514",
      "lat": "38.750135924694376"
    },
    {
      "id": "pt.ine.add.PTCONT.2575474",
      "street": "LG 1 DE DEZEMBRO",
      "house": "6",
      "postcode": "2720-464",
      "city": "AMADORA",
      "lon": "-9.22338182317514",
      "lat": "38.750135924694376"
    },
    {
      "id": "pt.ine.add.PTCONT.2575475",
      "street": "LG 1 DE DEZEMBRO",
      "house": "6",
      "postcode": "2720-464",
      "city": "AMADORA",
      "lon": "-9.22338182317514",
      "lat": "38.750135924694376"
    },
    {
      "id": "pt.ine.add.PTCONT.2575478",
      "street": "LG 1 DE DEZEMBRO",
      "house": "6",
      "postcode": "2720-464",
      "city": "AMADORA",
      "lon": "-9.22338182317514",
      "lat": "38.750135924694376"
    },
    {
      "id": "pt.ine.add.PTCONT.2575481",
      "street": "LG 1 DE DEZEMBRO",
      "house": "6",
      "postcode": "2720-464",
      "city": "AMADORA",
      "lon": "-9.22338182317514",
      "lat": "38.750135924694376"
    },
    {
      "id": "pt.ine.add.PTCONT.2575487",
      "street": "LG 1 DE DEZEMBRO",
      "house": "6",
      "postcode": "2720-464",
      "city": "AMADORA",
      "lon": "-9.22338182317514",
      "lat": "38.750135924694376"
    },
    {
      "id": "pt.ine.add.PTCONT.2575489",
      "street": "LG 1 DE DEZEMBRO",
      "house": "6",
      "postcode": "2720-464",
      "city": "AMADORA",
      "lon": "-9.22338182317514",
      "lat": "38.750135924694376"
    },
    {
      "id": "pt.ine.add.PTCONT.2575494",
      "street": "LG 1 DE DEZEMBRO",
      "house": "6",
      "postcode": "2720-464",
      "city": "AMADORA",
      "lon": "-9.22338182317514",
      "lat": "38.750135924694376"
    },
    {
      "id": "pt.ine.add.PTCONT.2576922",
      "street": "LG 1 DE DEZEMBRO",
      "house": "6",
      "postcode": "2720-464",
      "city": "AMADORA",
      "lon": "-9.22338182317514",
      "lat": "38.750135924694376"
    },
    {
      "id": "pt.ine.add.PTCONT.2663766",
      "street": "R VASCO DA GAMA FERNANDES",
      "house": "6",
      "postcode": "2720-538",
      "city": "AMADORA",
      "lon": "-9.224559627622888",
      "lat": "38.750431196620816"
    },
    {
      "id": "pt.ine.add.PTCONT.2664018",
      "street": "R VASCO DA GAMA FERNANDES",
      "house": "6",
      "postcode": "2720-538",
      "city": "AMADORA",
      "lon": "-9.224559627622888",
      "lat": "38.750431196620816"
    },
    {
      "id": "pt.ine.add.PTCONT.2735987",
      "street": "AV ANTÓNIO SÉRGIO",
      "house": "7",
      "postcode": "2720-046",
      "city": "AMADORA",
      "lon": "-9.225588471508875",
      "lat": "38.750763880165756"
    },
    {
      "id": "pt.ine.add.PTCONT.2735988",
      "street": "AV ANTÓNIO SÉRGIO",
      "house": "7",
      "postcode": "2720-046",
      "city": "AMADORA",
      "lon": "-9.225588471508875",
      "lat": "38.750763880165756"
    },
    {
      "id": "pt.ine.add.PTCONT.2735989",
      "street": "AV ANTÓNIO SÉRGIO",
      "house": "7",
      "postcode": "2720-046",
      "city": "AMADORA",
      "lon": "-9.225588471508875",
      "lat": "38.750763880165756"
    },
    {
      "id": "pt.ine.add.PTCONT.2735990",
      "street": "AV ANTÓNIO SÉRGIO",
      "house": "7",
      "postcode": "2720-046",
      "city": "AMADORA",
      "lon": "-9.225588471508875",
      "lat": "38.750763880165756"
    },
    {
      "id": "pt.ine.add.PTCONT.2735991",
      "street": "AV ANTÓNIO SÉRGIO",
      "house": "7",
      "postcode": "2720-046",
      "city": "AMADORA",
      "lon": "-9.225588471508875",
      "lat": "38.750763880165756"
    },
    {
      "id": "pt.ine.add.PTCONT.2735992",
      "street": "AV ANTÓNIO SÉRGIO",
      "house": "7",
      "postcode": "2720-046",
      "city": "AMADORA",
      "lon": "-9.225588471508875",
      "lat": "38.750763880165756"
    },
    {
      "id": "pt.ine.add.PTCONT.2735993",
      "street": "AV ANTÓNIO SÉRGIO",
      "house": "7",
      "postcode": "2720-046",
      "city": "AMADORA",
      "lon": "-9.225588471508875",
      "lat": "38.750763880165756"
    },
    {
      "id": "pt.ine.add.PTCONT.2735994",
      "street": "AV ANTÓNIO SÉRGIO",
      "house": "7",
      "postcode": "2720-046",
      "city": "AMADORA",
      "lon": "-9.225588471508875",
      "lat": "38.750763880165756"
    },
    {
      "id": "pt.ine.add.PTCONT.2735995",
      "street": "AV ANTÓNIO SÉRGIO",
      "house": "7",
      "postcode": "2720-046",
      "city": "AMADORA",
      "lon": "-9.225588471508875",
      "lat": "38.750763880165756"
    },
    {
      "id": "pt.ine.add.PTCONT.2735996",
      "street": "AV ANTÓNIO SÉRGIO",
      "house": "7",
      "postcode": "2720-046",
      "city": "AMADORA",
      "lon": "-9.225588471508875",
      "lat": "38.750763880165756"
    },
    {
      "id": "pt.ine.add.PTCONT.2735997",
      "street": "AV ANTÓNIO SÉRGIO",
      "house": "7",
      "postcode": "2720-046",
      "city": "AMADORA",
      "lon": "-9.225588471508875",
      "lat": "38.750763880165756"
    },
    {
      "id": "pt.ine.add.PTCONT.2735998",
      "street": "AV ANTÓNIO SÉRGIO",
      "house": "7",
      "postcode": "2720-046",
      "city": "AMADORA",
      "lon": "-9.225588471508875",
      "lat": "38.750763880165756"
    },
    {
      "id": "pt.ine.add.PTCONT.2735999",
      "street": "AV ANTÓNIO SÉRGIO",
      "house": "7",
      "postcode": "2720-046",
      "city": "AMADORA",
      "lon": "-9.225588471508875",
      "lat": "38.750763880165756"
    },
    {
      "id": "pt.ine.add.PTCONT.2736000",
      "street": "AV ANTÓNIO SÉRGIO",
      "house": "7",
      "postcode": "2720-046",
      "city": "AMADORA",
      "lon": "-9.225588471508875",
      "lat": "38.750763880165756"
    },
    {
      "id": "pt.ine.add.PTCONT.2736001",
      "street": "AV ANTÓNIO SÉRGIO",
      "house": "7",
      "postcode": "2720-046",
      "city": "AMADORA",
      "lon": "-9.225588471508875",
      "lat": "38.750763880165756"
    },
    {
      "id": "pt.ine.add.PTCONT.2736002",
      "street": "AV ANTÓNIO SÉRGIO",
      "house": "7",
      "postcode": "2720-046",
      "city": "AMADORA",
      "lon": "-9.225588471508875",
      "lat": "38.750763880165756"
    },
    {
      "id": "pt.ine.add.PTCONT.2736003",
      "street": "AV ANTÓNIO SÉRGIO",
      "house": "7",
      "postcode": "2720-046",
      "city": "AMADORA",
      "lon": "-9.225588471508875",
      "lat": "38.750763880165756"
    },
    {
      "id": "pt.ine.add.PTCONT.2736004",
      "street": "AV ANTÓNIO SÉRGIO",
      "house": "7",
      "postcode": "2720-046",
      "city": "AMADORA",
      "lon": "-9.225588471508875",
      "lat": "38.750763880165756"
    },
    {
      "id": "pt.ine.add.PTCONT.2736005",
      "street": "AV ANTÓNIO SÉRGIO",
      "house": "7",
      "postcode": "2720-046",
      "city": "AMADORA",
      "lon": "-9.225588471508875",
      "lat": "38.750763880165756"
    },
    {
      "id": "pt.ine.add.PTCONT.2736006",
      "street": "AV ANTÓNIO SÉRGIO",
      "house": "7",
      "postcode": "2720-046",
      "city": "AMADORA",
      "lon": "-9.225588471508875",
      "lat": "38.750763880165756"
    },
    {
      "id": "pt.ine.add.PTCONT.2736007",
      "street": "AV ANTÓNIO SÉRGIO",
      "house": "7",
      "postcode": "2720-046",
      "city": "AMADORA",
      "lon": "-9.225588471508875",
      "lat": "38.750763880165756"
    },
    {
      "id": "pt.ine.add.PTCONT.2736008",
      "street": "AV ANTÓNIO SÉRGIO",
      "house": "7",
      "postcode": "2720-046",
      "city": "AMADORA",
      "lon": "-9.225588471508875",
      "lat": "38.750763880165756"
    },
    {
      "id": "pt.ine.add.PTCONT.2736009",
      "street": "AV ANTÓNIO SÉRGIO",
      "house": "7",
      "postcode": "2720-046",
      "city": "AMADORA",
      "lon": "-9.225588471508875",
      "lat": "38.750763880165756"
    },
    {
      "id": "pt.ine.add.PTCONT.2736010",
      "street": "AV ANTÓNIO SÉRGIO",
      "house": "7",
      "postcode": "2720-046",
      "city": "AMADORA",
      "lon": "-9.225588471508875",
      "lat": "38.750763880165756"
    },
    {
      "id": "pt.ine.add.PTCONT.2736011",
      "street": "AV ANTÓNIO SÉRGIO",
      "house": "7",
      "postcode": "2720-046",
      "city": "AMADORA",
      "lon": "-9.225588471508875",
      "lat": "38.750763880165756"
    },
    {
      "id": "pt.ine.add.PTCONT.2736012",
      "street": "AV ANTÓNIO SÉRGIO",
      "house": "7",
      "postcode": "2720-046",
      "city": "AMADORA",
      "lon": "-9.225588471508875",
      "lat": "38.750763880165756"
    },
    {
      "id": "pt.ine.add.PTCONT.2736013",
      "street": "AV ANTÓNIO SÉRGIO",
      "house": "7",
      "postcode": "2720-046",
      "city": "AMADORA",
      "lon": "-9.225588471508875",
      "lat": "38.750763880165756"
    },
    {
      "id": "pt.ine.add.PTCONT.2736014",
      "street": "AV ANTÓNIO SÉRGIO",
      "house": "7",
      "postcode": "2720-046",
      "city": "AMADORA",
      "lon": "-9.225588471508875",
      "lat": "38.750763880165756"
    },
    {
      "id": "pt.ine.add.PTCONT.2736015",
      "street": "AV ANTÓNIO SÉRGIO",
      "house": "7",
      "postcode": "2720-046",
      "city": "AMADORA",
      "lon": "-9.225588471508875",
      "lat": "38.750763880165756"
    },
    {
      "id": "pt.ine.add.PTCONT.2736016",
      "street": "AV ANTÓNIO SÉRGIO",
      "house": "7",
      "postcode": "2720-046",
      "city": "AMADORA",
      "lon": "-9.225588471508875",
      "lat": "38.750763880165756"
    },
    {
      "id": "pt.ine.add.PTCONT.2736017",
      "street": "AV ANTÓNIO SÉRGIO",
      "house": "7",
      "postcode": "2720-046",
      "city": "AMADORA",
      "lon": "-9.225588471508875",
      "lat": "38.750763880165756"
    },
    {
      "id": "pt.ine.add.PTCONT.2736018",
      "street": "AV ANTÓNIO SÉRGIO",
      "house": "7",
      "postcode": "2720-046",
      "city": "AMADORA",
      "lon": "-9.225588471508875",
      "lat": "38.750763880165756"
    },
    {
      "id": "pt.ine.add.PTCONT.2736019",
      "street": "AV ANTÓNIO SÉRGIO",
      "house": "7",
      "postcode": "2720-046",
      "city": "AMADORA",
      "lon": "-9.225588471508875",
      "lat": "38.750763880165756"
    },
    {
      "id": "pt.ine.add.PTCONT.2736020",
      "street": "AV ANTÓNIO SÉRGIO",
      "house": "7",
      "postcode": "2720-046",
      "city": "AMADORA",
      "lon": "-9.225588471508875",
      "lat": "38.750763880165756"
    },
    {
      "id": "pt.ine.add.PTCONT.2736021",
      "street": "AV ANTÓNIO SÉRGIO",
      "house": "7",
      "postcode": "2720-046",
      "city": "AMADORA",
      "lon": "-9.225588471508875",
      "lat": "38.750763880165756"
    },
    {
      "id": "pt.ine.add.PTCONT.2736022",
      "street": "AV ANTÓNIO SÉRGIO",
      "house": "7",
      "postcode": "2720-046",
      "city": "AMADORA",
      "lon": "-9.225588471508875",
      "lat": "38.750763880165756"
    },
    {
      "id": "pt.ine.add.PTCONT.2736023",
      "street": "AV ANTÓNIO SÉRGIO",
      "house": "7",
      "postcode": "2720-046",
      "city": "AMADORA",
      "lon": "-9.225588471508875",
      "lat": "38.750763880165756"
    },
    {
      "id": "pt.ine.add.PTCONT.2736024",
      "street": "AV ANTÓNIO SÉRGIO",
      "house": "7",
      "postcode": "2720-046",
      "city": "AMADORA",
      "lon": "-9.225588471508875",
      "lat": "38.750763880165756"
    },
    {
      "id": "pt.ine.add.PTCONT.2736025",
      "street": "AV ANTÓNIO SÉRGIO",
      "house": "7",
      "postcode": "2720-046",
      "city": "AMADORA",
      "lon": "-9.225588471508875",
      "lat": "38.750763880165756"
    },
    {
      "id": "pt.ine.add.PTCONT.2736026",
      "street": "AV ANTÓNIO SÉRGIO",
      "house": "7",
      "postcode": "2720-046",
      "city": "AMADORA",
      "lon": "-9.225588471508875",
      "lat": "38.750763880165756"
    },
    {
      "id": "pt.ine.add.PTCONT.2736027",
      "street": "AV ANTÓNIO SÉRGIO",
      "house": "7",
      "postcode": "2720-046",
      "city": "AMADORA",
      "lon": "-9.225588471508875",
      "lat": "38.750763880165756"
    },
    {
      "id": "pt.ine.add.PTCONT.2736028",
      "street": "AV ANTÓNIO SÉRGIO",
      "house": "7",
      "postcode": "2720-046",
      "city": "AMADORA",
      "lon": "-9.225588471508875",
      "lat": "38.750763880165756"
    },
    {
      "id": "pt.ine.add.PTCONT.2736029",
      "street": "AV ANTÓNIO SÉRGIO",
      "house": "7",
      "postcode": "2720-046",
      "city": "AMADORA",
      "lon": "-9.225588471508875",
      "lat": "38.750763880165756"
    },
    {
      "id": "pt.ine.add.PTCONT.2736030",
      "street": "AV ANTÓNIO SÉRGIO",
      "house": "7",
      "postcode": "2720-046",
      "city": "AMADORA",
      "lon": "-9.225588471508875",
      "lat": "38.750763880165756"
    },
    {
      "id": "pt.ine.add.PTCONT.2736031",
      "street": "AV ANTÓNIO SÉRGIO",
      "house": "7",
      "postcode": "2720-046",
      "city": "AMADORA",
      "lon": "-9.225588471508875",
      "lat": "38.750763880165756"
    },
    {
      "id": "pt.ine.add.PTCONT.2736032",
      "street": "AV ANTÓNIO SÉRGIO",
      "house": "7",
      "postcode": "2720-046",
      "city": "AMADORA",
      "lon": "-9.225588471508875",
      "lat": "38.750763880165756"
    },
    {
      "id": "pt.ine.add.PTCONT.2736033",
      "street": "AV ANTÓNIO SÉRGIO",
      "house": "7",
      "postcode": "2720-046",
      "city": "AMADORA",
      "lon": "-9.225588471508875",
      "lat": "38.750763880165756"
    },
    {
      "id": "pt.ine.add.PTCONT.2736034",
      "street": "AV ANTÓNIO SÉRGIO",
      "house": "7",
      "postcode": "2720-046",
      "city": "AMADORA",
      "lon": "-9.225588471508875",
      "lat": "38.750763880165756"
    },
    {
      "id": "pt.ine.add.PTCONT.2736038",
      "street": "AV ANTÓNIO SÉRGIO",
      "house": "7",
      "postcode": "2720-046",
      "city": "AMADORA",
      "lon": "-9.225588471508875",
      "lat": "38.750763880165756"
    },
    {
      "id": "pt.ine.add.PTCONT.2736039",
      "street": "AV ANTÓNIO SÉRGIO",
      "house": "7",
      "postcode": "2720-046",
      "city": "AMADORA",
      "lon": "-9.225588471508875",
      "lat": "38.750763880165756"
    },
    {
      "id": "pt.ine.add.PTCONT.2736040",
      "street": "AV ANTÓNIO SÉRGIO",
      "house": "7",
      "postcode": "2720-046",
      "city": "AMADORA",
      "lon": "-9.225588471508875",
      "lat": "38.750763880165756"
    },
    {
      "id": "pt.ine.add.PTCONT.2736041",
      "street": "AV ANTÓNIO SÉRGIO",
      "house": "7",
      "postcode": "2720-046",
      "city": "AMADORA",
      "lon": "-9.225588471508875",
      "lat": "38.750763880165756"
    },
    {
      "id": "pt.ine.add.PTCONT.2736042",
      "street": "AV ANTÓNIO SÉRGIO",
      "house": "7",
      "postcode": "2720-046",
      "city": "AMADORA",
      "lon": "-9.225588471508875",
      "lat": "38.750763880165756"
    },
    {
      "id": "pt.ine.add.PTCONT.2736119",
      "street": "AV ANTÓNIO SÉRGIO",
      "house": "7",
      "postcode": "2720-046",
      "city": "AMADORA",
      "lon": "-9.225588471508875",
      "lat": "38.750763880165756"
    },
    {
      "id": "pt.ine.add.PTCONT.2736124",
      "street": "AV ANTÓNIO SÉRGIO",
      "house": "7",
      "postcode": "2720-046",
      "city": "AMADORA",
      "lon": "-9.225588471508875",
      "lat": "38.750763880165756"
    },
    {
      "id": "pt.ine.add.PTCONT.2736129",
      "street": "AV ANTÓNIO SÉRGIO",
      "house": "7",
      "postcode": "2720-046",
      "city": "AMADORA",
      "lon": "-9.225588471508875",
      "lat": "38.750763880165756"
    },
    {
      "id": "pt.ine.add.PTCONT.2737012",
      "street": "AV ANTÓNIO SÉRGIO",
      "house": "7",
      "postcode": "2720-046",
      "city": "AMADORA",
      "lon": "-9.225588471508875",
      "lat": "38.750763880165756"
    },
    {
      "id": "pt.ine.add.PTCONT.2760040",
      "street": "R CHE GUEVARA",
      "house": "8",
      "postcode": "2720-099",
      "city": "AMADORA",
      "lon": "-9.22433410700562",
      "lat": "38.74997390550487"
    },
    {
      "id": "pt.ine.add.PTCONT.2760041",
      "street": "R CHE GUEVARA",
      "house": "2",
      "postcode": "2720-099",
      "city": "AMADORA",
      "lon": "-9.22433410700562",
      "lat": "38.74997390550487"
    },
    {
      "id": "pt.ine.add.PTCONT.2760042",
      "street": "R CHE GUEVARA",
      "house": "2",
      "postcode": "2720-099",
      "city": "AMADORA",
      "lon": "-9.22433410700562",
      "lat": "38.74997390550487"
    },
    {
      "id": "pt.ine.add.PTCONT.2762257",
      "street": "R CHE GUEVARA",
      "house": "2",
      "postcode": "2720-099",
      "city": "AMADORA",
      "lon": "-9.22433410700562",
      "lat": "38.74997390550487"
    },
    {
      "id": "pt.ine.add.PTCONT.2877848",
      "street": "AV ANTÓNIO SÉRGIO",
      "house": "3",
      "postcode": "2720-045",
      "city": "AMADORA",
      "lon": "-9.22623488952957",
      "lat": "38.75091096852574"
    },
    {
      "id": "pt.ine.add.PTCONT.2877849",
      "street": "AV ANTÓNIO SÉRGIO",
      "house": "3",
      "postcode": "2720-045",
      "city": "AMADORA",
      "lon": "-9.22623488952957",
      "lat": "38.75091096852574"
    },
    {
      "id": "pt.ine.add.PTCONT.2877850",
      "street": "AV ANTÓNIO SÉRGIO",
      "house": "3",
      "postcode": "2720-045",
      "city": "AMADORA",
      "lon": "-9.22623488952957",
      "lat": "38.75091096852574"
    },
    {
      "id": "pt.ine.add.PTCONT.2877851",
      "street": "AV ANTÓNIO SÉRGIO",
      "house": "3",
      "postcode": "2720-045",
      "city": "AMADORA",
      "lon": "-9.22623488952957",
      "lat": "38.75091096852574"
    },
    {
      "id": "pt.ine.add.PTCONT.2877852",
      "street": "AV ANTÓNIO SÉRGIO",
      "house": "3",
      "postcode": "2720-045",
      "city": "AMADORA",
      "lon": "-9.22623488952957",
      "lat": "38.75091096852574"
    },
    {
      "id": "pt.ine.add.PTCONT.2877853",
      "street": "AV ANTÓNIO SÉRGIO",
      "house": "3",
      "postcode": "2720-045",
      "city": "AMADORA",
      "lon": "-9.22623488952957",
      "lat": "38.75091096852574"
    },
    {
      "id": "pt.ine.add.PTCONT.2877854",
      "street": "AV ANTÓNIO SÉRGIO",
      "house": "3",
      "postcode": "2720-045",
      "city": "AMADORA",
      "lon": "-9.22623488952957",
      "lat": "38.75091096852574"
    },
    {
      "id": "pt.ine.add.PTCONT.2877855",
      "street": "AV ANTÓNIO SÉRGIO",
      "house": "3",
      "postcode": "2720-045",
      "city": "AMADORA",
      "lon": "-9.22623488952957",
      "lat": "38.75091096852574"
    },
    {
      "id": "pt.ine.add.PTCONT.2877856",
      "street": "AV ANTÓNIO SÉRGIO",
      "house": "3",
      "postcode": "2720-045",
      "city": "AMADORA",
      "lon": "-9.22623488952957",
      "lat": "38.75091096852574"
    },
    {
      "id": "pt.ine.add.PTCONT.2877857",
      "street": "AV ANTÓNIO SÉRGIO",
      "house": "3",
      "postcode": "2720-045",
      "city": "AMADORA",
      "lon": "-9.22623488952957",
      "lat": "38.75091096852574"
    },
    {
      "id": "pt.ine.add.PTCONT.2877858",
      "street": "AV ANTÓNIO SÉRGIO",
      "house": "3",
      "postcode": "2720-045",
      "city": "AMADORA",
      "lon": "-9.22623488952957",
      "lat": "38.75091096852574"
    },
    {
      "id": "pt.ine.add.PTCONT.2877859",
      "street": "AV ANTÓNIO SÉRGIO",
      "house": "3",
      "postcode": "2720-045",
      "city": "AMADORA",
      "lon": "-9.22623488952957",
      "lat": "38.75091096852574"
    },
    {
      "id": "pt.ine.add.PTCONT.2877860",
      "street": "AV ANTÓNIO SÉRGIO",
      "house": "3",
      "postcode": "2720-045",
      "city": "AMADORA",
      "lon": "-9.22623488952957",
      "lat": "38.75091096852574"
    },
    {
      "id": "pt.ine.add.PTCONT.2877861",
      "street": "AV ANTÓNIO SÉRGIO",
      "house": "3",
      "postcode": "2720-045",
      "city": "AMADORA",
      "lon": "-9.22623488952957",
      "lat": "38.75091096852574"
    },
    {
      "id": "pt.ine.add.PTCONT.2877862",
      "street": "AV ANTÓNIO SÉRGIO",
      "house": "3",
      "postcode": "2720-045",
      "city": "AMADORA",
      "lon": "-9.22623488952957",
      "lat": "38.75091096852574"
    },
    {
      "id": "pt.ine.add.PTCONT.2877927",
      "street": "AV ANTÓNIO SÉRGIO",
      "house": "3",
      "postcode": "2720-045",
      "city": "AMADORA",
      "lon": "-9.22623488952957",
      "lat": "38.75091096852574"
    },
    {
      "id": "pt.ine.add.PTCONT.2877928",
      "street": "AV ANTÓNIO SÉRGIO",
      "house": "3",
      "postcode": "2720-045",
      "city": "AMADORA",
      "lon": "-9.22623488952957",
      "lat": "38.75091096852574"
    },
    {
      "id": "pt.ine.add.PTCONT.2877929",
      "street": "AV ANTÓNIO SÉRGIO",
      "house": "3",
      "postcode": "2720-045",
      "city": "AMADORA",
      "lon": "-9.22623488952957",
      "lat": "38.75091096852574"
    },
    {
      "id": "pt.ine.add.PTCONT.2877930",
      "street": "AV ANTÓNIO SÉRGIO",
      "house": "3",
      "postcode": "2720-045",
      "city": "AMADORA",
      "lon": "-9.22623488952957",
      "lat": "38.75091096852574"
    },
    {
      "id": "pt.ine.add.PTCONT.2877931",
      "street": "AV ANTÓNIO SÉRGIO",
      "house": "3",
      "postcode": "2720-045",
      "city": "AMADORA",
      "lon": "-9.22623488952957",
      "lat": "38.75091096852574"
    },
    {
      "id": "pt.ine.add.PTCONT.2877932",
      "street": "AV ANTÓNIO SÉRGIO",
      "house": "3",
      "postcode": "2720-045",
      "city": "AMADORA",
      "lon": "-9.22623488952957",
      "lat": "38.75091096852574"
    },
    {
      "id": "pt.ine.add.PTCONT.2877933",
      "street": "AV ANTÓNIO SÉRGIO",
      "house": "3",
      "postcode": "2720-045",
      "city": "AMADORA",
      "lon": "-9.22623488952957",
      "lat": "38.75091096852574"
    },
    {
      "id": "pt.ine.add.PTCONT.2877934",
      "street": "AV ANTÓNIO SÉRGIO",
      "house": "3",
      "postcode": "2720-045",
      "city": "AMADORA",
      "lon": "-9.22623488952957",
      "lat": "38.75091096852574"
    },
    {
      "id": "pt.ine.add.PTCONT.2877935",
      "street": "AV ANTÓNIO SÉRGIO",
      "house": "3",
      "postcode": "2720-045",
      "city": "AMADORA",
      "lon": "-9.22623488952957",
      "lat": "38.75091096852574"
    },
    {
      "id": "pt.ine.add.PTCONT.2877936",
      "street": "AV ANTÓNIO SÉRGIO",
      "house": "3",
      "postcode": "2720-045",
      "city": "AMADORA",
      "lon": "-9.22623488952957",
      "lat": "38.75091096852574"
    },
    {
      "id": "pt.ine.add.PTCONT.2877937",
      "street": "AV ANTÓNIO SÉRGIO",
      "house": "3",
      "postcode": "2720-045",
      "city": "AMADORA",
      "lon": "-9.22623488952957",
      "lat": "38.75091096852574"
    },
    {
      "id": "pt.ine.add.PTCONT.2878454",
      "street": "AV ANTÓNIO SÉRGIO",
      "house": "3",
      "postcode": "2720-045",
      "city": "AMADORA",
      "lon": "-9.22623488952957",
      "lat": "38.75091096852574"
    },
    {
      "id": "pt.ine.add.PTCONT.2880595",
      "street": "AV ANTÓNIO SÉRGIO",
      "house": "3",
      "postcode": "2720-045",
      "city": "AMADORA",
      "lon": "-9.22623488952957",
      "lat": "38.75091096852574"
    },
    {
      "id": "pt.ine.add.PTCONT.2996219",
      "street": "R CHE GUEVARA",
      "house": "4",
      "postcode": "2720-099",
      "city": "AMADORA",
      "lon": "-9.224507313098815",
      "lat": "38.750017327188345"
    },
    {
      "id": "pt.ine.add.PTCONT.2996220",
      "street": "R CHE GUEVARA",
      "house": "4",
      "postcode": "2720-099",
      "city": "AMADORA",
      "lon": "-9.224507313098815",
      "lat": "38.750017327188345"
    },
    {
      "id": "pt.ine.add.PTCONT.2996916",
      "street": "R CHE GUEVARA",
      "house": "4",
      "postcode": "2720-099",
      "city": "AMADORA",
      "lon": "-9.224507313098815",
      "lat": "38.750017327188345"
    },
    {
      "id": "pt.ine.add.PTCONT.2999374",
      "street": "R CHE GUEVARA",
      "house": "4",
      "postcode": "2720-099",
      "city": "AMADORA",
      "lon": "-9.224507313098815",
      "lat": "38.750017327188345"
    },
    {
      "id": "pt.ine.add.PTCONT.3041851",
      "street": "LG 1 DE DEZEMBRO",
      "house": "1",
      "postcode": "2720-464",
      "city": "AMADORA",
      "lon": "-9.224243878613638",
      "lat": "38.75009184903012"
    },
    {
      "id": "pt.ine.add.PTCONT.3041852",
      "street": "LG 1 DE DEZEMBRO",
      "house": "1",
      "postcode": "2720-464",
      "city": "AMADORA",
      "lon": "-9.224243878613638",
      "lat": "38.75009184903012"
    },
    {
      "id": "pt.ine.add.PTCONT.3062934",
      "street": "R VASCO GAMA FERNANDES",
      "house": "4",
      "postcode": "2720-538",
      "city": "AMADORA",
      "lon": "-9.224752957065066",
      "lat": "38.7502852666107"
    },
    {
      "id": "pt.ine.add.PTCONT.3062935",
      "street": "R VASCO GAMA FERNANDES",
      "house": "4",
      "postcode": "2720-538",
      "city": "AMADORA",
      "lon": "-9.224752957065066",
      "lat": "38.7502852666107"
    },
    {
      "id": "pt.ine.add.PTCONT.3062936",
      "street": "R VASCO GAMA FERNANDES",
      "house": "4",
      "postcode": "2720-538",
      "city": "AMADORA",
      "lon": "-9.224752957065066",
      "lat": "38.7502852666107"
    },
    {
      "id": "pt.ine.add.PTCONT.3062937",
      "street": "R VASCO GAMA FERNANDES",
      "house": "4",
      "postcode": "2720-538",
      "city": "AMADORA",
      "lon": "-9.224752957065066",
      "lat": "38.7502852666107"
    },
    {
      "id": "pt.ine.add.PTCONT.3062938",
      "street": "R VASCO GAMA FERNANDES",
      "house": "4",
      "postcode": "2720-538",
      "city": "AMADORA",
      "lon": "-9.224752957065066",
      "lat": "38.7502852666107"
    },
    {
      "id": "pt.ine.add.PTCONT.3062939",
      "street": "R VASCO GAMA FERNANDES",
      "house": "4",
      "postcode": "2720-538",
      "city": "AMADORA",
      "lon": "-9.224752957065066",
      "lat": "38.7502852666107"
    },
    {
      "id": "pt.ine.add.PTCONT.3062940",
      "street": "R VASCO GAMA FERNANDES",
      "house": "4",
      "postcode": "2720-538",
      "city": "AMADORA",
      "lon": "-9.224752957065066",
      "lat": "38.7502852666107"
    },
    {
      "id": "pt.ine.add.PTCONT.3062941",
      "street": "R VASCO GAMA FERNANDES",
      "house": "4",
      "postcode": "2720-538",
      "city": "AMADORA",
      "lon": "-9.224752957065066",
      "lat": "38.7502852666107"
    },
    {
      "id": "pt.ine.add.PTCONT.3062942",
      "street": "R VASCO GAMA FERNANDES",
      "house": "4",
      "postcode": "2720-538",
      "city": "AMADORA",
      "lon": "-9.224752957065066",
      "lat": "38.7502852666107"
    },
    {
      "id": "pt.ine.add.PTCONT.3062943",
      "street": "R VASCO GAMA FERNANDES",
      "house": "4",
      "postcode": "2720-538",
      "city": "AMADORA",
      "lon": "-9.224752957065066",
      "lat": "38.7502852666107"
    },
    {
      "id": "pt.ine.add.PTCONT.3062944",
      "street": "R VASCO GAMA FERNANDES",
      "house": "4",
      "postcode": "2720-538",
      "city": "AMADORA",
      "lon": "-9.224752957065066",
      "lat": "38.7502852666107"
    },
    {
      "id": "pt.ine.add.PTCONT.3062945",
      "street": "R VASCO GAMA FERNANDES",
      "house": "4",
      "postcode": "2720-538",
      "city": "AMADORA",
      "lon": "-9.224752957065066",
      "lat": "38.7502852666107"
    },
    {
      "id": "pt.ine.add.PTCONT.3062946",
      "street": "R VASCO GAMA FERNANDES",
      "house": "4",
      "postcode": "2720-538",
      "city": "AMADORA",
      "lon": "-9.224752957065066",
      "lat": "38.7502852666107"
    },
    {
      "id": "pt.ine.add.PTCONT.3062947",
      "street": "R VASCO GAMA FERNANDES",
      "house": "4",
      "postcode": "2720-538",
      "city": "AMADORA",
      "lon": "-9.224752957065066",
      "lat": "38.7502852666107"
    },
    {
      "id": "pt.ine.add.PTCONT.3062948",
      "street": "R VASCO GAMA FERNANDES",
      "house": "4",
      "postcode": "2720-538",
      "city": "AMADORA",
      "lon": "-9.224752957065066",
      "lat": "38.7502852666107"
    },
    {
      "id": "pt.ine.add.PTCONT.3062949",
      "street": "R VASCO GAMA FERNANDES",
      "house": "4",
      "postcode": "2720-538",
      "city": "AMADORA",
      "lon": "-9.224752957065066",
      "lat": "38.7502852666107"
    },
    {
      "id": "pt.ine.add.PTCONT.3062950",
      "street": "R VASCO GAMA FERNANDES",
      "house": "4",
      "postcode": "2720-538",
      "city": "AMADORA",
      "lon": "-9.224752957065066",
      "lat": "38.7502852666107"
    },
    {
      "id": "pt.ine.add.PTCONT.3062951",
      "street": "R VASCO GAMA FERNANDES",
      "house": "4",
      "postcode": "2720-538",
      "city": "AMADORA",
      "lon": "-9.224752957065066",
      "lat": "38.7502852666107"
    },
    {
      "id": "pt.ine.add.PTCONT.3062952",
      "street": "R VASCO GAMA FERNANDES",
      "house": "4",
      "postcode": "2720-538",
      "city": "AMADORA",
      "lon": "-9.224752957065066",
      "lat": "38.7502852666107"
    },
    {
      "id": "pt.ine.add.PTCONT.3062953",
      "street": "R VASCO GAMA FERNANDES",
      "house": "4",
      "postcode": "2720-538",
      "city": "AMADORA",
      "lon": "-9.224752957065066",
      "lat": "38.7502852666107"
    },
    {
      "id": "pt.ine.add.PTCONT.3062954",
      "street": "R VASCO GAMA FERNANDES",
      "house": "4",
      "postcode": "2720-538",
      "city": "AMADORA",
      "lon": "-9.224752957065066",
      "lat": "38.7502852666107"
    },
    {
      "id": "pt.ine.add.PTCONT.3062955",
      "street": "R VASCO GAMA FERNANDES",
      "house": "4",
      "postcode": "2720-538",
      "city": "AMADORA",
      "lon": "-9.224752957065066",
      "lat": "38.7502852666107"
    },
    {
      "id": "pt.ine.add.PTCONT.3062956",
      "street": "R VASCO GAMA FERNANDES",
      "house": "4",
      "postcode": "2720-538",
      "city": "AMADORA",
      "lon": "-9.224752957065066",
      "lat": "38.7502852666107"
    },
    {
      "id": "pt.ine.add.PTCONT.3062957",
      "street": "R VASCO GAMA FERNANDES",
      "house": "4",
      "postcode": "2720-538",
      "city": "AMADORA",
      "lon": "-9.224752957065066",
      "lat": "38.7502852666107"
    },
    {
      "id": "pt.ine.add.PTCONT.3062958",
      "street": "R VASCO GAMA FERNANDES",
      "house": "4",
      "postcode": "2720-538",
      "city": "AMADORA",
      "lon": "-9.224752957065066",
      "lat": "38.7502852666107"
    },
    {
      "id": "pt.ine.add.PTCONT.3062959",
      "street": "R VASCO GAMA FERNANDES",
      "house": "4",
      "postcode": "2720-538",
      "city": "AMADORA",
      "lon": "-9.224752957065066",
      "lat": "38.7502852666107"
    },
    {
      "id": "pt.ine.add.PTCONT.3062960",
      "street": "R VASCO GAMA FERNANDES",
      "house": "4",
      "postcode": "2720-538",
      "city": "AMADORA",
      "lon": "-9.224752957065066",
      "lat": "38.7502852666107"
    },
    {
      "id": "pt.ine.add.PTCONT.3062961",
      "street": "R VASCO GAMA FERNANDES",
      "house": "4",
      "postcode": "2720-538",
      "city": "AMADORA",
      "lon": "-9.224752957065066",
      "lat": "38.7502852666107"
    },
    {
      "id": "pt.ine.add.PTCONT.3062962",
      "street": "R VASCO GAMA FERNANDES",
      "house": "4",
      "postcode": "2720-538",
      "city": "AMADORA",
      "lon": "-9.224752957065066",
      "lat": "38.7502852666107"
    },
    {
      "id": "pt.ine.add.PTCONT.3062963",
      "street": "R VASCO GAMA FERNANDES",
      "house": "4",
      "postcode": "2720-538",
      "city": "AMADORA",
      "lon": "-9.224752957065066",
      "lat": "38.7502852666107"
    },
    {
      "id": "pt.ine.add.PTCONT.3062964",
      "street": "R VASCO GAMA FERNANDES",
      "house": "4",
      "postcode": "2720-538",
      "city": "AMADORA",
      "lon": "-9.224752957065066",
      "lat": "38.7502852666107"
    },
    {
      "id": "pt.ine.add.PTCONT.3062965",
      "street": "R VASCO GAMA FERNANDES",
      "house": "4",
      "postcode": "2720-538",
      "city": "AMADORA",
      "lon": "-9.224752957065066",
      "lat": "38.7502852666107"
    },
    {
      "id": "pt.ine.add.PTCONT.3062966",
      "street": "R VASCO GAMA FERNANDES",
      "house": "4",
      "postcode": "2720-538",
      "city": "AMADORA",
      "lon": "-9.224752957065066",
      "lat": "38.7502852666107"
    },
    {
      "id": "pt.ine.add.PTCONT.3062967",
      "street": "R VASCO GAMA FERNANDES",
      "house": "4",
      "postcode": "2720-538",
      "city": "AMADORA",
      "lon": "-9.224752957065066",
      "lat": "38.7502852666107"
    },
    {
      "id": "pt.ine.add.PTCONT.3062968",
      "street": "R VASCO GAMA FERNANDES",
      "house": "4",
      "postcode": "2720-538",
      "city": "AMADORA",
      "lon": "-9.224752957065066",
      "lat": "38.7502852666107"
    },
    {
      "id": "pt.ine.add.PTCONT.3062969",
      "street": "R VASCO GAMA FERNANDES",
      "house": "4",
      "postcode": "2720-538",
      "city": "AMADORA",
      "lon": "-9.224752957065066",
      "lat": "38.7502852666107"
    },
    {
      "id": "pt.ine.add.PTCONT.3062970",
      "street": "R VASCO GAMA FERNANDES",
      "house": "4",
      "postcode": "2720-538",
      "city": "AMADORA",
      "lon": "-9.224752957065066",
      "lat": "38.7502852666107"
    },
    {
      "id": "pt.ine.add.PTCONT.3062971",
      "street": "R VASCO GAMA FERNANDES",
      "house": "4",
      "postcode": "2720-538",
      "city": "AMADORA",
      "lon": "-9.224752957065066",
      "lat": "38.7502852666107"
    },
    {
      "id": "pt.ine.add.PTCONT.3062972",
      "street": "R VASCO GAMA FERNANDES",
      "house": "4",
      "postcode": "2720-538",
      "city": "AMADORA",
      "lon": "-9.224752957065066",
      "lat": "38.7502852666107"
    },
    {
      "id": "pt.ine.add.PTCONT.3062973",
      "street": "R VASCO GAMA FERNANDES",
      "house": "4",
      "postcode": "2720-538",
      "city": "AMADORA",
      "lon": "-9.224752957065066",
      "lat": "38.7502852666107"
    },
    {
      "id": "pt.ine.add.PTCONT.3062974",
      "street": "R VASCO GAMA FERNANDES",
      "house": "4",
      "postcode": "2720-538",
      "city": "AMADORA",
      "lon": "-9.224752957065066",
      "lat": "38.7502852666107"
    },
    {
      "id": "pt.ine.add.PTCONT.3062975",
      "street": "R VASCO GAMA FERNANDES",
      "house": "4",
      "postcode": "2720-538",
      "city": "AMADORA",
      "lon": "-9.224752957065066",
      "lat": "38.7502852666107"
    },
    {
      "id": "pt.ine.add.PTCONT.3062976",
      "street": "R VASCO GAMA FERNANDES",
      "house": "4",
      "postcode": "2720-538",
      "city": "AMADORA",
      "lon": "-9.224752957065066",
      "lat": "38.7502852666107"
    },
    {
      "id": "pt.ine.add.PTCONT.3062977",
      "street": "R VASCO GAMA FERNANDES",
      "house": "4",
      "postcode": "2720-538",
      "city": "AMADORA",
      "lon": "-9.224752957065066",
      "lat": "38.7502852666107"
    },
    {
      "id": "pt.ine.add.PTCONT.3062978",
      "street": "R VASCO GAMA FERNANDES",
      "house": "4",
      "postcode": "2720-538",
      "city": "AMADORA",
      "lon": "-9.224752957065066",
      "lat": "38.7502852666107"
    },
    {
      "id": "pt.ine.add.PTCONT.3062979",
      "street": "R VASCO GAMA FERNANDES",
      "house": "4",
      "postcode": "2720-538",
      "city": "AMADORA",
      "lon": "-9.224752957065066",
      "lat": "38.7502852666107"
    },
    {
      "id": "pt.ine.add.PTCONT.3062980",
      "street": "R VASCO GAMA FERNANDES",
      "house": "4",
      "postcode": "2720-538",
      "city": "AMADORA",
      "lon": "-9.224752957065066",
      "lat": "38.7502852666107"
    },
    {
      "id": "pt.ine.add.PTCONT.3062981",
      "street": "R VASCO GAMA FERNANDES",
      "house": "4",
      "postcode": "2720-538",
      "city": "AMADORA",
      "lon": "-9.224752957065066",
      "lat": "38.7502852666107"
    },
    {
      "id": "pt.ine.add.PTCONT.3062982",
      "street": "R VASCO GAMA FERNANDES",
      "house": "4",
      "postcode": "2720-538",
      "city": "AMADORA",
      "lon": "-9.224752957065066",
      "lat": "38.7502852666107"
    },
    {
      "id": "pt.ine.add.PTCONT.3062983",
      "street": "R VASCO GAMA FERNANDES",
      "house": "4",
      "postcode": "2720-538",
      "city": "AMADORA",
      "lon": "-9.224752957065066",
      "lat": "38.7502852666107"
    },
    {
      "id": "pt.ine.add.PTCONT.3062984",
      "street": "R VASCO GAMA FERNANDES",
      "house": "4",
      "postcode": "2720-538",
      "city": "AMADORA",
      "lon": "-9.224752957065066",
      "lat": "38.7502852666107"
    },
    {
      "id": "pt.ine.add.PTCONT.3062985",
      "street": "R VASCO GAMA FERNANDES",
      "house": "4",
      "postcode": "2720-538",
      "city": "AMADORA",
      "lon": "-9.224752957065066",
      "lat": "38.7502852666107"
    },
    {
      "id": "pt.ine.add.PTCONT.3062986",
      "street": "R VASCO GAMA FERNANDES",
      "house": "4",
      "postcode": "2720-538",
      "city": "AMADORA",
      "lon": "-9.224752957065066",
      "lat": "38.7502852666107"
    },
    {
      "id": "pt.ine.add.PTCONT.3062987",
      "street": "R VASCO GAMA FERNANDES",
      "house": "4",
      "postcode": "2720-538",
      "city": "AMADORA",
      "lon": "-9.224752957065066",
      "lat": "38.7502852666107"
    },
    {
      "id": "pt.ine.add.PTCONT.3062988",
      "street": "R VASCO GAMA FERNANDES",
      "house": "4",
      "postcode": "2720-538",
      "city": "AMADORA",
      "lon": "-9.224752957065066",
      "lat": "38.7502852666107"
    },
    {
      "id": "pt.ine.add.PTCONT.3062989",
      "street": "R VASCO GAMA FERNANDES",
      "house": "4",
      "postcode": "2720-538",
      "city": "AMADORA",
      "lon": "-9.224752957065066",
      "lat": "38.7502852666107"
    },
    {
      "id": "pt.ine.add.PTCONT.3062990",
      "street": "R VASCO GAMA FERNANDES",
      "house": "4",
      "postcode": "2720-538",
      "city": "AMADORA",
      "lon": "-9.224752957065066",
      "lat": "38.7502852666107"
    },
    {
      "id": "pt.ine.add.PTCONT.3063000",
      "street": "R VASCO GAMA FERNANDES",
      "house": "4",
      "postcode": "2720-538",
      "city": "AMADORA",
      "lon": "-9.224752957065066",
      "lat": "38.7502852666107"
    },
    {
      "id": "pt.ine.add.PTCONT.3063001",
      "street": "R VASCO GAMA FERNANDES",
      "house": "4",
      "postcode": "2720-538",
      "city": "AMADORA",
      "lon": "-9.224752957065066",
      "lat": "38.7502852666107"
    },
    {
      "id": "pt.ine.add.PTCONT.3063002",
      "street": "R VASCO GAMA FERNANDES",
      "house": "4",
      "postcode": "2720-538",
      "city": "AMADORA",
      "lon": "-9.224752957065066",
      "lat": "38.7502852666107"
    },
    {
      "id": "pt.ine.add.PTCONT.3064157",
      "street": "R VASCO GAMA FERNANDES",
      "house": "4",
      "postcode": "2720-538",
      "city": "AMADORA",
      "lon": "-9.224752957065066",
      "lat": "38.7502852666107"
    },
    {
      "id": "pt.ine.add.PTCONT.3182134",
      "street": "LG 1 DE DEZEMBRO",
      "house": "3",
      "postcode": "2720-464",
      "city": "AMADORA",
      "lon": "-9.224155158063919",
      "lat": "38.750308864007195"
    },
    {
      "id": "pt.ine.add.PTCONT.3182135",
      "street": "LG 1 DE DEZEMBRO",
      "house": "3",
      "postcode": "2720-464",
      "city": "AMADORA",
      "lon": "-9.224155158063919",
      "lat": "38.750308864007195"
    },
    {
      "id": "pt.ine.add.PTCONT.3205504",
      "street": "R CHE GUEVARA",
      "house": "8",
      "postcode": "2720-099",
      "city": "AMADORA",
      "lon": "-9.224807583206124",
      "lat": "38.75009559299033"
    },
    {
      "id": "pt.ine.add.PTCONT.3205505",
      "street": "R CHE GUEVARA",
      "house": "8",
      "postcode": "2720-099",
      "city": "AMADORA",
      "lon": "-9.224807583206124",
      "lat": "38.75009559299033"
    },
    {
      "id": "pt.ine.add.PTCONT.3205506",
      "street": "R CHE GUEVARA",
      "house": "8",
      "postcode": "2720-099",
      "city": "AMADORA",
      "lon": "-9.224807583206124",
      "lat": "38.75009559299033"
    },
    {
      "id": "pt.ine.add.PTCONT.3205507",
      "street": "R CHE GUEVARA",
      "house": "8",
      "postcode": "2720-099",
      "city": "AMADORA",
      "lon": "-9.224807583206124",
      "lat": "38.75009559299033"
    },
    {
      "id": "pt.ine.add.PTCONT.3322855",
      "street": "AV ANTÓNIO SÉRGIO",
      "house": "14",
      "postcode": "2720-048",
      "city": "AMADORA",
      "lon": "-9.224995172628565",
      "lat": "38.750328043003734"
    },
    {
      "id": "pt.ine.add.PTCONT.3322856",
      "street": "AV ANTÓNIO SÉRGIO",
      "house": "14",
      "postcode": "2720-048",
      "city": "AMADORA",
      "lon": "-9.224995172628565",
      "lat": "38.750328043003734"
    },
    {
      "id": "pt.ine.add.PTCONT.3322857",
      "street": "AV ANTÓNIO SÉRGIO",
      "house": "14",
      "postcode": "2720-048",
      "city": "AMADORA",
      "lon": "-9.224995172628565",
      "lat": "38.750328043003734"
    },
    {
      "id": "pt.ine.add.PTCONT.3322858",
      "street": "AV ANTÓNIO SÉRGIO",
      "house": "14",
      "postcode": "2720-048",
      "city": "AMADORA",
      "lon": "-9.224995172628565",
      "lat": "38.750328043003734"
    },
    {
      "id": "pt.ine.add.PTCONT.3322859",
      "street": "AV ANTÓNIO SÉRGIO",
      "house": "14",
      "postcode": "2720-048",
      "city": "AMADORA",
      "lon": "-9.224995172628565",
      "lat": "38.750328043003734"
    },
    {
      "id": "pt.ine.add.PTCONT.3322860",
      "street": "AV ANTÓNIO SÉRGIO",
      "house": "14",
      "postcode": "2720-048",
      "city": "AMADORA",
      "lon": "-9.224995172628565",
      "lat": "38.750328043003734"
    },
    {
      "id": "pt.ine.add.PTCONT.3322861",
      "street": "AV ANTÓNIO SÉRGIO",
      "house": "14",
      "postcode": "2720-048",
      "city": "AMADORA",
      "lon": "-9.224995172628565",
      "lat": "38.750328043003734"
    },
    {
      "id": "pt.ine.add.PTCONT.3322862",
      "street": "AV ANTÓNIO SÉRGIO",
      "house": "14",
      "postcode": "2720-048",
      "city": "AMADORA",
      "lon": "-9.224995172628565",
      "lat": "38.750328043003734"
    },
    {
      "id": "pt.ine.add.PTCONT.3322863",
      "street": "AV ANTÓNIO SÉRGIO",
      "house": "14",
      "postcode": "2720-048",
      "city": "AMADORA",
      "lon": "-9.224995172628565",
      "lat": "38.750328043003734"
    },
    {
      "id": "pt.ine.add.PTCONT.3322864",
      "street": "AV ANTÓNIO SÉRGIO",
      "house": "14",
      "postcode": "2720-048",
      "city": "AMADORA",
      "lon": "-9.224995172628565",
      "lat": "38.750328043003734"
    },
    {
      "id": "pt.ine.add.PTCONT.3322865",
      "street": "AV ANTÓNIO SÉRGIO",
      "house": "14",
      "postcode": "2720-048",
      "city": "AMADORA",
      "lon": "-9.224995172628565",
      "lat": "38.750328043003734"
    },
    {
      "id": "pt.ine.add.PTCONT.3322866",
      "street": "AV ANTÓNIO SÉRGIO",
      "house": "14",
      "postcode": "2720-048",
      "city": "AMADORA",
      "lon": "-9.224995172628565",
      "lat": "38.750328043003734"
    },
    {
      "id": "pt.ine.add.PTCONT.3322867",
      "street": "AV ANTÓNIO SÉRGIO",
      "house": "14",
      "postcode": "2720-048",
      "city": "AMADORA",
      "lon": "-9.224995172628565",
      "lat": "38.750328043003734"
    },
    {
      "id": "pt.ine.add.PTCONT.3322868",
      "street": "AV ANTÓNIO SÉRGIO",
      "house": "14",
      "postcode": "2720-048",
      "city": "AMADORA",
      "lon": "-9.224995172628565",
      "lat": "38.750328043003734"
    },
    {
      "id": "pt.ine.add.PTCONT.3322869",
      "street": "AV ANTÓNIO SÉRGIO",
      "house": "14",
      "postcode": "2720-048",
      "city": "AMADORA",
      "lon": "-9.224995172628565",
      "lat": "38.750328043003734"
    },
    {
      "id": "pt.ine.add.PTCONT.3322870",
      "street": "AV ANTÓNIO SÉRGIO",
      "house": "14",
      "postcode": "2720-048",
      "city": "AMADORA",
      "lon": "-9.224995172628565",
      "lat": "38.750328043003734"
    },
    {
      "id": "pt.ine.add.PTCONT.3322871",
      "street": "AV ANTÓNIO SÉRGIO",
      "house": "14",
      "postcode": "2720-048",
      "city": "AMADORA",
      "lon": "-9.224995172628565",
      "lat": "38.750328043003734"
    },
    {
      "id": "pt.ine.add.PTCONT.3322872",
      "street": "AV ANTÓNIO SÉRGIO",
      "house": "14",
      "postcode": "2720-048",
      "city": "AMADORA",
      "lon": "-9.224995172628565",
      "lat": "38.750328043003734"
    },
    {
      "id": "pt.ine.add.PTCONT.3322873",
      "street": "AV ANTÓNIO SÉRGIO",
      "house": "14",
      "postcode": "2720-048",
      "city": "AMADORA",
      "lon": "-9.224995172628565",
      "lat": "38.750328043003734"
    },
    {
      "id": "pt.ine.add.PTCONT.3322874",
      "street": "AV ANTÓNIO SÉRGIO",
      "house": "14",
      "postcode": "2720-048",
      "city": "AMADORA",
      "lon": "-9.224995172628565",
      "lat": "38.750328043003734"
    },
    {
      "id": "pt.ine.add.PTCONT.3322875",
      "street": "AV ANTÓNIO SÉRGIO",
      "house": "14",
      "postcode": "2720-048",
      "city": "AMADORA",
      "lon": "-9.224995172628565",
      "lat": "38.750328043003734"
    },
    {
      "id": "pt.ine.add.PTCONT.3322876",
      "street": "AV ANTÓNIO SÉRGIO",
      "house": "14",
      "postcode": "2720-048",
      "city": "AMADORA",
      "lon": "-9.224995172628565",
      "lat": "38.750328043003734"
    },
    {
      "id": "pt.ine.add.PTCONT.3322877",
      "street": "AV ANTÓNIO SÉRGIO",
      "house": "14",
      "postcode": "2720-048",
      "city": "AMADORA",
      "lon": "-9.224995172628565",
      "lat": "38.750328043003734"
    },
    {
      "id": "pt.ine.add.PTCONT.3322878",
      "street": "AV ANTÓNIO SÉRGIO",
      "house": "14",
      "postcode": "2720-048",
      "city": "AMADORA",
      "lon": "-9.224995172628565",
      "lat": "38.750328043003734"
    },
    {
      "id": "pt.ine.add.PTCONT.3322879",
      "street": "AV ANTÓNIO SÉRGIO",
      "house": "14",
      "postcode": "2720-048",
      "city": "AMADORA",
      "lon": "-9.224995172628565",
      "lat": "38.750328043003734"
    },
    {
      "id": "pt.ine.add.PTCONT.3322880",
      "street": "AV ANTÓNIO SÉRGIO",
      "house": "14",
      "postcode": "2720-048",
      "city": "AMADORA",
      "lon": "-9.224995172628565",
      "lat": "38.750328043003734"
    },
    {
      "id": "pt.ine.add.PTCONT.3322881",
      "street": "AV ANTÓNIO SÉRGIO",
      "house": "14",
      "postcode": "2720-048",
      "city": "AMADORA",
      "lon": "-9.224995172628565",
      "lat": "38.750328043003734"
    },
    {
      "id": "pt.ine.add.PTCONT.3322882",
      "street": "AV ANTÓNIO SÉRGIO",
      "house": "14",
      "postcode": "2720-048",
      "city": "AMADORA",
      "lon": "-9.224995172628565",
      "lat": "38.750328043003734"
    },
    {
      "id": "pt.ine.add.PTCONT.3322883",
      "street": "AV ANTÓNIO SÉRGIO",
      "house": "14",
      "postcode": "2720-048",
      "city": "AMADORA",
      "lon": "-9.224995172628565",
      "lat": "38.750328043003734"
    },
    {
      "id": "pt.ine.add.PTCONT.3322884",
      "street": "AV ANTÓNIO SÉRGIO",
      "house": "14",
      "postcode": "2720-048",
      "city": "AMADORA",
      "lon": "-9.224995172628565",
      "lat": "38.750328043003734"
    },
    {
      "id": "pt.ine.add.PTCONT.3322885",
      "street": "AV ANTÓNIO SÉRGIO",
      "house": "14",
      "postcode": "2720-048",
      "city": "AMADORA",
      "lon": "-9.224995172628565",
      "lat": "38.750328043003734"
    },
    {
      "id": "pt.ine.add.PTCONT.3322886",
      "street": "AV ANTÓNIO SÉRGIO",
      "house": "14",
      "postcode": "2720-048",
      "city": "AMADORA",
      "lon": "-9.224995172628565",
      "lat": "38.750328043003734"
    },
    {
      "id": "pt.ine.add.PTCONT.3322887",
      "street": "AV ANTÓNIO SÉRGIO",
      "house": "14",
      "postcode": "2720-048",
      "city": "AMADORA",
      "lon": "-9.224995172628565",
      "lat": "38.750328043003734"
    },
    {
      "id": "pt.ine.add.PTCONT.3322888",
      "street": "AV ANTÓNIO SÉRGIO",
      "house": "14",
      "postcode": "2720-048",
      "city": "AMADORA",
      "lon": "-9.224995172628565",
      "lat": "38.750328043003734"
    },
    {
      "id": "pt.ine.add.PTCONT.3322889",
      "street": "AV ANTÓNIO SÉRGIO",
      "house": "14",
      "postcode": "2720-048",
      "city": "AMADORA",
      "lon": "-9.224995172628565",
      "lat": "38.750328043003734"
    },
    {
      "id": "pt.ine.add.PTCONT.3322890",
      "street": "AV ANTÓNIO SÉRGIO",
      "house": "14",
      "postcode": "2720-048",
      "city": "AMADORA",
      "lon": "-9.224995172628565",
      "lat": "38.750328043003734"
    },
    {
      "id": "pt.ine.add.PTCONT.3322891",
      "street": "AV ANTÓNIO SÉRGIO",
      "house": "14",
      "postcode": "2720-048",
      "city": "AMADORA",
      "lon": "-9.224995172628565",
      "lat": "38.750328043003734"
    },
    {
      "id": "pt.ine.add.PTCONT.3322892",
      "street": "AV ANTÓNIO SÉRGIO",
      "house": "14",
      "postcode": "2720-048",
      "city": "AMADORA",
      "lon": "-9.224995172628565",
      "lat": "38.750328043003734"
    },
    {
      "id": "pt.ine.add.PTCONT.3322893",
      "street": "AV ANTÓNIO SÉRGIO",
      "house": "14",
      "postcode": "2720-048",
      "city": "AMADORA",
      "lon": "-9.224995172628565",
      "lat": "38.750328043003734"
    },
    {
      "id": "pt.ine.add.PTCONT.3322894",
      "street": "AV ANTÓNIO SÉRGIO",
      "house": "14",
      "postcode": "2720-048",
      "city": "AMADORA",
      "lon": "-9.224995172628565",
      "lat": "38.750328043003734"
    },
    {
      "id": "pt.ine.add.PTCONT.3322895",
      "street": "AV ANTÓNIO SÉRGIO",
      "house": "14",
      "postcode": "2720-048",
      "city": "AMADORA",
      "lon": "-9.224995172628565",
      "lat": "38.750328043003734"
    },
    {
      "id": "pt.ine.add.PTCONT.3322896",
      "street": "AV ANTÓNIO SÉRGIO",
      "house": "14",
      "postcode": "2720-048",
      "city": "AMADORA",
      "lon": "-9.224995172628565",
      "lat": "38.750328043003734"
    },
    {
      "id": "pt.ine.add.PTCONT.3322897",
      "street": "AV ANTÓNIO SÉRGIO",
      "house": "14",
      "postcode": "2720-048",
      "city": "AMADORA",
      "lon": "-9.224995172628565",
      "lat": "38.750328043003734"
    },
    {
      "id": "pt.ine.add.PTCONT.3322898",
      "street": "AV ANTÓNIO SÉRGIO",
      "house": "14",
      "postcode": "2720-048",
      "city": "AMADORA",
      "lon": "-9.224995172628565",
      "lat": "38.750328043003734"
    },
    {
      "id": "pt.ine.add.PTCONT.3322899",
      "street": "AV ANTÓNIO SÉRGIO",
      "house": "14",
      "postcode": "2720-048",
      "city": "AMADORA",
      "lon": "-9.224995172628565",
      "lat": "38.750328043003734"
    },
    {
      "id": "pt.ine.add.PTCONT.3322900",
      "street": "AV ANTÓNIO SÉRGIO",
      "house": "14",
      "postcode": "2720-048",
      "city": "AMADORA",
      "lon": "-9.224995172628565",
      "lat": "38.750328043003734"
    },
    {
      "id": "pt.ine.add.PTCONT.3322901",
      "street": "AV ANTÓNIO SÉRGIO",
      "house": "14",
      "postcode": "2720-048",
      "city": "AMADORA",
      "lon": "-9.224995172628565",
      "lat": "38.750328043003734"
    },
    {
      "id": "pt.ine.add.PTCONT.3322902",
      "street": "AV ANTÓNIO SÉRGIO",
      "house": "14",
      "postcode": "2720-048",
      "city": "AMADORA",
      "lon": "-9.224995172628565",
      "lat": "38.750328043003734"
    },
    {
      "id": "pt.ine.add.PTCONT.3322903",
      "street": "AV ANTÓNIO SÉRGIO",
      "house": "14",
      "postcode": "2720-048",
      "city": "AMADORA",
      "lon": "-9.224995172628565",
      "lat": "38.750328043003734"
    },
    {
      "id": "pt.ine.add.PTCONT.3322904",
      "street": "AV ANTÓNIO SÉRGIO",
      "house": "14",
      "postcode": "2720-048",
      "city": "AMADORA",
      "lon": "-9.224995172628565",
      "lat": "38.750328043003734"
    },
    {
      "id": "pt.ine.add.PTCONT.3322905",
      "street": "AV ANTÓNIO SÉRGIO",
      "house": "14",
      "postcode": "2720-048",
      "city": "AMADORA",
      "lon": "-9.224995172628565",
      "lat": "38.750328043003734"
    },
    {
      "id": "pt.ine.add.PTCONT.3322906",
      "street": "AV ANTÓNIO SÉRGIO",
      "house": "14",
      "postcode": "2720-048",
      "city": "AMADORA",
      "lon": "-9.224995172628565",
      "lat": "38.750328043003734"
    },
    {
      "id": "pt.ine.add.PTCONT.3322907",
      "street": "AV ANTÓNIO SÉRGIO",
      "house": "14",
      "postcode": "2720-048",
      "city": "AMADORA",
      "lon": "-9.224995172628565",
      "lat": "38.750328043003734"
    },
    {
      "id": "pt.ine.add.PTCONT.3322908",
      "street": "AV ANTÓNIO SÉRGIO",
      "house": "14",
      "postcode": "2720-048",
      "city": "AMADORA",
      "lon": "-9.224995172628565",
      "lat": "38.750328043003734"
    },
    {
      "id": "pt.ine.add.PTCONT.3322909",
      "street": "AV ANTÓNIO SÉRGIO",
      "house": "14",
      "postcode": "2720-048",
      "city": "AMADORA",
      "lon": "-9.224995172628565",
      "lat": "38.750328043003734"
    },
    {
      "id": "pt.ine.add.PTCONT.3322910",
      "street": "AV ANTÓNIO SÉRGIO",
      "house": "14",
      "postcode": "2720-048",
      "city": "AMADORA",
      "lon": "-9.224995172628565",
      "lat": "38.750328043003734"
    },
    {
      "id": "pt.ine.add.PTCONT.3322911",
      "street": "AV ANTÓNIO SÉRGIO",
      "house": "14",
      "postcode": "2720-048",
      "city": "AMADORA",
      "lon": "-9.224995172628565",
      "lat": "38.750328043003734"
    },
    {
      "id": "pt.ine.add.PTCONT.3322912",
      "street": "AV ANTÓNIO SÉRGIO",
      "house": "14",
      "postcode": "2720-048",
      "city": "AMADORA",
      "lon": "-9.224995172628565",
      "lat": "38.750328043003734"
    },
    {
      "id": "pt.ine.add.PTCONT.3322913",
      "street": "AV ANTÓNIO SÉRGIO",
      "house": "14",
      "postcode": "2720-048",
      "city": "AMADORA",
      "lon": "-9.224995172628565",
      "lat": "38.750328043003734"
    },
    {
      "id": "pt.ine.add.PTCONT.3322914",
      "street": "AV ANTÓNIO SÉRGIO",
      "house": "14",
      "postcode": "2720-048",
      "city": "AMADORA",
      "lon": "-9.224995172628565",
      "lat": "38.750328043003734"
    },
    {
      "id": "pt.ine.add.PTCONT.3322915",
      "street": "AV ANTÓNIO SÉRGIO",
      "house": "14",
      "postcode": "2720-048",
      "city": "AMADORA",
      "lon": "-9.224995172628565",
      "lat": "38.750328043003734"
    },
    {
      "id": "pt.ine.add.PTCONT.3322916",
      "street": "AV ANTÓNIO SÉRGIO",
      "house": "14",
      "postcode": "2720-048",
      "city": "AMADORA",
      "lon": "-9.224995172628565",
      "lat": "38.750328043003734"
    },
    {
      "id": "pt.ine.add.PTCONT.3322917",
      "street": "AV ANTÓNIO SÉRGIO",
      "house": "14",
      "postcode": "2720-048",
      "city": "AMADORA",
      "lon": "-9.224995172628565",
      "lat": "38.750328043003734"
    },
    {
      "id": "pt.ine.add.PTCONT.3322918",
      "street": "AV ANTÓNIO SÉRGIO",
      "house": "14",
      "postcode": "2720-048",
      "city": "AMADORA",
      "lon": "-9.224995172628565",
      "lat": "38.750328043003734"
    },
    {
      "id": "pt.ine.add.PTCONT.3322919",
      "street": "AV ANTÓNIO SÉRGIO",
      "house": "14",
      "postcode": "2720-048",
      "city": "AMADORA",
      "lon": "-9.224995172628565",
      "lat": "38.750328043003734"
    },
    {
      "id": "pt.ine.add.PTCONT.3322920",
      "street": "AV ANTÓNIO SÉRGIO",
      "house": "14",
      "postcode": "2720-048",
      "city": "AMADORA",
      "lon": "-9.224995172628565",
      "lat": "38.750328043003734"
    },
    {
      "id": "pt.ine.add.PTCONT.3322921",
      "street": "AV ANTÓNIO SÉRGIO",
      "house": "14",
      "postcode": "2720-048",
      "city": "AMADORA",
      "lon": "-9.224995172628565",
      "lat": "38.750328043003734"
    },
    {
      "id": "pt.ine.add.PTCONT.3322922",
      "street": "AV ANTÓNIO SÉRGIO",
      "house": "14",
      "postcode": "2720-048",
      "city": "AMADORA",
      "lon": "-9.224995172628565",
      "lat": "38.750328043003734"
    },
    {
      "id": "pt.ine.add.PTCONT.3322923",
      "street": "AV ANTÓNIO SÉRGIO",
      "house": "14",
      "postcode": "2720-048",
      "city": "AMADORA",
      "lon": "-9.224995172628565",
      "lat": "38.750328043003734"
    },
    {
      "id": "pt.ine.add.PTCONT.3322924",
      "street": "AV ANTÓNIO SÉRGIO",
      "house": "14",
      "postcode": "2720-048",
      "city": "AMADORA",
      "lon": "-9.224995172628565",
      "lat": "38.750328043003734"
    },
    {
      "id": "pt.ine.add.PTCONT.3322925",
      "street": "AV ANTÓNIO SÉRGIO",
      "house": "14",
      "postcode": "2720-048",
      "city": "AMADORA",
      "lon": "-9.224995172628565",
      "lat": "38.750328043003734"
    },
    {
      "id": "pt.ine.add.PTCONT.3322926",
      "street": "AV ANTÓNIO SÉRGIO",
      "house": "14",
      "postcode": "2720-048",
      "city": "AMADORA",
      "lon": "-9.224995172628565",
      "lat": "38.750328043003734"
    },
    {
      "id": "pt.ine.add.PTCONT.3322927",
      "street": "AV ANTÓNIO SÉRGIO",
      "house": "14",
      "postcode": "2720-048",
      "city": "AMADORA",
      "lon": "-9.224995172628565",
      "lat": "38.750328043003734"
    },
    {
      "id": "pt.ine.add.PTCONT.3322928",
      "street": "AV ANTÓNIO SÉRGIO",
      "house": "14",
      "postcode": "2720-048",
      "city": "AMADORA",
      "lon": "-9.224995172628565",
      "lat": "38.750328043003734"
    },
    {
      "id": "pt.ine.add.PTCONT.3322929",
      "street": "AV ANTÓNIO SÉRGIO",
      "house": "14",
      "postcode": "2720-048",
      "city": "AMADORA",
      "lon": "-9.224995172628565",
      "lat": "38.750328043003734"
    },
    {
      "id": "pt.ine.add.PTCONT.3322930",
      "street": "AV ANTÓNIO SÉRGIO",
      "house": "14",
      "postcode": "2720-048",
      "city": "AMADORA",
      "lon": "-9.224995172628565",
      "lat": "38.750328043003734"
    },
    {
      "id": "pt.ine.add.PTCONT.3322931",
      "street": "AV ANTÓNIO SÉRGIO",
      "house": "14",
      "postcode": "2720-048",
      "city": "AMADORA",
      "lon": "-9.224995172628565",
      "lat": "38.750328043003734"
    },
    {
      "id": "pt.ine.add.PTCONT.3322932",
      "street": "AV ANTÓNIO SÉRGIO",
      "house": "14",
      "postcode": "2720-048",
      "city": "AMADORA",
      "lon": "-9.224995172628565",
      "lat": "38.750328043003734"
    },
    {
      "id": "pt.ine.add.PTCONT.3322933",
      "street": "AV ANTÓNIO SÉRGIO",
      "house": "14",
      "postcode": "2720-048",
      "city": "AMADORA",
      "lon": "-9.224995172628565",
      "lat": "38.750328043003734"
    },
    {
      "id": "pt.ine.add.PTCONT.3322934",
      "street": "AV ANTÓNIO SÉRGIO",
      "house": "14",
      "postcode": "2720-048",
      "city": "AMADORA",
      "lon": "-9.224995172628565",
      "lat": "38.750328043003734"
    },
    {
      "id": "pt.ine.add.PTCONT.3322935",
      "street": "AV ANTÓNIO SÉRGIO",
      "house": "14",
      "postcode": "2720-048",
      "city": "AMADORA",
      "lon": "-9.224995172628565",
      "lat": "38.750328043003734"
    },
    {
      "id": "pt.ine.add.PTCONT.3322936",
      "street": "AV ANTÓNIO SÉRGIO",
      "house": "14",
      "postcode": "2720-048",
      "city": "AMADORA",
      "lon": "-9.224995172628565",
      "lat": "38.750328043003734"
    },
    {
      "id": "pt.ine.add.PTCONT.3322937",
      "street": "AV ANTÓNIO SÉRGIO",
      "house": "14",
      "postcode": "2720-048",
      "city": "AMADORA",
      "lon": "-9.224995172628565",
      "lat": "38.750328043003734"
    },
    {
      "id": "pt.ine.add.PTCONT.3322938",
      "street": "AV ANTÓNIO SÉRGIO",
      "house": "14",
      "postcode": "2720-048",
      "city": "AMADORA",
      "lon": "-9.224995172628565",
      "lat": "38.750328043003734"
    },
    {
      "id": "pt.ine.add.PTCONT.3322939",
      "street": "AV ANTÓNIO SÉRGIO",
      "house": "14",
      "postcode": "2720-048",
      "city": "AMADORA",
      "lon": "-9.224995172628565",
      "lat": "38.750328043003734"
    },
    {
      "id": "pt.ine.add.PTCONT.3322940",
      "street": "AV ANTÓNIO SÉRGIO",
      "house": "14",
      "postcode": "2720-048",
      "city": "AMADORA",
      "lon": "-9.224995172628565",
      "lat": "38.750328043003734"
    },
    {
      "id": "pt.ine.add.PTCONT.3322941",
      "street": "AV ANTÓNIO SÉRGIO",
      "house": "14",
      "postcode": "2720-048",
      "city": "AMADORA",
      "lon": "-9.224995172628565",
      "lat": "38.750328043003734"
    },
    {
      "id": "pt.ine.add.PTCONT.3322942",
      "street": "AV ANTÓNIO SÉRGIO",
      "house": "14",
      "postcode": "2720-048",
      "city": "AMADORA",
      "lon": "-9.224995172628565",
      "lat": "38.750328043003734"
    },
    {
      "id": "pt.ine.add.PTCONT.3322943",
      "street": "AV ANTÓNIO SÉRGIO",
      "house": "14",
      "postcode": "2720-048",
      "city": "AMADORA",
      "lon": "-9.224995172628565",
      "lat": "38.750328043003734"
    },
    {
      "id": "pt.ine.add.PTCONT.3322944",
      "street": "AV ANTÓNIO SÉRGIO",
      "house": "14",
      "postcode": "2720-048",
      "city": "AMADORA",
      "lon": "-9.224995172628565",
      "lat": "38.750328043003734"
    },
    {
      "id": "pt.ine.add.PTCONT.3322945",
      "street": "AV ANTÓNIO SÉRGIO",
      "house": "14",
      "postcode": "2720-048",
      "city": "AMADORA",
      "lon": "-9.224995172628565",
      "lat": "38.750328043003734"
    },
    {
      "id": "pt.ine.add.PTCONT.3322946",
      "street": "AV ANTÓNIO SÉRGIO",
      "house": "14",
      "postcode": "2720-048",
      "city": "AMADORA",
      "lon": "-9.224995172628565",
      "lat": "38.750328043003734"
    },
    {
      "id": "pt.ine.add.PTCONT.3322947",
      "street": "AV ANTÓNIO SÉRGIO",
      "house": "14",
      "postcode": "2720-048",
      "city": "AMADORA",
      "lon": "-9.224995172628565",
      "lat": "38.750328043003734"
    },
    {
      "id": "pt.ine.add.PTCONT.3322948",
      "street": "AV ANTÓNIO SÉRGIO",
      "house": "14",
      "postcode": "2720-048",
      "city": "AMADORA",
      "lon": "-9.224995172628565",
      "lat": "38.750328043003734"
    },
    {
      "id": "pt.ine.add.PTCONT.3322949",
      "street": "AV ANTÓNIO SÉRGIO",
      "house": "14",
      "postcode": "2720-048",
      "city": "AMADORA",
      "lon": "-9.224995172628565",
      "lat": "38.750328043003734"
    },
    {
      "id": "pt.ine.add.PTCONT.3322950",
      "street": "AV ANTÓNIO SÉRGIO",
      "house": "14",
      "postcode": "2720-048",
      "city": "AMADORA",
      "lon": "-9.224995172628565",
      "lat": "38.750328043003734"
    },
    {
      "id": "pt.ine.add.PTCONT.3322951",
      "street": "AV ANTÓNIO SÉRGIO",
      "house": "14",
      "postcode": "2720-048",
      "city": "AMADORA",
      "lon": "-9.224995172628565",
      "lat": "38.750328043003734"
    },
    {
      "id": "pt.ine.add.PTCONT.3322952",
      "street": "AV ANTÓNIO SÉRGIO",
      "house": "14",
      "postcode": "2720-048",
      "city": "AMADORA",
      "lon": "-9.224995172628565",
      "lat": "38.750328043003734"
    },
    {
      "id": "pt.ine.add.PTCONT.3322953",
      "street": "AV ANTÓNIO SÉRGIO",
      "house": "14",
      "postcode": "2720-048",
      "city": "AMADORA",
      "lon": "-9.224995172628565",
      "lat": "38.750328043003734"
    },
    {
      "id": "pt.ine.add.PTCONT.3322954",
      "street": "AV ANTÓNIO SÉRGIO",
      "house": "14",
      "postcode": "2720-048",
      "city": "AMADORA",
      "lon": "-9.224995172628565",
      "lat": "38.750328043003734"
    },
    {
      "id": "pt.ine.add.PTCONT.3322955",
      "street": "AV ANTÓNIO SÉRGIO",
      "house": "14",
      "postcode": "2720-048",
      "city": "AMADORA",
      "lon": "-9.224995172628565",
      "lat": "38.750328043003734"
    },
    {
      "id": "pt.ine.add.PTCONT.3322956",
      "street": "AV ANTÓNIO SÉRGIO",
      "house": "14",
      "postcode": "2720-048",
      "city": "AMADORA",
      "lon": "-9.224995172628565",
      "lat": "38.750328043003734"
    },
    {
      "id": "pt.ine.add.PTCONT.3322957",
      "street": "AV ANTÓNIO SÉRGIO",
      "house": "14",
      "postcode": "2720-048",
      "city": "AMADORA",
      "lon": "-9.224995172628565",
      "lat": "38.750328043003734"
    },
    {
      "id": "pt.ine.add.PTCONT.3322958",
      "street": "AV ANTÓNIO SÉRGIO",
      "house": "14",
      "postcode": "2720-048",
      "city": "AMADORA",
      "lon": "-9.224995172628565",
      "lat": "38.750328043003734"
    },
    {
      "id": "pt.ine.add.PTCONT.3322959",
      "street": "AV ANTÓNIO SÉRGIO",
      "house": "14",
      "postcode": "2720-048",
      "city": "AMADORA",
      "lon": "-9.224995172628565",
      "lat": "38.750328043003734"
    },
    {
      "id": "pt.ine.add.PTCONT.3322960",
      "street": "AV ANTÓNIO SÉRGIO",
      "house": "14",
      "postcode": "2720-048",
      "city": "AMADORA",
      "lon": "-9.224995172628565",
      "lat": "38.750328043003734"
    },
    {
      "id": "pt.ine.add.PTCONT.3322961",
      "street": "AV ANTÓNIO SÉRGIO",
      "house": "14",
      "postcode": "2720-048",
      "city": "AMADORA",
      "lon": "-9.224995172628565",
      "lat": "38.750328043003734"
    },
    {
      "id": "pt.ine.add.PTCONT.3322962",
      "street": "AV ANTÓNIO SÉRGIO",
      "house": "14",
      "postcode": "2720-048",
      "city": "AMADORA",
      "lon": "-9.224995172628565",
      "lat": "38.750328043003734"
    },
    {
      "id": "pt.ine.add.PTCONT.3322963",
      "street": "AV ANTÓNIO SÉRGIO",
      "house": "14",
      "postcode": "2720-048",
      "city": "AMADORA",
      "lon": "-9.224995172628565",
      "lat": "38.750328043003734"
    },
    {
      "id": "pt.ine.add.PTCONT.3322964",
      "street": "AV ANTÓNIO SÉRGIO",
      "house": "14",
      "postcode": "2720-048",
      "city": "AMADORA",
      "lon": "-9.224995172628565",
      "lat": "38.750328043003734"
    },
    {
      "id": "pt.ine.add.PTCONT.3322965",
      "street": "AV ANTÓNIO SÉRGIO",
      "house": "14",
      "postcode": "2720-048",
      "city": "AMADORA",
      "lon": "-9.224995172628565",
      "lat": "38.750328043003734"
    },
    {
      "id": "pt.ine.add.PTCONT.3322966",
      "street": "AV ANTÓNIO SÉRGIO",
      "house": "14",
      "postcode": "2720-048",
      "city": "AMADORA",
      "lon": "-9.224995172628565",
      "lat": "38.750328043003734"
    },
    {
      "id": "pt.ine.add.PTCONT.3322967",
      "street": "AV ANTÓNIO SÉRGIO",
      "house": "14",
      "postcode": "2720-048",
      "city": "AMADORA",
      "lon": "-9.224995172628565",
      "lat": "38.750328043003734"
    },
    {
      "id": "pt.ine.add.PTCONT.3322968",
      "street": "AV ANTÓNIO SÉRGIO",
      "house": "14",
      "postcode": "2720-048",
      "city": "AMADORA",
      "lon": "-9.224995172628565",
      "lat": "38.750328043003734"
    },
    {
      "id": "pt.ine.add.PTCONT.3322969",
      "street": "AV ANTÓNIO SÉRGIO",
      "house": "14",
      "postcode": "2720-048",
      "city": "AMADORA",
      "lon": "-9.224995172628565",
      "lat": "38.750328043003734"
    },
    {
      "id": "pt.ine.add.PTCONT.3322970",
      "street": "AV ANTÓNIO SÉRGIO",
      "house": "14",
      "postcode": "2720-048",
      "city": "AMADORA",
      "lon": "-9.224995172628565",
      "lat": "38.750328043003734"
    },
    {
      "id": "pt.ine.add.PTCONT.3322971",
      "street": "AV ANTÓNIO SÉRGIO",
      "house": "14",
      "postcode": "2720-048",
      "city": "AMADORA",
      "lon": "-9.224995172628565",
      "lat": "38.750328043003734"
    },
    {
      "id": "pt.ine.add.PTCONT.3322972",
      "street": "AV ANTÓNIO SÉRGIO",
      "house": "14",
      "postcode": "2720-048",
      "city": "AMADORA",
      "lon": "-9.224995172628565",
      "lat": "38.750328043003734"
    },
    {
      "id": "pt.ine.add.PTCONT.3322973",
      "street": "AV ANTÓNIO SÉRGIO",
      "house": "14",
      "postcode": "2720-048",
      "city": "AMADORA",
      "lon": "-9.224995172628565",
      "lat": "38.750328043003734"
    },
    {
      "id": "pt.ine.add.PTCONT.3322974",
      "street": "AV ANTÓNIO SÉRGIO",
      "house": "14",
      "postcode": "2720-048",
      "city": "AMADORA",
      "lon": "-9.224995172628565",
      "lat": "38.750328043003734"
    },
    {
      "id": "pt.ine.add.PTCONT.3322975",
      "street": "AV ANTÓNIO SÉRGIO",
      "house": "14",
      "postcode": "2720-048",
      "city": "AMADORA",
      "lon": "-9.224995172628565",
      "lat": "38.750328043003734"
    },
    {
      "id": "pt.ine.add.PTCONT.3322976",
      "street": "AV ANTÓNIO SÉRGIO",
      "house": "14",
      "postcode": "2720-048",
      "city": "AMADORA",
      "lon": "-9.224995172628565",
      "lat": "38.750328043003734"
    },
    {
      "id": "pt.ine.add.PTCONT.3322977",
      "street": "AV ANTÓNIO SÉRGIO",
      "house": "14",
      "postcode": "2720-048",
      "city": "AMADORA",
      "lon": "-9.224995172628565",
      "lat": "38.750328043003734"
    },
    {
      "id": "pt.ine.add.PTCONT.3322978",
      "street": "AV ANTÓNIO SÉRGIO",
      "house": "14",
      "postcode": "2720-048",
      "city": "AMADORA",
      "lon": "-9.224995172628565",
      "lat": "38.750328043003734"
    },
    {
      "id": "pt.ine.add.PTCONT.3322979",
      "street": "AV ANTÓNIO SÉRGIO",
      "house": "14",
      "postcode": "2720-048",
      "city": "AMADORA",
      "lon": "-9.224995172628565",
      "lat": "38.750328043003734"
    },
    {
      "id": "pt.ine.add.PTCONT.3322980",
      "street": "AV ANTÓNIO SÉRGIO",
      "house": "14",
      "postcode": "2720-048",
      "city": "AMADORA",
      "lon": "-9.224995172628565",
      "lat": "38.750328043003734"
    },
    {
      "id": "pt.ine.add.PTCONT.3322981",
      "street": "AV ANTÓNIO SÉRGIO",
      "house": "14",
      "postcode": "2720-048",
      "city": "AMADORA",
      "lon": "-9.224995172628565",
      "lat": "38.750328043003734"
    },
    {
      "id": "pt.ine.add.PTCONT.3322982",
      "street": "AV ANTÓNIO SÉRGIO",
      "house": "14",
      "postcode": "2720-048",
      "city": "AMADORA",
      "lon": "-9.224995172628565",
      "lat": "38.750328043003734"
    },
    {
      "id": "pt.ine.add.PTCONT.3322983",
      "street": "AV ANTÓNIO SÉRGIO",
      "house": "14",
      "postcode": "2720-048",
      "city": "AMADORA",
      "lon": "-9.224995172628565",
      "lat": "38.750328043003734"
    },
    {
      "id": "pt.ine.add.PTCONT.3322984",
      "street": "AV ANTÓNIO SÉRGIO",
      "house": "14",
      "postcode": "2720-048",
      "city": "AMADORA",
      "lon": "-9.224995172628565",
      "lat": "38.750328043003734"
    },
    {
      "id": "pt.ine.add.PTCONT.3322985",
      "street": "AV ANTÓNIO SÉRGIO",
      "house": "14",
      "postcode": "2720-048",
      "city": "AMADORA",
      "lon": "-9.224995172628565",
      "lat": "38.750328043003734"
    },
    {
      "id": "pt.ine.add.PTCONT.3322986",
      "street": "AV ANTÓNIO SÉRGIO",
      "house": "14",
      "postcode": "2720-048",
      "city": "AMADORA",
      "lon": "-9.224995172628565",
      "lat": "38.750328043003734"
    },
    {
      "id": "pt.ine.add.PTCONT.3322987",
      "street": "AV ANTÓNIO SÉRGIO",
      "house": "14",
      "postcode": "2720-048",
      "city": "AMADORA",
      "lon": "-9.224995172628565",
      "lat": "38.750328043003734"
    },
    {
      "id": "pt.ine.add.PTCONT.3322988",
      "street": "AV ANTÓNIO SÉRGIO",
      "house": "14",
      "postcode": "2720-048",
      "city": "AMADORA",
      "lon": "-9.224995172628565",
      "lat": "38.750328043003734"
    },
    {
      "id": "pt.ine.add.PTCONT.3322989",
      "street": "AV ANTÓNIO SÉRGIO",
      "house": "14",
      "postcode": "2720-048",
      "city": "AMADORA",
      "lon": "-9.224995172628565",
      "lat": "38.750328043003734"
    },
    {
      "id": "pt.ine.add.PTCONT.3322990",
      "street": "AV ANTÓNIO SÉRGIO",
      "house": "14",
      "postcode": "2720-048",
      "city": "AMADORA",
      "lon": "-9.224995172628565",
      "lat": "38.750328043003734"
    },
    {
      "id": "pt.ine.add.PTCONT.3322991",
      "street": "AV ANTÓNIO SÉRGIO",
      "house": "14",
      "postcode": "2720-048",
      "city": "AMADORA",
      "lon": "-9.224995172628565",
      "lat": "38.750328043003734"
    },
    {
      "id": "pt.ine.add.PTCONT.3322992",
      "street": "AV ANTÓNIO SÉRGIO",
      "house": "14",
      "postcode": "2720-048",
      "city": "AMADORA",
      "lon": "-9.224995172628565",
      "lat": "38.750328043003734"
    },
    {
      "id": "pt.ine.add.PTCONT.3322993",
      "street": "AV ANTÓNIO SÉRGIO",
      "house": "14",
      "postcode": "2720-048",
      "city": "AMADORA",
      "lon": "-9.224995172628565",
      "lat": "38.750328043003734"
    },
    {
      "id": "pt.ine.add.PTCONT.3322994",
      "street": "AV ANTÓNIO SÉRGIO",
      "house": "14",
      "postcode": "2720-048",
      "city": "AMADORA",
      "lon": "-9.224995172628565",
      "lat": "38.750328043003734"
    },
    {
      "id": "pt.ine.add.PTCONT.3322995",
      "street": "AV ANTÓNIO SÉRGIO",
      "house": "14",
      "postcode": "2720-048",
      "city": "AMADORA",
      "lon": "-9.224995172628565",
      "lat": "38.750328043003734"
    },
    {
      "id": "pt.ine.add.PTCONT.3322996",
      "street": "AV ANTÓNIO SÉRGIO",
      "house": "14",
      "postcode": "2720-048",
      "city": "AMADORA",
      "lon": "-9.224995172628565",
      "lat": "38.750328043003734"
    },
    {
      "id": "pt.ine.add.PTCONT.3322997",
      "street": "AV ANTÓNIO SÉRGIO",
      "house": "14",
      "postcode": "2720-048",
      "city": "AMADORA",
      "lon": "-9.224995172628565",
      "lat": "38.750328043003734"
    },
    {
      "id": "pt.ine.add.PTCONT.3322998",
      "street": "AV ANTÓNIO SÉRGIO",
      "house": "14",
      "postcode": "2720-048",
      "city": "AMADORA",
      "lon": "-9.224995172628565",
      "lat": "38.750328043003734"
    },
    {
      "id": "pt.ine.add.PTCONT.3322999",
      "street": "AV ANTÓNIO SÉRGIO",
      "house": "14",
      "postcode": "2720-048",
      "city": "AMADORA",
      "lon": "-9.224995172628565",
      "lat": "38.750328043003734"
    },
    {
      "id": "pt.ine.add.PTCONT.3323000",
      "street": "AV ANTÓNIO SÉRGIO",
      "house": "14",
      "postcode": "2720-048",
      "city": "AMADORA",
      "lon": "-9.224995172628565",
      "lat": "38.750328043003734"
    },
    {
      "id": "pt.ine.add.PTCONT.3323001",
      "street": "AV ANTÓNIO SÉRGIO",
      "house": "14",
      "postcode": "2720-048",
      "city": "AMADORA",
      "lon": "-9.224995172628565",
      "lat": "38.750328043003734"
    },
    {
      "id": "pt.ine.add.PTCONT.3323002",
      "street": "AV ANTÓNIO SÉRGIO",
      "house": "14",
      "postcode": "2720-048",
      "city": "AMADORA",
      "lon": "-9.224995172628565",
      "lat": "38.750328043003734"
    },
    {
      "id": "pt.ine.add.PTCONT.3323003",
      "street": "AV ANTÓNIO SÉRGIO",
      "house": "14",
      "postcode": "2720-048",
      "city": "AMADORA",
      "lon": "-9.224995172628565",
      "lat": "38.750328043003734"
    },
    {
      "id": "pt.ine.add.PTCONT.3323004",
      "street": "AV ANTÓNIO SÉRGIO",
      "house": "14",
      "postcode": "2720-048",
      "city": "AMADORA",
      "lon": "-9.224995172628565",
      "lat": "38.750328043003734"
    },
    {
      "id": "pt.ine.add.PTCONT.3323005",
      "street": "AV ANTÓNIO SÉRGIO",
      "house": "14",
      "postcode": "2720-048",
      "city": "AMADORA",
      "lon": "-9.224995172628565",
      "lat": "38.750328043003734"
    },
    {
      "id": "pt.ine.add.PTCONT.3323006",
      "street": "AV ANTÓNIO SÉRGIO",
      "house": "14",
      "postcode": "2720-048",
      "city": "AMADORA",
      "lon": "-9.224995172628565",
      "lat": "38.750328043003734"
    },
    {
      "id": "pt.ine.add.PTCONT.3323007",
      "street": "AV ANTÓNIO SÉRGIO",
      "house": "14",
      "postcode": "2720-048",
      "city": "AMADORA",
      "lon": "-9.224995172628565",
      "lat": "38.750328043003734"
    },
    {
      "id": "pt.ine.add.PTCONT.3323008",
      "street": "AV ANTÓNIO SÉRGIO",
      "house": "14",
      "postcode": "2720-048",
      "city": "AMADORA",
      "lon": "-9.224995172628565",
      "lat": "38.750328043003734"
    },
    {
      "id": "pt.ine.add.PTCONT.3323009",
      "street": "AV ANTÓNIO SÉRGIO",
      "house": "14",
      "postcode": "2720-048",
      "city": "AMADORA",
      "lon": "-9.224995172628565",
      "lat": "38.750328043003734"
    },
    {
      "id": "pt.ine.add.PTCONT.3405285",
      "street": "AV ANTÓNIO SÉRGIO",
      "house": "1",
      "postcode": "2720-045",
      "city": "AMADORA",
      "lon": "-9.226535027779653",
      "lat": "38.750980223301696"
    },
    {
      "id": "pt.ine.add.PTCONT.3405286",
      "street": "AV ANTÓNIO SÉRGIO",
      "house": "1",
      "postcode": "2720-045",
      "city": "AMADORA",
      "lon": "-9.226535027779653",
      "lat": "38.750980223301696"
    },
    {
      "id": "pt.ine.add.PTCONT.3405287",
      "street": "AV ANTÓNIO SÉRGIO",
      "house": "1",
      "postcode": "2720-045",
      "city": "AMADORA",
      "lon": "-9.226535027779653",
      "lat": "38.750980223301696"
    },
    {
      "id": "pt.ine.add.PTCONT.3405288",
      "street": "AV ANTÓNIO SÉRGIO",
      "house": "1",
      "postcode": "2720-045",
      "city": "AMADORA",
      "lon": "-9.226535027779653",
      "lat": "38.750980223301696"
    },
    {
      "id": "pt.ine.add.PTCONT.3405289",
      "street": "AV ANTÓNIO SÉRGIO",
      "house": "1",
      "postcode": "2720-045",
      "city": "AMADORA",
      "lon": "-9.226535027779653",
      "lat": "38.750980223301696"
    },
    {
      "id": "pt.ine.add.PTCONT.3405290",
      "street": "AV ANTÓNIO SÉRGIO",
      "house": "1",
      "postcode": "2720-045",
      "city": "AMADORA",
      "lon": "-9.226535027779653",
      "lat": "38.750980223301696"
    },
    {
      "id": "pt.ine.add.PTCONT.3405291",
      "street": "AV ANTÓNIO SÉRGIO",
      "house": "1",
      "postcode": "2720-045",
      "city": "AMADORA",
      "lon": "-9.226535027779653",
      "lat": "38.750980223301696"
    },
    {
      "id": "pt.ine.add.PTCONT.3405292",
      "street": "AV ANTÓNIO SÉRGIO",
      "house": "1",
      "postcode": "2720-045",
      "city": "AMADORA",
      "lon": "-9.226535027779653",
      "lat": "38.750980223301696"
    },
    {
      "id": "pt.ine.add.PTCONT.3405293",
      "street": "AV ANTÓNIO SÉRGIO",
      "house": "1",
      "postcode": "2720-045",
      "city": "AMADORA",
      "lon": "-9.226535027779653",
      "lat": "38.750980223301696"
    },
    {
      "id": "pt.ine.add.PTCONT.3405294",
      "street": "AV ANTÓNIO SÉRGIO",
      "house": "1",
      "postcode": "2720-045",
      "city": "AMADORA",
      "lon": "-9.226535027779653",
      "lat": "38.750980223301696"
    },
    {
      "id": "pt.ine.add.PTCONT.3405295",
      "street": "AV ANTÓNIO SÉRGIO",
      "house": "1",
      "postcode": "2720-045",
      "city": "AMADORA",
      "lon": "-9.226535027779653",
      "lat": "38.750980223301696"
    },
    {
      "id": "pt.ine.add.PTCONT.3405296",
      "street": "AV ANTÓNIO SÉRGIO",
      "house": "1",
      "postcode": "2720-045",
      "city": "AMADORA",
      "lon": "-9.226535027779653",
      "lat": "38.750980223301696"
    },
    {
      "id": "pt.ine.add.PTCONT.3405297",
      "street": "AV ANTÓNIO SÉRGIO",
      "house": "1",
      "postcode": "2720-045",
      "city": "AMADORA",
      "lon": "-9.226535027779653",
      "lat": "38.750980223301696"
    },
    {
      "id": "pt.ine.add.PTCONT.3405298",
      "street": "AV ANTÓNIO SÉRGIO",
      "house": "1",
      "postcode": "2720-045",
      "city": "AMADORA",
      "lon": "-9.226535027779653",
      "lat": "38.750980223301696"
    },
    {
      "id": "pt.ine.add.PTCONT.3405299",
      "street": "AV ANTÓNIO SÉRGIO",
      "house": "1",
      "postcode": "2720-045",
      "city": "AMADORA",
      "lon": "-9.226535027779653",
      "lat": "38.750980223301696"
    },
    {
      "id": "pt.ine.add.PTCONT.3405300",
      "street": "AV ANTÓNIO SÉRGIO",
      "house": "1",
      "postcode": "2720-045",
      "city": "AMADORA",
      "lon": "-9.226535027779653",
      "lat": "38.750980223301696"
    },
    {
      "id": "pt.ine.add.PTCONT.3405301",
      "street": "AV ANTÓNIO SÉRGIO",
      "house": "1",
      "postcode": "2720-045",
      "city": "AMADORA",
      "lon": "-9.226535027779653",
      "lat": "38.750980223301696"
    },
    {
      "id": "pt.ine.add.PTCONT.3405302",
      "street": "AV ANTÓNIO SÉRGIO",
      "house": "1",
      "postcode": "2720-045",
      "city": "AMADORA",
      "lon": "-9.226535027779653",
      "lat": "38.750980223301696"
    },
    {
      "id": "pt.ine.add.PTCONT.3405303",
      "street": "AV ANTÓNIO SÉRGIO",
      "house": "1",
      "postcode": "2720-045",
      "city": "AMADORA",
      "lon": "-9.226535027779653",
      "lat": "38.750980223301696"
    },
    {
      "id": "pt.ine.add.PTCONT.3405304",
      "street": "AV ANTÓNIO SÉRGIO",
      "house": "1",
      "postcode": "2720-045",
      "city": "AMADORA",
      "lon": "-9.226535027779653",
      "lat": "38.750980223301696"
    },
    {
      "id": "pt.ine.add.PTCONT.3405305",
      "street": "AV ANTÓNIO SÉRGIO",
      "house": "1",
      "postcode": "2720-045",
      "city": "AMADORA",
      "lon": "-9.226535027779653",
      "lat": "38.750980223301696"
    },
    {
      "id": "pt.ine.add.PTCONT.3405306",
      "street": "AV ANTÓNIO SÉRGIO",
      "house": "1",
      "postcode": "2720-045",
      "city": "AMADORA",
      "lon": "-9.226535027779653",
      "lat": "38.750980223301696"
    },
    {
      "id": "pt.ine.add.PTCONT.3405307",
      "street": "AV ANTÓNIO SÉRGIO",
      "house": "1",
      "postcode": "2720-045",
      "city": "AMADORA",
      "lon": "-9.226535027779653",
      "lat": "38.750980223301696"
    },
    {
      "id": "pt.ine.add.PTCONT.3405308",
      "street": "AV ANTÓNIO SÉRGIO",
      "house": "1",
      "postcode": "2720-045",
      "city": "AMADORA",
      "lon": "-9.226535027779653",
      "lat": "38.750980223301696"
    },
    {
      "id": "pt.ine.add.PTCONT.3405309",
      "street": "AV ANTÓNIO SÉRGIO",
      "house": "1",
      "postcode": "2720-045",
      "city": "AMADORA",
      "lon": "-9.226535027779653",
      "lat": "38.750980223301696"
    },
    {
      "id": "pt.ine.add.PTCONT.3405310",
      "street": "AV ANTÓNIO SÉRGIO",
      "house": "1",
      "postcode": "2720-045",
      "city": "AMADORA",
      "lon": "-9.226535027779653",
      "lat": "38.750980223301696"
    },
    {
      "id": "pt.ine.add.PTCONT.3405311",
      "street": "AV ANTÓNIO SÉRGIO",
      "house": "1",
      "postcode": "2720-045",
      "city": "AMADORA",
      "lon": "-9.226535027779653",
      "lat": "38.750980223301696"
    },
    {
      "id": "pt.ine.add.PTCONT.3405314",
      "street": "AV ANTÓNIO SÉRGIO",
      "house": "1",
      "postcode": "2720-045",
      "city": "AMADORA",
      "lon": "-9.226535027779653",
      "lat": "38.750980223301696"
    },
    {
      "id": "pt.ine.add.PTCONT.3437016",
      "street": "AV ANTÓNIO SÉRGIO",
      "house": "7",
      "postcode": "2720-046",
      "city": "AMADORA",
      "lon": "-9.225588471508875",
      "lat": "38.750763880165756"
    },
    {
      "id": "pt.ine.add.PTCONT.3443268",
      "street": "AV ANTÓNIO SÉRGIO",
      "house": "1",
      "postcode": "2720-045",
      "city": "AMADORA",
      "lon": "-9.226535027779653",
      "lat": "38.750980223301696"
    },
    {
      "id": "pt.ine.add.PTCONT.3445917",
      "street": "AV ANTÓNIO SÉRGIO",
      "house": "14",
      "postcode": "2720-048",
      "city": "AMADORA",
      "lon": "-9.224995172628565",
      "lat": "38.750328043003734"
    },
    {
      "id": "pt.ine.add.PTCONT.3445918",
      "street": "AV ANTÓNIO SÉRGIO",
      "house": "14",
      "postcode": "2720-048",
      "city": "AMADORA",
      "lon": "-9.224995172628565",
      "lat": "38.750328043003734"
    },
    {
      "id": "pt.ine.add.PTCONT.3445919",
      "street": "AV ANTÓNIO SÉRGIO",
      "house": "14",
      "postcode": "2720-048",
      "city": "AMADORA",
      "lon": "-9.224995172628565",
      "lat": "38.750328043003734"
    },
    {
      "id": "pt.ine.add.PTCONT.3448559",
      "street": "R VASCO GAMA FERNANDES",
      "house": "4",
      "postcode": "2720-538",
      "city": "AMADORA",
      "lon": "-9.224752957065066",
      "lat": "38.7502852666107"
    },
    {
      "id": "pt.ine.add.PTCONT.3456080",
      "street": "LG 1 DE DEZEMBRO",
      "house": "6",
      "postcode": "2720-464",
      "city": "AMADORA",
      "lon": "-9.22338182317514",
      "lat": "38.750135924694376"
    },
    {
      "id": "pt.ine.add.PTCONT.3456081",
      "street": "LG 1 DE DEZEMBRO",
      "house": "6",
      "postcode": "2720-464",
      "city": "AMADORA",
      "lon": "-9.22338182317514",
      "lat": "38.750135924694376"
    },
    {
      "id": "pt.ine.add.PTCONT.3456994",
      "street": "LG 1 DE DEZEMBRO",
      "house": "5",
      "postcode": "2720-464",
      "city": "AMADORA",
      "lon": "-9.223705369513016",
      "lat": "38.75023199176913"
    }
  ]
}