{
  "data": {
    "distrito": "Lisboa",
    "concelho": "Oeiras",
    "freguesia": "União das freguesias de Carnaxide e Queijas",
    "OBJECTID": 1213,
    "BGRI2021": "11101302407",
    "DT21": "11",
    "DTMN21": "1110",
    "DTMNFR21": "111013",
    "DTMNFRSEC21": "111013024",
    "SECNUM21": "024",
    "SSNUM21": "07",
    "SECSSNUM21": "02407",
    "OBJECTID_1": 110978,
    "DT": "11",
    "CC": "10",
    "fr": "13",
    "SEC": "024",
    "SS": "07"
  },
  "addresses": [
    {
      "id": "pt.ine.add.PTCONT.2353654",
      "street": "R AFONSO LOPES VIEIRA",
      "house": "19",
      "postcode": "2790-303",
      "city": "QUEIJAS",
      "lon": "-9.261638983665462",
      "lat": "38.71932649876216"
    },
    {
      "id": "pt.ine.add.PTCONT.2353655",
      "street": "R AFONSO LOPES VIEIRA",
      "house": "19",
      "postcode": "2790-303",
      "city": "QUEIJAS",
      "lon": "-9.261638983665462",
      "lat": "38.71932649876216"
    },
    {
      "id": "pt.ine.add.PTCONT.2353656",
      "street": "R AFONSO LOPES VIEIRA",
      "house": "19",
      "postcode": "2790-303",
      "city": "QUEIJAS",
      "lon": "-9.261638983665462",
      "lat": "38.71932649876216"
    },
    {
      "id": "pt.ine.add.PTCONT.2353660",
      "street": "R AFONSO LOPES VIEIRA",
      "house": "19",
      "postcode": "2790-303",
      "city": "QUEIJAS",
      "lon": "-9.261638983665462",
      "lat": "38.71932649876216"
    },
    {
      "id": "pt.ine.add.PTCONT.2353661",
      "street": "R AFONSO LOPES VIEIRA",
      "house": "19",
      "postcode": "2790-303",
      "city": "QUEIJAS",
      "lon": "-9.261638983665462",
      "lat": "38.71932649876216"
    },
    {
      "id": "pt.ine.add.PTCONT.2353662",
      "street": "R AFONSO LOPES VIEIRA",
      "house": "19",
      "postcode": "2790-303",
      "city": "QUEIJAS",
      "lon": "-9.261638983665462",
      "lat": "38.71932649876216"
    },
    {
      "id": "pt.ine.add.PTCONT.2353663",
      "street": "R AFONSO LOPES VIEIRA",
      "house": "19",
      "postcode": "2790-303",
      "city": "QUEIJAS",
      "lon": "-9.261638983665462",
      "lat": "38.71932649876216"
    },
    {
      "id": "pt.ine.add.PTCONT.2353664",
      "street": "R AFONSO LOPES VIEIRA",
      "house": "19",
      "postcode": "2790-303",
      "city": "QUEIJAS",
      "lon": "-9.261638983665462",
      "lat": "38.71932649876216"
    },
    {
      "id": "pt.ine.add.PTCONT.2362557",
      "street": "R GIL VICENTE",
      "house": "13",
      "postcode": "2790-352",
      "city": "QUEIJAS",
      "lon": "-9.261796106593922",
      "lat": "38.719081771237995"
    },
    {
      "id": "pt.ine.add.PTCONT.2362558",
      "street": "R GIL VICENTE",
      "house": "13",
      "postcode": "2790-352",
      "city": "QUEIJAS",
      "lon": "-9.261796106593922",
      "lat": "38.719081771237995"
    },
    {
      "id": "pt.ine.add.PTCONT.2362559",
      "street": "R GIL VICENTE",
      "house": "13",
      "postcode": "2790-352",
      "city": "QUEIJAS",
      "lon": "-9.261796106593922",
      "lat": "38.719081771237995"
    },
    {
      "id": "pt.ine.add.PTCONT.2362560",
      "street": "R GIL VICENTE",
      "house": "13",
      "postcode": "2790-352",
      "city": "QUEIJAS",
      "lon": "-9.261796106593922",
      "lat": "38.719081771237995"
    },
    {
      "id": "pt.ine.add.PTCONT.2362561",
      "street": "R GIL VICENTE",
      "house": "13",
      "postcode": "2790-352",
      "city": "QUEIJAS",
      "lon": "-9.261796106593922",
      "lat": "38.719081771237995"
    },
    {
      "id": "pt.ine.add.PTCONT.2362562",
      "street": "R GIL VICENTE",
      "house": "13",
      "postcode": "2790-352",
      "city": "QUEIJAS",
      "lon": "-9.261796106593922",
      "lat": "38.719081771237995"
    },
    {
      "id": "pt.ine.add.PTCONT.2362563",
      "street": "R GIL VICENTE",
      "house": "13",
      "postcode": "2790-352",
      "city": "QUEIJAS",
      "lon": "-9.261796106593922",
      "lat": "38.719081771237995"
    },
    {
      "id": "pt.ine.add.PTCONT.2365074",
      "street": "R GIL VICENTE",
      "house": "13",
      "postcode": "2790-352",
      "city": "QUEIJAS",
      "lon": "-9.261796106593922",
      "lat": "38.719081771237995"
    },
    {
      "id": "pt.ine.add.PTCONT.2412379",
      "street": "R AFONSO LOPES VIEIRA",
      "house": "11",
      "postcode": "2790-303",
      "city": "QUEIJAS",
      "lon": "-9.261111428164348",
      "lat": "38.7194126604229"
    },
    {
      "id": "pt.ine.add.PTCONT.2412380",
      "street": "R AFONSO LOPES VIEIRA",
      "house": "11",
      "postcode": "2790-303",
      "city": "QUEIJAS",
      "lon": "-9.261111428164348",
      "lat": "38.7194126604229"
    },
    {
      "id": "pt.ine.add.PTCONT.2412381",
      "street": "R AFONSO LOPES VIEIRA",
      "house": "11",
      "postcode": "2790-303",
      "city": "QUEIJAS",
      "lon": "-9.261111428164348",
      "lat": "38.7194126604229"
    },
    {
      "id": "pt.ine.add.PTCONT.2412382",
      "street": "R AFONSO LOPES VIEIRA",
      "house": "11",
      "postcode": "2790-303",
      "city": "QUEIJAS",
      "lon": "-9.261111428164348",
      "lat": "38.7194126604229"
    },
    {
      "id": "pt.ine.add.PTCONT.2412383",
      "street": "R AFONSO LOPES VIEIRA",
      "house": "11",
      "postcode": "2790-303",
      "city": "QUEIJAS",
      "lon": "-9.261111428164348",
      "lat": "38.7194126604229"
    },
    {
      "id": "pt.ine.add.PTCONT.2412397",
      "street": "R AFONSO LOPES VIEIRA",
      "house": "11",
      "postcode": "2790-303",
      "city": "QUEIJAS",
      "lon": "-9.261111428164348",
      "lat": "38.7194126604229"
    },
    {
      "id": "pt.ine.add.PTCONT.2412398",
      "street": "R AFONSO LOPES VIEIRA",
      "house": "11",
      "postcode": "2790-303",
      "city": "QUEIJAS",
      "lon": "-9.261111428164348",
      "lat": "38.7194126604229"
    },
    {
      "id": "pt.ine.add.PTCONT.2412400",
      "street": "R AFONSO LOPES VIEIRA",
      "house": "11",
      "postcode": "2790-303",
      "city": "QUEIJAS",
      "lon": "-9.261111428164348",
      "lat": "38.7194126604229"
    },
    {
      "id": "pt.ine.add.PTCONT.2464132",
      "street": "R AFONSO LOPES VIEIRA",
      "house": "9",
      "postcode": "2790-303",
      "city": "QUEIJAS",
      "lon": "-9.260962542355578",
      "lat": "38.71945012810053"
    },
    {
      "id": "pt.ine.add.PTCONT.2464133",
      "street": "R AFONSO LOPES VIEIRA",
      "house": "9",
      "postcode": "2790-303",
      "city": "QUEIJAS",
      "lon": "-9.260962542355578",
      "lat": "38.71945012810053"
    },
    {
      "id": "pt.ine.add.PTCONT.2464134",
      "street": "R AFONSO LOPES VIEIRA",
      "house": "9",
      "postcode": "2790-303",
      "city": "QUEIJAS",
      "lon": "-9.260962542355578",
      "lat": "38.71945012810053"
    },
    {
      "id": "pt.ine.add.PTCONT.2464135",
      "street": "R AFONSO LOPES VIEIRA",
      "house": "9",
      "postcode": "2790-303",
      "city": "QUEIJAS",
      "lon": "-9.260962542355578",
      "lat": "38.71945012810053"
    },
    {
      "id": "pt.ine.add.PTCONT.2464136",
      "street": "R AFONSO LOPES VIEIRA",
      "house": "9",
      "postcode": "2790-303",
      "city": "QUEIJAS",
      "lon": "-9.260962542355578",
      "lat": "38.71945012810053"
    },
    {
      "id": "pt.ine.add.PTCONT.2464137",
      "street": "R AFONSO LOPES VIEIRA",
      "house": "9",
      "postcode": "2790-303",
      "city": "QUEIJAS",
      "lon": "-9.260962542355578",
      "lat": "38.71945012810053"
    },
    {
      "id": "pt.ine.add.PTCONT.2464138",
      "street": "R AFONSO LOPES VIEIRA",
      "house": "9",
      "postcode": "2790-303",
      "city": "QUEIJAS",
      "lon": "-9.260962542355578",
      "lat": "38.71945012810053"
    },
    {
      "id": "pt.ine.add.PTCONT.2464139",
      "street": "R AFONSO LOPES VIEIRA",
      "house": "9",
      "postcode": "2790-303",
      "city": "QUEIJAS",
      "lon": "-9.260962542355578",
      "lat": "38.71945012810053"
    },
    {
      "id": "pt.ine.add.PTCONT.2464140",
      "street": "R GIL VICENTE",
      "house": "27",
      "postcode": "2790-352",
      "city": "QUEIJAS",
      "lon": "-9.260741564440098",
      "lat": "38.71929011931381"
    },
    {
      "id": "pt.ine.add.PTCONT.2464141",
      "street": "R GIL VICENTE",
      "house": "27",
      "postcode": "2790-352",
      "city": "QUEIJAS",
      "lon": "-9.260741564440098",
      "lat": "38.71929011931381"
    },
    {
      "id": "pt.ine.add.PTCONT.2464142",
      "street": "R GIL VICENTE",
      "house": "27",
      "postcode": "2790-352",
      "city": "QUEIJAS",
      "lon": "-9.260741564440098",
      "lat": "38.71929011931381"
    },
    {
      "id": "pt.ine.add.PTCONT.2464143",
      "street": "R GIL VICENTE",
      "house": "27",
      "postcode": "2790-352",
      "city": "QUEIJAS",
      "lon": "-9.260741564440098",
      "lat": "38.71929011931381"
    },
    {
      "id": "pt.ine.add.PTCONT.2464144",
      "street": "R GIL VICENTE",
      "house": "27",
      "postcode": "2790-352",
      "city": "QUEIJAS",
      "lon": "-9.260741564440098",
      "lat": "38.71929011931381"
    },
    {
      "id": "pt.ine.add.PTCONT.2465968",
      "street": "R GIL VICENTE",
      "house": "27",
      "postcode": "2790-352",
      "city": "QUEIJAS",
      "lon": "-9.260741564440098",
      "lat": "38.71929011931381"
    },
    {
      "id": "pt.ine.add.PTCONT.2469914",
      "street": "R GIL VICENTE",
      "house": "17",
      "postcode": "2790-352",
      "city": "QUEIJAS",
      "lon": "-9.261544746959794",
      "lat": "38.71918328357083"
    },
    {
      "id": "pt.ine.add.PTCONT.2470097",
      "street": "R GIL VICENTE",
      "house": "17",
      "postcode": "2790-352",
      "city": "QUEIJAS",
      "lon": "-9.261544746959794",
      "lat": "38.71918328357083"
    },
    {
      "id": "pt.ine.add.PTCONT.2470098",
      "street": "R GIL VICENTE",
      "house": "17",
      "postcode": "2790-352",
      "city": "QUEIJAS",
      "lon": "-9.261544746959794",
      "lat": "38.71918328357083"
    },
    {
      "id": "pt.ine.add.PTCONT.2470099",
      "street": "R GIL VICENTE",
      "house": "17",
      "postcode": "2790-352",
      "city": "QUEIJAS",
      "lon": "-9.261544746959794",
      "lat": "38.71918328357083"
    },
    {
      "id": "pt.ine.add.PTCONT.2470100",
      "street": "R GIL VICENTE",
      "house": "17",
      "postcode": "2790-352",
      "city": "QUEIJAS",
      "lon": "-9.261544746959794",
      "lat": "38.71918328357083"
    },
    {
      "id": "pt.ine.add.PTCONT.2470101",
      "street": "R GIL VICENTE",
      "house": "17",
      "postcode": "2790-352",
      "city": "QUEIJAS",
      "lon": "-9.261544746959794",
      "lat": "38.71918328357083"
    },
    {
      "id": "pt.ine.add.PTCONT.2470102",
      "street": "R GIL VICENTE",
      "house": "17",
      "postcode": "2790-352",
      "city": "QUEIJAS",
      "lon": "-9.261544746959794",
      "lat": "38.71918328357083"
    },
    {
      "id": "pt.ine.add.PTCONT.2535750",
      "street": "R AFONSO LOPES VIEIRA",
      "house": "23",
      "postcode": "2790-303",
      "city": "QUEIJAS",
      "lon": "-9.261902690075129",
      "lat": "38.71927891382847"
    },
    {
      "id": "pt.ine.add.PTCONT.2535751",
      "street": "R AFONSO LOPES VIEIRA",
      "house": "23",
      "postcode": "2790-303",
      "city": "QUEIJAS",
      "lon": "-9.261902690075129",
      "lat": "38.71927891382847"
    },
    {
      "id": "pt.ine.add.PTCONT.2535752",
      "street": "R AFONSO LOPES VIEIRA",
      "house": "23",
      "postcode": "2790-303",
      "city": "QUEIJAS",
      "lon": "-9.261902690075129",
      "lat": "38.71927891382847"
    },
    {
      "id": "pt.ine.add.PTCONT.2535753",
      "street": "R AFONSO LOPES VIEIRA",
      "house": "23",
      "postcode": "2790-303",
      "city": "QUEIJAS",
      "lon": "-9.261902690075129",
      "lat": "38.71927891382847"
    },
    {
      "id": "pt.ine.add.PTCONT.2535754",
      "street": "R AFONSO LOPES VIEIRA",
      "house": "23",
      "postcode": "2790-303",
      "city": "QUEIJAS",
      "lon": "-9.261902690075129",
      "lat": "38.71927891382847"
    },
    {
      "id": "pt.ine.add.PTCONT.2535755",
      "street": "R AFONSO LOPES VIEIRA",
      "house": "23",
      "postcode": "2790-303",
      "city": "QUEIJAS",
      "lon": "-9.261902690075129",
      "lat": "38.71927891382847"
    },
    {
      "id": "pt.ine.add.PTCONT.2535756",
      "street": "R AFONSO LOPES VIEIRA",
      "house": "23",
      "postcode": "2790-303",
      "city": "QUEIJAS",
      "lon": "-9.261902690075129",
      "lat": "38.71927891382847"
    },
    {
      "id": "pt.ine.add.PTCONT.2535757",
      "street": "R AFONSO LOPES VIEIRA",
      "house": "23",
      "postcode": "2790-303",
      "city": "QUEIJAS",
      "lon": "-9.261902690075129",
      "lat": "38.71927891382847"
    },
    {
      "id": "pt.ine.add.PTCONT.2566326",
      "street": "R AFONSO LOPES VIEIRA",
      "house": "13",
      "postcode": "2790-303",
      "city": "QUEIJAS",
      "lon": "-9.261249667153498",
      "lat": "38.71942934211407"
    },
    {
      "id": "pt.ine.add.PTCONT.2566327",
      "street": "R AFONSO LOPES VIEIRA",
      "house": "13",
      "postcode": "2790-303",
      "city": "QUEIJAS",
      "lon": "-9.261249667153498",
      "lat": "38.71942934211407"
    },
    {
      "id": "pt.ine.add.PTCONT.2566328",
      "street": "R AFONSO LOPES VIEIRA",
      "house": "13",
      "postcode": "2790-303",
      "city": "QUEIJAS",
      "lon": "-9.261249667153498",
      "lat": "38.71942934211407"
    },
    {
      "id": "pt.ine.add.PTCONT.2566329",
      "street": "R AFONSO LOPES VIEIRA",
      "house": "13",
      "postcode": "2790-303",
      "city": "QUEIJAS",
      "lon": "-9.261249667153498",
      "lat": "38.71942934211407"
    },
    {
      "id": "pt.ine.add.PTCONT.2566330",
      "street": "R AFONSO LOPES VIEIRA",
      "house": "13",
      "postcode": "2790-303",
      "city": "QUEIJAS",
      "lon": "-9.261249667153498",
      "lat": "38.71942934211407"
    },
    {
      "id": "pt.ine.add.PTCONT.2566331",
      "street": "R AFONSO LOPES VIEIRA",
      "house": "13",
      "postcode": "2790-303",
      "city": "QUEIJAS",
      "lon": "-9.261249667153498",
      "lat": "38.71942934211407"
    },
    {
      "id": "pt.ine.add.PTCONT.2566332",
      "street": "R AFONSO LOPES VIEIRA",
      "house": "13",
      "postcode": "2790-303",
      "city": "QUEIJAS",
      "lon": "-9.261249667153498",
      "lat": "38.71942934211407"
    },
    {
      "id": "pt.ine.add.PTCONT.2566337",
      "street": "R AFONSO LOPES VIEIRA",
      "house": "13",
      "postcode": "2790-303",
      "city": "QUEIJAS",
      "lon": "-9.261249667153498",
      "lat": "38.71942934211407"
    },
    {
      "id": "pt.ine.add.PTCONT.2626477",
      "street": "R GIL VICENTE",
      "house": "15",
      "postcode": "2790-352",
      "city": "QUEIJAS",
      "lon": "-9.261658576454215",
      "lat": "38.71911012236111"
    },
    {
      "id": "pt.ine.add.PTCONT.2626478",
      "street": "R GIL VICENTE",
      "house": "15",
      "postcode": "2790-352",
      "city": "QUEIJAS",
      "lon": "-9.261658576454215",
      "lat": "38.71911012236111"
    },
    {
      "id": "pt.ine.add.PTCONT.2626479",
      "street": "R GIL VICENTE",
      "house": "15",
      "postcode": "2790-352",
      "city": "QUEIJAS",
      "lon": "-9.261658576454215",
      "lat": "38.71911012236111"
    },
    {
      "id": "pt.ine.add.PTCONT.2626480",
      "street": "R GIL VICENTE",
      "house": "15",
      "postcode": "2790-352",
      "city": "QUEIJAS",
      "lon": "-9.261658576454215",
      "lat": "38.71911012236111"
    },
    {
      "id": "pt.ine.add.PTCONT.2626481",
      "street": "R GIL VICENTE",
      "house": "15",
      "postcode": "2790-352",
      "city": "QUEIJAS",
      "lon": "-9.261658576454215",
      "lat": "38.71911012236111"
    },
    {
      "id": "pt.ine.add.PTCONT.2626643",
      "street": "R GIL VICENTE",
      "house": "15",
      "postcode": "2790-352",
      "city": "QUEIJAS",
      "lon": "-9.261658576454215",
      "lat": "38.71911012236111"
    },
    {
      "id": "pt.ine.add.PTCONT.2626644",
      "street": "R GIL VICENTE",
      "house": "15",
      "postcode": "2790-352",
      "city": "QUEIJAS",
      "lon": "-9.261658576454215",
      "lat": "38.71911012236111"
    },
    {
      "id": "pt.ine.add.PTCONT.2626645",
      "street": "R GIL VICENTE",
      "house": "15",
      "postcode": "2790-352",
      "city": "QUEIJAS",
      "lon": "-9.261658576454215",
      "lat": "38.71911012236111"
    },
    {
      "id": "pt.ine.add.PTCONT.2741835",
      "street": "R AFONSO LOPES VIEIRA",
      "house": "15",
      "postcode": "2790-303",
      "city": "QUEIJAS",
      "lon": "-9.261375135268455",
      "lat": "38.719365076669966"
    },
    {
      "id": "pt.ine.add.PTCONT.2741836",
      "street": "R AFONSO LOPES VIEIRA",
      "house": "15",
      "postcode": "2790-303",
      "city": "QUEIJAS",
      "lon": "-9.261375135268455",
      "lat": "38.719365076669966"
    },
    {
      "id": "pt.ine.add.PTCONT.2741837",
      "street": "R AFONSO LOPES VIEIRA",
      "house": "15",
      "postcode": "2790-303",
      "city": "QUEIJAS",
      "lon": "-9.261375135268455",
      "lat": "38.719365076669966"
    },
    {
      "id": "pt.ine.add.PTCONT.2741838",
      "street": "R AFONSO LOPES VIEIRA",
      "house": "15",
      "postcode": "2790-303",
      "city": "QUEIJAS",
      "lon": "-9.261375135268455",
      "lat": "38.719365076669966"
    },
    {
      "id": "pt.ine.add.PTCONT.2741953",
      "street": "R AFONSO LOPES VIEIRA",
      "house": "15",
      "postcode": "2790-303",
      "city": "QUEIJAS",
      "lon": "-9.261375135268455",
      "lat": "38.719365076669966"
    },
    {
      "id": "pt.ine.add.PTCONT.2743686",
      "street": "R AFONSO LOPES VIEIRA",
      "house": "15",
      "postcode": "2790-303",
      "city": "QUEIJAS",
      "lon": "-9.261375135268455",
      "lat": "38.719365076669966"
    },
    {
      "id": "pt.ine.add.PTCONT.2744168",
      "street": "R AFONSO LOPES VIEIRA",
      "house": "15",
      "postcode": "2790-303",
      "city": "QUEIJAS",
      "lon": "-9.261375135268455",
      "lat": "38.719365076669966"
    },
    {
      "id": "pt.ine.add.PTCONT.2783641",
      "street": "R ANTÓNIO FELICIANO DE CASTILHO",
      "house": "29",
      "postcode": "2790-307",
      "city": "QUEIJAS",
      "lon": "-9.259913265160813",
      "lat": "38.71926207458205"
    },
    {
      "id": "pt.ine.add.PTCONT.2783642",
      "street": "R ANTÓNIO FELICIANO DE CASTILHO",
      "house": "29",
      "postcode": "2790-307",
      "city": "QUEIJAS",
      "lon": "-9.259913265160813",
      "lat": "38.71926207458205"
    },
    {
      "id": "pt.ine.add.PTCONT.2783643",
      "street": "R ANTÓNIO FELICIANO DE CASTILHO",
      "house": "29",
      "postcode": "2790-307",
      "city": "QUEIJAS",
      "lon": "-9.259913265160813",
      "lat": "38.71926207458205"
    },
    {
      "id": "pt.ine.add.PTCONT.2783644",
      "street": "R ANTÓNIO FELICIANO DE CASTILHO",
      "house": "29",
      "postcode": "2790-307",
      "city": "QUEIJAS",
      "lon": "-9.259913265160813",
      "lat": "38.71926207458205"
    },
    {
      "id": "pt.ine.add.PTCONT.2783645",
      "street": "R ANTÓNIO FELICIANO DE CASTILHO",
      "house": "29",
      "postcode": "2790-307",
      "city": "QUEIJAS",
      "lon": "-9.259913265160813",
      "lat": "38.71926207458205"
    },
    {
      "id": "pt.ine.add.PTCONT.2783646",
      "street": "R ANTÓNIO FELICIANO DE CASTILHO",
      "house": "29",
      "postcode": "2790-307",
      "city": "QUEIJAS",
      "lon": "-9.259913265160813",
      "lat": "38.71926207458205"
    },
    {
      "id": "pt.ine.add.PTCONT.2783796",
      "street": "R ANTÓNIO FELICIANO DE CASTILHO",
      "house": "29",
      "postcode": "2790-307",
      "city": "QUEIJAS",
      "lon": "-9.259913265160813",
      "lat": "38.71926207458205"
    },
    {
      "id": "pt.ine.add.PTCONT.2788729",
      "street": "R ANTÓNIO FELICIANO DE CASTILHO",
      "house": "29",
      "postcode": "2790-307",
      "city": "QUEIJAS",
      "lon": "-9.259913265160813",
      "lat": "38.71926207458205"
    },
    {
      "id": "pt.ine.add.PTCONT.2892225",
      "street": "R GIL VICENTE",
      "house": "19",
      "postcode": "2790-352",
      "city": "QUEIJAS",
      "lon": "-9.26138379908516",
      "lat": "38.7191848369987"
    },
    {
      "id": "pt.ine.add.PTCONT.2892226",
      "street": "R GIL VICENTE",
      "house": "19",
      "postcode": "2790-352",
      "city": "QUEIJAS",
      "lon": "-9.26138379908516",
      "lat": "38.7191848369987"
    },
    {
      "id": "pt.ine.add.PTCONT.2892227",
      "street": "R GIL VICENTE",
      "house": "19",
      "postcode": "2790-352",
      "city": "QUEIJAS",
      "lon": "-9.26138379908516",
      "lat": "38.7191848369987"
    },
    {
      "id": "pt.ine.add.PTCONT.2892228",
      "street": "R GIL VICENTE",
      "house": "19",
      "postcode": "2790-352",
      "city": "QUEIJAS",
      "lon": "-9.26138379908516",
      "lat": "38.7191848369987"
    },
    {
      "id": "pt.ine.add.PTCONT.2892229",
      "street": "R GIL VICENTE",
      "house": "19",
      "postcode": "2790-352",
      "city": "QUEIJAS",
      "lon": "-9.26138379908516",
      "lat": "38.7191848369987"
    },
    {
      "id": "pt.ine.add.PTCONT.2892230",
      "street": "R GIL VICENTE",
      "house": "19",
      "postcode": "2790-352",
      "city": "QUEIJAS",
      "lon": "-9.26138379908516",
      "lat": "38.7191848369987"
    },
    {
      "id": "pt.ine.add.PTCONT.2892231",
      "street": "R GIL VICENTE",
      "house": "19",
      "postcode": "2790-352",
      "city": "QUEIJAS",
      "lon": "-9.26138379908516",
      "lat": "38.7191848369987"
    },
    {
      "id": "pt.ine.add.PTCONT.2892232",
      "street": "R GIL VICENTE",
      "house": "19",
      "postcode": "2790-352",
      "city": "QUEIJAS",
      "lon": "-9.26138379908516",
      "lat": "38.7191848369987"
    },
    {
      "id": "pt.ine.add.PTCONT.2970670",
      "street": "R GIL VICENTE",
      "house": "25",
      "postcode": "2790-352",
      "city": "QUEIJAS",
      "lon": "-9.260857659870581",
      "lat": "38.71936106187445"
    },
    {
      "id": "pt.ine.add.PTCONT.2970671",
      "street": "R GIL VICENTE",
      "house": "25",
      "postcode": "2790-352",
      "city": "QUEIJAS",
      "lon": "-9.260857659870581",
      "lat": "38.71936106187445"
    },
    {
      "id": "pt.ine.add.PTCONT.2970672",
      "street": "R GIL VICENTE",
      "house": "25",
      "postcode": "2790-352",
      "city": "QUEIJAS",
      "lon": "-9.260857659870581",
      "lat": "38.71936106187445"
    },
    {
      "id": "pt.ine.add.PTCONT.2970673",
      "street": "R GIL VICENTE",
      "house": "25",
      "postcode": "2790-352",
      "city": "QUEIJAS",
      "lon": "-9.260857659870581",
      "lat": "38.71936106187445"
    },
    {
      "id": "pt.ine.add.PTCONT.2970674",
      "street": "R GIL VICENTE",
      "house": "25",
      "postcode": "2790-352",
      "city": "QUEIJAS",
      "lon": "-9.260857659870581",
      "lat": "38.71936106187445"
    },
    {
      "id": "pt.ine.add.PTCONT.2970675",
      "street": "R GIL VICENTE",
      "house": "25",
      "postcode": "2790-352",
      "city": "QUEIJAS",
      "lon": "-9.260857659870581",
      "lat": "38.71936106187445"
    },
    {
      "id": "pt.ine.add.PTCONT.2970676",
      "street": "R GIL VICENTE",
      "house": "25",
      "postcode": "2790-352",
      "city": "QUEIJAS",
      "lon": "-9.260857659870581",
      "lat": "38.71936106187445"
    },
    {
      "id": "pt.ine.add.PTCONT.2970677",
      "street": "R GIL VICENTE",
      "house": "25",
      "postcode": "2790-352",
      "city": "QUEIJAS",
      "lon": "-9.260857659870581",
      "lat": "38.71936106187445"
    },
    {
      "id": "pt.ine.add.PTCONT.3133222",
      "street": "R GIL VICENTE",
      "house": "29",
      "postcode": "2790-352",
      "city": "QUEIJAS",
      "lon": "-9.2605919710538",
      "lat": "38.71928255432813"
    },
    {
      "id": "pt.ine.add.PTCONT.3133223",
      "street": "R GIL VICENTE",
      "house": "29",
      "postcode": "2790-352",
      "city": "QUEIJAS",
      "lon": "-9.2605919710538",
      "lat": "38.71928255432813"
    },
    {
      "id": "pt.ine.add.PTCONT.3133234",
      "street": "R GIL VICENTE",
      "house": "29",
      "postcode": "2790-352",
      "city": "QUEIJAS",
      "lon": "-9.2605919710538",
      "lat": "38.71928255432813"
    },
    {
      "id": "pt.ine.add.PTCONT.3133235",
      "street": "R GIL VICENTE",
      "house": "29",
      "postcode": "2790-352",
      "city": "QUEIJAS",
      "lon": "-9.2605919710538",
      "lat": "38.71928255432813"
    },
    {
      "id": "pt.ine.add.PTCONT.3133236",
      "street": "R GIL VICENTE",
      "house": "29",
      "postcode": "2790-352",
      "city": "QUEIJAS",
      "lon": "-9.2605919710538",
      "lat": "38.71928255432813"
    },
    {
      "id": "pt.ine.add.PTCONT.3133237",
      "street": "R GIL VICENTE",
      "house": "29",
      "postcode": "2790-352",
      "city": "QUEIJAS",
      "lon": "-9.2605919710538",
      "lat": "38.71928255432813"
    },
    {
      "id": "pt.ine.add.PTCONT.3133238",
      "street": "R GIL VICENTE",
      "house": "29",
      "postcode": "2790-352",
      "city": "QUEIJAS",
      "lon": "-9.2605919710538",
      "lat": "38.71928255432813"
    },
    {
      "id": "pt.ine.add.PTCONT.3205959",
      "street": "R AFONSO LOPES VIEIRA",
      "house": "25",
      "postcode": "2790-303",
      "city": "QUEIJAS",
      "lon": "-9.262052283550833",
      "lat": "38.71928647713478"
    },
    {
      "id": "pt.ine.add.PTCONT.3205960",
      "street": "R AFONSO LOPES VIEIRA",
      "house": "25",
      "postcode": "2790-303",
      "city": "QUEIJAS",
      "lon": "-9.262052283550833",
      "lat": "38.71928647713478"
    },
    {
      "id": "pt.ine.add.PTCONT.3205961",
      "street": "R AFONSO LOPES VIEIRA",
      "house": "25",
      "postcode": "2790-303",
      "city": "QUEIJAS",
      "lon": "-9.262052283550833",
      "lat": "38.71928647713478"
    },
    {
      "id": "pt.ine.add.PTCONT.3205962",
      "street": "R AFONSO LOPES VIEIRA",
      "house": "25",
      "postcode": "2790-303",
      "city": "QUEIJAS",
      "lon": "-9.262052283550833",
      "lat": "38.71928647713478"
    },
    {
      "id": "pt.ine.add.PTCONT.3205963",
      "street": "R AFONSO LOPES VIEIRA",
      "house": "25",
      "postcode": "2790-303",
      "city": "QUEIJAS",
      "lon": "-9.262052283550833",
      "lat": "38.71928647713478"
    },
    {
      "id": "pt.ine.add.PTCONT.3205964",
      "street": "R AFONSO LOPES VIEIRA",
      "house": "25",
      "postcode": "2790-303",
      "city": "QUEIJAS",
      "lon": "-9.262052283550833",
      "lat": "38.71928647713478"
    },
    {
      "id": "pt.ine.add.PTCONT.3210282",
      "street": "R AFONSO LOPES VIEIRA",
      "house": "25",
      "postcode": "2790-303",
      "city": "QUEIJAS",
      "lon": "-9.262052283550833",
      "lat": "38.71928647713478"
    },
    {
      "id": "pt.ine.add.PTCONT.3210798",
      "street": "R AFONSO LOPES VIEIRA",
      "house": "25",
      "postcode": "2790-303",
      "city": "QUEIJAS",
      "lon": "-9.262052283550833",
      "lat": "38.71928647713478"
    },
    {
      "id": "pt.ine.add.PTCONT.3216622",
      "street": "R GIL VICENTE",
      "house": "31",
      "postcode": "2790-352",
      "city": "QUEIJAS",
      "lon": "-9.260442377694373",
      "lat": "38.71927498915056"
    },
    {
      "id": "pt.ine.add.PTCONT.3216623",
      "street": "R GIL VICENTE",
      "house": "31",
      "postcode": "2790-352",
      "city": "QUEIJAS",
      "lon": "-9.260442377694373",
      "lat": "38.71927498915056"
    },
    {
      "id": "pt.ine.add.PTCONT.3216624",
      "street": "R GIL VICENTE",
      "house": "31",
      "postcode": "2790-352",
      "city": "QUEIJAS",
      "lon": "-9.260442377694373",
      "lat": "38.71927498915056"
    },
    {
      "id": "pt.ine.add.PTCONT.3216625",
      "street": "R GIL VICENTE",
      "house": "31",
      "postcode": "2790-352",
      "city": "QUEIJAS",
      "lon": "-9.260442377694373",
      "lat": "38.71927498915056"
    },
    {
      "id": "pt.ine.add.PTCONT.3216626",
      "street": "R GIL VICENTE",
      "house": "31",
      "postcode": "2790-352",
      "city": "QUEIJAS",
      "lon": "-9.260442377694373",
      "lat": "38.71927498915056"
    },
    {
      "id": "pt.ine.add.PTCONT.3216627",
      "street": "R GIL VICENTE",
      "house": "31",
      "postcode": "2790-352",
      "city": "QUEIJAS",
      "lon": "-9.260442377694373",
      "lat": "38.71927498915056"
    },
    {
      "id": "pt.ine.add.PTCONT.3216628",
      "street": "R GIL VICENTE",
      "house": "31",
      "postcode": "2790-352",
      "city": "QUEIJAS",
      "lon": "-9.260442377694373",
      "lat": "38.71927498915056"
    },
    {
      "id": "pt.ine.add.PTCONT.3216629",
      "street": "R GIL VICENTE",
      "house": "33",
      "postcode": "2790-352",
      "city": "QUEIJAS",
      "lon": "-9.260316484403027",
      "lat": "38.71931223428695"
    },
    {
      "id": "pt.ine.add.PTCONT.3216630",
      "street": "R GIL VICENTE",
      "house": "33",
      "postcode": "2790-352",
      "city": "QUEIJAS",
      "lon": "-9.260316484403027",
      "lat": "38.71931223428695"
    },
    {
      "id": "pt.ine.add.PTCONT.3216631",
      "street": "R GIL VICENTE",
      "house": "33",
      "postcode": "2790-352",
      "city": "QUEIJAS",
      "lon": "-9.260316484403027",
      "lat": "38.71931223428695"
    },
    {
      "id": "pt.ine.add.PTCONT.3216633",
      "street": "R GIL VICENTE",
      "house": "33",
      "postcode": "2790-352",
      "city": "QUEIJAS",
      "lon": "-9.260316484403027",
      "lat": "38.71931223428695"
    },
    {
      "id": "pt.ine.add.PTCONT.3216634",
      "street": "R GIL VICENTE",
      "house": "33",
      "postcode": "2790-352",
      "city": "QUEIJAS",
      "lon": "-9.260316484403027",
      "lat": "38.71931223428695"
    },
    {
      "id": "pt.ine.add.PTCONT.3216635",
      "street": "R GIL VICENTE",
      "house": "33",
      "postcode": "2790-352",
      "city": "QUEIJAS",
      "lon": "-9.260316484403027",
      "lat": "38.71931223428695"
    },
    {
      "id": "pt.ine.add.PTCONT.3216636",
      "street": "R GIL VICENTE",
      "house": "33",
      "postcode": "2790-352",
      "city": "QUEIJAS",
      "lon": "-9.260316484403027",
      "lat": "38.71931223428695"
    },
    {
      "id": "pt.ine.add.PTCONT.3219675",
      "street": "R GIL VICENTE",
      "house": "31",
      "postcode": "2790-352",
      "city": "QUEIJAS",
      "lon": "-9.260442377694373",
      "lat": "38.71927498915056"
    },
    {
      "id": "pt.ine.add.PTCONT.3219684",
      "street": "R GIL VICENTE",
      "house": "33",
      "postcode": "2790-352",
      "city": "QUEIJAS",
      "lon": "-9.260316484403027",
      "lat": "38.71931223428695"
    },
    {
      "id": "pt.ine.add.PTCONT.3226314",
      "street": "R AFONSO LOPES VIEIRA",
      "house": "21",
      "postcode": "2790-303",
      "city": "QUEIJAS",
      "lon": "-9.261777080921458",
      "lat": "38.71933417339565"
    },
    {
      "id": "pt.ine.add.PTCONT.3226315",
      "street": "R AFONSO LOPES VIEIRA",
      "house": "21",
      "postcode": "2790-303",
      "city": "QUEIJAS",
      "lon": "-9.261777080921458",
      "lat": "38.71933417339565"
    },
    {
      "id": "pt.ine.add.PTCONT.3226316",
      "street": "R AFONSO LOPES VIEIRA",
      "house": "21",
      "postcode": "2790-303",
      "city": "QUEIJAS",
      "lon": "-9.261777080921458",
      "lat": "38.71933417339565"
    },
    {
      "id": "pt.ine.add.PTCONT.3226317",
      "street": "R AFONSO LOPES VIEIRA",
      "house": "21",
      "postcode": "2790-303",
      "city": "QUEIJAS",
      "lon": "-9.261777080921458",
      "lat": "38.71933417339565"
    },
    {
      "id": "pt.ine.add.PTCONT.3226318",
      "street": "R AFONSO LOPES VIEIRA",
      "house": "21",
      "postcode": "2790-303",
      "city": "QUEIJAS",
      "lon": "-9.261777080921458",
      "lat": "38.71933417339565"
    },
    {
      "id": "pt.ine.add.PTCONT.3226319",
      "street": "R AFONSO LOPES VIEIRA",
      "house": "21",
      "postcode": "2790-303",
      "city": "QUEIJAS",
      "lon": "-9.261777080921458",
      "lat": "38.71933417339565"
    },
    {
      "id": "pt.ine.add.PTCONT.3226320",
      "street": "R AFONSO LOPES VIEIRA",
      "house": "21",
      "postcode": "2790-303",
      "city": "QUEIJAS",
      "lon": "-9.261777080921458",
      "lat": "38.71933417339565"
    },
    {
      "id": "pt.ine.add.PTCONT.3229121",
      "street": "R AFONSO LOPES VIEIRA",
      "house": "21",
      "postcode": "2790-303",
      "city": "QUEIJAS",
      "lon": "-9.261777080921458",
      "lat": "38.71933417339565"
    },
    {
      "id": "pt.ine.add.PTCONT.3244826",
      "street": "R AFONSO LOPES VIEIRA",
      "house": "17",
      "postcode": "2790-303",
      "city": "QUEIJAS",
      "lon": "-9.261525012170075",
      "lat": "38.71939065352023"
    },
    {
      "id": "pt.ine.add.PTCONT.3244827",
      "street": "R AFONSO LOPES VIEIRA",
      "house": "17",
      "postcode": "2790-303",
      "city": "QUEIJAS",
      "lon": "-9.261525012170075",
      "lat": "38.71939065352023"
    },
    {
      "id": "pt.ine.add.PTCONT.3244828",
      "street": "R AFONSO LOPES VIEIRA",
      "house": "17",
      "postcode": "2790-303",
      "city": "QUEIJAS",
      "lon": "-9.261525012170075",
      "lat": "38.71939065352023"
    },
    {
      "id": "pt.ine.add.PTCONT.3244829",
      "street": "R AFONSO LOPES VIEIRA",
      "house": "17",
      "postcode": "2790-303",
      "city": "QUEIJAS",
      "lon": "-9.261525012170075",
      "lat": "38.71939065352023"
    },
    {
      "id": "pt.ine.add.PTCONT.3244830",
      "street": "R AFONSO LOPES VIEIRA",
      "house": "17",
      "postcode": "2790-303",
      "city": "QUEIJAS",
      "lon": "-9.261525012170075",
      "lat": "38.71939065352023"
    },
    {
      "id": "pt.ine.add.PTCONT.3244831",
      "street": "R AFONSO LOPES VIEIRA",
      "house": "17",
      "postcode": "2790-303",
      "city": "QUEIJAS",
      "lon": "-9.261525012170075",
      "lat": "38.71939065352023"
    },
    {
      "id": "pt.ine.add.PTCONT.3244832",
      "street": "R AFONSO LOPES VIEIRA",
      "house": "17",
      "postcode": "2790-303",
      "city": "QUEIJAS",
      "lon": "-9.261525012170075",
      "lat": "38.71939065352023"
    },
    {
      "id": "pt.ine.add.PTCONT.3244833",
      "street": "R AFONSO LOPES VIEIRA",
      "house": "17",
      "postcode": "2790-303",
      "city": "QUEIJAS",
      "lon": "-9.261525012170075",
      "lat": "38.71939065352023"
    },
    {
      "id": "pt.ine.add.PTCONT.3337254",
      "street": "R AFONSO LOPES VIEIRA",
      "house": "1",
      "postcode": "2790-303",
      "city": "QUEIJAS",
      "lon": "-9.260089387599818",
      "lat": "38.71949457978903"
    },
    {
      "id": "pt.ine.add.PTCONT.3337255",
      "street": "R AFONSO LOPES VIEIRA",
      "house": "1",
      "postcode": "2790-303",
      "city": "QUEIJAS",
      "lon": "-9.260089387599818",
      "lat": "38.71949457978903"
    },
    {
      "id": "pt.ine.add.PTCONT.3337256",
      "street": "R AFONSO LOPES VIEIRA",
      "house": "1",
      "postcode": "2790-303",
      "city": "QUEIJAS",
      "lon": "-9.260089387599818",
      "lat": "38.71949457978903"
    },
    {
      "id": "pt.ine.add.PTCONT.3337258",
      "street": "R AFONSO LOPES VIEIRA",
      "house": "1",
      "postcode": "2790-303",
      "city": "QUEIJAS",
      "lon": "-9.260089387599818",
      "lat": "38.71949457978903"
    },
    {
      "id": "pt.ine.add.PTCONT.3337259",
      "street": "R AFONSO LOPES VIEIRA",
      "house": "1",
      "postcode": "2790-303",
      "city": "QUEIJAS",
      "lon": "-9.260089387599818",
      "lat": "38.71949457978903"
    },
    {
      "id": "pt.ine.add.PTCONT.3337260",
      "street": "R AFONSO LOPES VIEIRA",
      "house": "1",
      "postcode": "2790-303",
      "city": "QUEIJAS",
      "lon": "-9.260089387599818",
      "lat": "38.71949457978903"
    },
    {
      "id": "pt.ine.add.PTCONT.3337261",
      "street": "R AFONSO LOPES VIEIRA",
      "house": "1",
      "postcode": "2790-303",
      "city": "QUEIJAS",
      "lon": "-9.260089387599818",
      "lat": "38.71949457978903"
    },
    {
      "id": "pt.ine.add.PTCONT.3337262",
      "street": "R AFONSO LOPES VIEIRA",
      "house": "1",
      "postcode": "2790-303",
      "city": "QUEIJAS",
      "lon": "-9.260089387599818",
      "lat": "38.71949457978903"
    },
    {
      "id": "pt.ine.add.PTCONT.3364466",
      "street": "R GIL VICENTE",
      "house": "11",
      "postcode": "2790-352",
      "city": "QUEIJAS",
      "lon": "-9.261979621636614",
      "lat": "38.719052975925656"
    },
    {
      "id": "pt.ine.add.PTCONT.3364467",
      "street": "R GIL VICENTE",
      "house": "11",
      "postcode": "2790-352",
      "city": "QUEIJAS",
      "lon": "-9.261979621636614",
      "lat": "38.719052975925656"
    },
    {
      "id": "pt.ine.add.PTCONT.3364468",
      "street": "R GIL VICENTE",
      "house": "11",
      "postcode": "2790-352",
      "city": "QUEIJAS",
      "lon": "-9.261979621636614",
      "lat": "38.719052975925656"
    },
    {
      "id": "pt.ine.add.PTCONT.3364469",
      "street": "R GIL VICENTE",
      "house": "11",
      "postcode": "2790-352",
      "city": "QUEIJAS",
      "lon": "-9.261979621636614",
      "lat": "38.719052975925656"
    },
    {
      "id": "pt.ine.add.PTCONT.3364470",
      "street": "R GIL VICENTE",
      "house": "11",
      "postcode": "2790-352",
      "city": "QUEIJAS",
      "lon": "-9.261979621636614",
      "lat": "38.719052975925656"
    },
    {
      "id": "pt.ine.add.PTCONT.3364471",
      "street": "R GIL VICENTE",
      "house": "11",
      "postcode": "2790-352",
      "city": "QUEIJAS",
      "lon": "-9.261979621636614",
      "lat": "38.719052975925656"
    },
    {
      "id": "pt.ine.add.PTCONT.3364472",
      "street": "R GIL VICENTE",
      "house": "11",
      "postcode": "2790-352",
      "city": "QUEIJAS",
      "lon": "-9.261979621636614",
      "lat": "38.719052975925656"
    },
    {
      "id": "pt.ine.add.PTCONT.3364473",
      "street": "R GIL VICENTE",
      "house": "11",
      "postcode": "2790-352",
      "city": "QUEIJAS",
      "lon": "-9.261979621636614",
      "lat": "38.719052975925656"
    },
    {
      "id": "pt.ine.add.PTCONT.3364474",
      "street": "R GIL VICENTE",
      "house": "11",
      "postcode": "2790-352",
      "city": "QUEIJAS",
      "lon": "-9.261979621636614",
      "lat": "38.719052975925656"
    },
    {
      "id": "pt.ine.add.PTCONT.3364475",
      "street": "R GIL VICENTE",
      "house": "11",
      "postcode": "2790-352",
      "city": "QUEIJAS",
      "lon": "-9.261979621636614",
      "lat": "38.719052975925656"
    },
    {
      "id": "pt.ine.add.PTCONT.3364476",
      "street": "R ANTÓNIO FELICIANO DE CASTILHO",
      "house": "33",
      "postcode": "2790-307",
      "city": "QUEIJAS",
      "lon": "-9.259939652390868",
      "lat": "38.71947800753424"
    },
    {
      "id": "pt.ine.add.PTCONT.3364673",
      "street": "R ANTÓNIO FELICIANO DE CASTILHO",
      "house": "33",
      "postcode": "2790-307",
      "city": "QUEIJAS",
      "lon": "-9.259939652390868",
      "lat": "38.71947800753424"
    },
    {
      "id": "pt.ine.add.PTCONT.3364674",
      "street": "R ANTÓNIO FELICIANO DE CASTILHO",
      "house": "33",
      "postcode": "2790-307",
      "city": "QUEIJAS",
      "lon": "-9.259939652390868",
      "lat": "38.71947800753424"
    },
    {
      "id": "pt.ine.add.PTCONT.3364675",
      "street": "R ANTÓNIO FELICIANO DE CASTILHO",
      "house": "33",
      "postcode": "2790-307",
      "city": "QUEIJAS",
      "lon": "-9.259939652390868",
      "lat": "38.71947800753424"
    },
    {
      "id": "pt.ine.add.PTCONT.3364676",
      "street": "R ANTÓNIO FELICIANO DE CASTILHO",
      "house": "33",
      "postcode": "2790-307",
      "city": "QUEIJAS",
      "lon": "-9.259939652390868",
      "lat": "38.71947800753424"
    },
    {
      "id": "pt.ine.add.PTCONT.3364677",
      "street": "R ANTÓNIO FELICIANO DE CASTILHO",
      "house": "33",
      "postcode": "2790-307",
      "city": "QUEIJAS",
      "lon": "-9.259939652390868",
      "lat": "38.71947800753424"
    },
    {
      "id": "pt.ine.add.PTCONT.3364678",
      "street": "R ANTÓNIO FELICIANO DE CASTILHO",
      "house": "33",
      "postcode": "2790-307",
      "city": "QUEIJAS",
      "lon": "-9.259939652390868",
      "lat": "38.71947800753424"
    },
    {
      "id": "pt.ine.add.PTCONT.3367083",
      "street": "R ANTÓNIO FELICIANO DE CASTILHO",
      "house": "33",
      "postcode": "2790-307",
      "city": "QUEIJAS",
      "lon": "-9.259939652390868",
      "lat": "38.71947800753424"
    },
    {
      "id": "pt.ine.add.PTCONT.3367409",
      "street": "R GIL VICENTE",
      "house": "11",
      "postcode": "2790-352",
      "city": "QUEIJAS",
      "lon": "-9.261979621636614",
      "lat": "38.719052975925656"
    },
    {
      "id": "pt.ine.add.PTCONT.3391288",
      "street": "R GIL VICENTE",
      "house": "21",
      "postcode": "2790-352",
      "city": "QUEIJAS",
      "lon": "-9.261234772291715",
      "lat": "38.71921329857886"
    },
    {
      "id": "pt.ine.add.PTCONT.3391289",
      "street": "R GIL VICENTE",
      "house": "21",
      "postcode": "2790-352",
      "city": "QUEIJAS",
      "lon": "-9.261234772291715",
      "lat": "38.71921329857886"
    },
    {
      "id": "pt.ine.add.PTCONT.3391290",
      "street": "R GIL VICENTE",
      "house": "21",
      "postcode": "2790-352",
      "city": "QUEIJAS",
      "lon": "-9.261234772291715",
      "lat": "38.71921329857886"
    },
    {
      "id": "pt.ine.add.PTCONT.3391291",
      "street": "R GIL VICENTE",
      "house": "21",
      "postcode": "2790-352",
      "city": "QUEIJAS",
      "lon": "-9.261234772291715",
      "lat": "38.71921329857886"
    },
    {
      "id": "pt.ine.add.PTCONT.3391292",
      "street": "R GIL VICENTE",
      "house": "21",
      "postcode": "2790-352",
      "city": "QUEIJAS",
      "lon": "-9.261234772291715",
      "lat": "38.71921329857886"
    },
    {
      "id": "pt.ine.add.PTCONT.3391293",
      "street": "R GIL VICENTE",
      "house": "21",
      "postcode": "2790-352",
      "city": "QUEIJAS",
      "lon": "-9.261234772291715",
      "lat": "38.71921329857886"
    },
    {
      "id": "pt.ine.add.PTCONT.3391294",
      "street": "R GIL VICENTE",
      "house": "21",
      "postcode": "2790-352",
      "city": "QUEIJAS",
      "lon": "-9.261234772291715",
      "lat": "38.71921329857886"
    },
    {
      "id": "pt.ine.add.PTCONT.3395344",
      "street": "R GIL VICENTE",
      "house": "21",
      "postcode": "2790-352",
      "city": "QUEIJAS",
      "lon": "-9.261234772291715",
      "lat": "38.71921329857886"
    },
    {
      "id": "pt.ine.add.PTCONT.3419326",
      "street": "R ANTÓNIO FELICIANO DE CASTILHO",
      "house": "31",
      "postcode": "2790-307",
      "city": "QUEIJAS",
      "lon": "-9.25993795506662",
      "lat": "38.71936993025123"
    },
    {
      "id": "pt.ine.add.PTCONT.3419327",
      "street": "R ANTÓNIO FELICIANO DE CASTILHO",
      "house": "31",
      "postcode": "2790-307",
      "city": "QUEIJAS",
      "lon": "-9.25993795506662",
      "lat": "38.71936993025123"
    },
    {
      "id": "pt.ine.add.PTCONT.3419328",
      "street": "R ANTÓNIO FELICIANO DE CASTILHO",
      "house": "31",
      "postcode": "2790-307",
      "city": "QUEIJAS",
      "lon": "-9.25993795506662",
      "lat": "38.71936993025123"
    },
    {
      "id": "pt.ine.add.PTCONT.3419329",
      "street": "R ANTÓNIO FELICIANO DE CASTILHO",
      "house": "31",
      "postcode": "2790-307",
      "city": "QUEIJAS",
      "lon": "-9.25993795506662",
      "lat": "38.71936993025123"
    },
    {
      "id": "pt.ine.add.PTCONT.3419330",
      "street": "R ANTÓNIO FELICIANO DE CASTILHO",
      "house": "31",
      "postcode": "2790-307",
      "city": "QUEIJAS",
      "lon": "-9.25993795506662",
      "lat": "38.71936993025123"
    },
    {
      "id": "pt.ine.add.PTCONT.3419331",
      "street": "R ANTÓNIO FELICIANO DE CASTILHO",
      "house": "31",
      "postcode": "2790-307",
      "city": "QUEIJAS",
      "lon": "-9.25993795506662",
      "lat": "38.71936993025123"
    },
    {
      "id": "pt.ine.add.PTCONT.3419332",
      "street": "R ANTÓNIO FELICIANO DE CASTILHO",
      "house": "31",
      "postcode": "2790-307",
      "city": "QUEIJAS",
      "lon": "-9.25993795506662",
      "lat": "38.71936993025123"
    },
    {
      "id": "pt.ine.add.PTCONT.3419333",
      "street": "R ANTÓNIO FELICIANO DE CASTILHO",
      "house": "31",
      "postcode": "2790-307",
      "city": "QUEIJAS",
      "lon": "-9.25993795506662",
      "lat": "38.71936993025123"
    },
    {
      "id": "pt.ine.add.PTCONT.3440129",
      "street": "R AFONSO LOPES VIEIRA",
      "house": "15",
      "postcode": "2790-303",
      "city": "QUEIJAS",
      "lon": "-9.261375135268455",
      "lat": "38.719365076669966"
    },
    {
      "id": "pt.ine.add.PTCONT.3450222",
      "street": "R GIL VICENTE",
      "house": "29",
      "postcode": "2790-352",
      "city": "QUEIJAS",
      "lon": "-9.2605919710538",
      "lat": "38.71928255432813"
    },
    {
      "id": "pt.ine.add.PTCONT.3457882",
      "street": "R GIL VICENTE",
      "house": "17",
      "postcode": "2790-352",
      "city": "QUEIJAS",
      "lon": "-9.261544746959794",
      "lat": "38.71918328357083"
    }
  ]
}