{
  "data": {
    "distrito": "Setúbal",
    "concelho": "Palmela",
    "freguesia": "Palmela",
    "OBJECTID": 809,
    "BGRI2021": "15080200807",
    "DT21": "15",
    "DTMN21": "1508",
    "DTMNFR21": "150802",
    "DTMNFRSEC21": "150802008",
    "SECNUM21": "008",
    "SSNUM21": "07",
    "SECSSNUM21": "00807",
    "OBJECTID_1": 166100,
    "DT": "15",
    "CC": "08",
    "fr": "02",
    "SEC": "008",
    "SS": "07"
  },
  "addresses": [
    {
      "id": "pt.ine.add.PTCONT.4663629",
      "street": "AZ CARVALHOS",
      "house": "",
      "postcode": "2950-422",
      "city": "PALMELA",
      "lon": "-8.90628093348714",
      "lat": "38.57976245330483"
    },
    {
      "id": "pt.ine.add.PTCONT.4663630",
      "street": "R LARANJEIRAS",
      "house": "4",
      "postcode": "2950-421",
      "city": "PALMELA",
      "lon": "-8.905264753909481",
      "lat": "38.58131857512603"
    },
    {
      "id": "pt.ine.add.PTCONT.4679419",
      "street": "R D JORGE",
      "house": "",
      "postcode": "2950-423",
      "city": "PALMELA",
      "lon": "-8.907223446925572",
      "lat": "38.579900354771596"
    },
    {
      "id": "pt.ine.add.PTCONT.4682853",
      "street": "R MACIEIRAS",
      "house": "3",
      "postcode": "2950-421",
      "city": "PALMELA",
      "lon": "-8.904968513228171",
      "lat": "38.5815187099152"
    },
    {
      "id": "pt.ine.add.PTCONT.4695997",
      "street": "PCT MAGNOLIA",
      "house": "1",
      "postcode": "2950-421",
      "city": "PALMELA",
      "lon": "-8.905085775805091",
      "lat": "38.58068017238716"
    },
    {
      "id": "pt.ine.add.PTCONT.4704479",
      "street": "R MACIEIRAS",
      "house": "",
      "postcode": "2950-421",
      "city": "PALMELA",
      "lon": "-8.905107665511853",
      "lat": "38.58165291538153"
    },
    {
      "id": "pt.ine.add.PTCONT.4727172",
      "street": "ESTR CARVALHOS",
      "house": "",
      "postcode": "2950-312",
      "city": "PALMELA",
      "lon": "-8.903452092531134",
      "lat": "38.57815061843692"
    },
    {
      "id": "pt.ine.add.PTCONT.4729508",
      "street": "ESTR CARVALHOS QTA LEVINA",
      "house": "",
      "postcode": "2950-312",
      "city": "PALMELA",
      "lon": "-8.90391628926354",
      "lat": "38.57863400625117"
    },
    {
      "id": "pt.ine.add.PTCONT.4737819",
      "street": "ESTR CARVALHOS",
      "house": "",
      "postcode": "2950-312",
      "city": "PALMELA",
      "lon": "-8.902043842205915",
      "lat": "38.57845715000238"
    },
    {
      "id": "pt.ine.add.PTCONT.4746648",
      "street": "R CIRIOS DO CABO",
      "house": "2",
      "postcode": "2950-423",
      "city": "PALMELA",
      "lon": "-8.905687688910087",
      "lat": "38.579018688592754"
    },
    {
      "id": "pt.ine.add.PTCONT.4759774",
      "street": "R ROBERTO IVENS",
      "house": "10",
      "postcode": "2950-423",
      "city": "PALMELA",
      "lon": "-8.905622697885384",
      "lat": "38.57937944633911"
    },
    {
      "id": "pt.ine.add.PTCONT.4759923",
      "street": "R CIRIOS DO CABO",
      "house": "6",
      "postcode": "2950-423",
      "city": "PALMELA",
      "lon": "-8.905915163618792",
      "lat": "38.578828014233196"
    },
    {
      "id": "pt.ine.add.PTCONT.4763314",
      "street": "R LARANJEIRAS",
      "house": "8",
      "postcode": "2950-421",
      "city": "PALMELA",
      "lon": "-8.905937184026902",
      "lat": "38.58195372021404"
    },
    {
      "id": "pt.ine.add.PTCONT.4767174",
      "street": "ESTR CARVALHOS",
      "house": "20",
      "postcode": "2950-312",
      "city": "PALMELA",
      "lon": "-8.90382615411113",
      "lat": "38.57815470034495"
    },
    {
      "id": "pt.ine.add.PTCONT.4768397",
      "street": "ESTR CARVALHOS",
      "house": "20",
      "postcode": "2950-312",
      "city": "PALMELA",
      "lon": "-8.90382615411113",
      "lat": "38.57815470034495"
    },
    {
      "id": "pt.ine.add.PTCONT.4768634",
      "street": "ESTR CARVALHOS",
      "house": "20",
      "postcode": "2950-312",
      "city": "PALMELA",
      "lon": "-8.90382615411113",
      "lat": "38.57815470034495"
    },
    {
      "id": "pt.ine.add.PTCONT.4770767",
      "street": "R CARLOS RODRIGUES ESPADA QTA DOS CARVALHOS",
      "house": "",
      "postcode": "2950-430",
      "city": "PALMELA",
      "lon": "-8.90117254572395",
      "lat": "38.57961592327195"
    },
    {
      "id": "pt.ine.add.PTCONT.4782301",
      "street": "PCT MAGNOLIA",
      "house": "3",
      "postcode": "2950-421",
      "city": "PALMELA",
      "lon": "-8.90521431926659",
      "lat": "38.580895521676126"
    },
    {
      "id": "pt.ine.add.PTCONT.4783318",
      "street": "R AMEIXEIRAS",
      "house": "",
      "postcode": "2950-421",
      "city": "PALMELA",
      "lon": "-8.904507181258193",
      "lat": "38.581305554227605"
    },
    {
      "id": "pt.ine.add.PTCONT.4788052",
      "street": "R CARLOS RODRIGUES ESPADA",
      "house": "",
      "postcode": "2950-430",
      "city": "PALMELA",
      "lon": "-8.902477563177646",
      "lat": "38.58146304510578"
    },
    {
      "id": "pt.ine.add.PTCONT.4791549",
      "street": "ESTR CARVALHOS",
      "house": "",
      "postcode": "2950-312",
      "city": "PALMELA",
      "lon": "-8.902911293936219",
      "lat": "38.57909103159081"
    },
    {
      "id": "pt.ine.add.PTCONT.4791670",
      "street": "R D JORGE",
      "house": "",
      "postcode": "2950-423",
      "city": "PALMELA",
      "lon": "-8.907096059404353",
      "lat": "38.579793098637516"
    },
    {
      "id": "pt.ine.add.PTCONT.4795810",
      "street": "ESTR CARVALHOS",
      "house": "2",
      "postcode": "2950-312",
      "city": "PALMELA",
      "lon": "-8.903371960264067",
      "lat": "38.57816916226103"
    },
    {
      "id": "pt.ine.add.PTCONT.4798559",
      "street": "R LIMOEIROS",
      "house": "",
      "postcode": "2950-421",
      "city": "PALMELA",
      "lon": "-8.904892137419765",
      "lat": "38.58188855042246"
    },
    {
      "id": "pt.ine.add.PTCONT.4802477",
      "street": "ESTR CARVALHOS",
      "house": "",
      "postcode": "2950-312",
      "city": "PALMELA",
      "lon": "-8.906674278818567",
      "lat": "38.580057125396685"
    },
    {
      "id": "pt.ine.add.PTCONT.4804909",
      "street": "PCT SOBREIROS",
      "house": "5",
      "postcode": "2950-421",
      "city": "PALMELA",
      "lon": "-8.906436312372476",
      "lat": "38.58140993042885"
    },
    {
      "id": "pt.ine.add.PTCONT.4809196",
      "street": "PCT PALMEIRA",
      "house": "1",
      "postcode": "2950-421",
      "city": "PALMELA",
      "lon": "-8.905600822744194",
      "lat": "38.58162263680898"
    },
    {
      "id": "pt.ine.add.PTCONT.4820280",
      "street": "R ROBERTO IVENS",
      "house": "",
      "postcode": "2950-423",
      "city": "PALMELA",
      "lon": "-8.906366650455483",
      "lat": "38.57919436926974"
    },
    {
      "id": "pt.ine.add.PTCONT.4841157",
      "street": "R CIRIOS DO CABO",
      "house": "",
      "postcode": "2950-423",
      "city": "PALMELA",
      "lon": "-8.905420964562165",
      "lat": "38.57875921052726"
    },
    {
      "id": "pt.ine.add.PTCONT.4844691",
      "street": "PCT PALMEIRA",
      "house": "2",
      "postcode": "2950-421",
      "city": "PALMELA",
      "lon": "-8.905441419896556",
      "lat": "38.58174079560182"
    },
    {
      "id": "pt.ine.add.PTCONT.4863095",
      "street": "R LARANJEIRAS",
      "house": "11",
      "postcode": "2950-421",
      "city": "PALMELA",
      "lon": "-8.906175563324167",
      "lat": "38.58170892411416"
    },
    {
      "id": "pt.ine.add.PTCONT.4863096",
      "street": "ESTR CARVALHOS",
      "house": "",
      "postcode": "2950-312",
      "city": "PALMELA",
      "lon": "-8.906855756604417",
      "lat": "38.579857745022096"
    },
    {
      "id": "pt.ine.add.PTCONT.4863098",
      "street": "R SILVA RASTEIRO",
      "house": "7 7A",
      "postcode": "2950-423",
      "city": "PALMELA",
      "lon": "-8.90573367739102",
      "lat": "38.577955415034836"
    },
    {
      "id": "pt.ine.add.PTCONT.4869478",
      "street": "PCT PESSEGUEIROS",
      "house": "1",
      "postcode": "2950-421",
      "city": "PALMELA",
      "lon": "-8.90426937550929",
      "lat": "38.581604392480294"
    },
    {
      "id": "pt.ine.add.PTCONT.4869481",
      "street": "ESTR CARVALHOS",
      "house": "",
      "postcode": "2950-312",
      "city": "PALMELA",
      "lon": "-8.90447319919574",
      "lat": "38.57812437523471"
    },
    {
      "id": "pt.ine.add.PTCONT.4871385",
      "street": "R AMEIXEIRAS",
      "house": "27 A",
      "postcode": "2950-421",
      "city": "PALMELA",
      "lon": "-8.90442994654004",
      "lat": "38.580522348355515"
    },
    {
      "id": "pt.ine.add.PTCONT.4872975",
      "street": "R AMEIXEIRAS",
      "house": "",
      "postcode": "2950-421",
      "city": "PALMELA",
      "lon": "-8.904666873832822",
      "lat": "38.581214419436435"
    },
    {
      "id": "pt.ine.add.PTCONT.4880073",
      "street": "ESTR CARVALHOS",
      "house": "",
      "postcode": "2950-312",
      "city": "PALMELA",
      "lon": "-8.901805747331478",
      "lat": "38.57872896062933"
    },
    {
      "id": "pt.ine.add.PTCONT.4881585",
      "street": "R MACIEIRAS",
      "house": "6",
      "postcode": "2950-421",
      "city": "PALMELA",
      "lon": "-8.90498288118649",
      "lat": "38.58178886163298"
    },
    {
      "id": "pt.ine.add.PTCONT.4883980",
      "street": "R D JORGE",
      "house": "",
      "postcode": "2950-423",
      "city": "PALMELA",
      "lon": "-8.906991525977915",
      "lat": "38.57967668303362"
    },
    {
      "id": "pt.ine.add.PTCONT.4891119",
      "street": "SIT PEGARIAS",
      "house": "",
      "postcode": "2950-422",
      "city": "PALMELA",
      "lon": "-8.907075429102315",
      "lat": "38.58000943228097"
    },
    {
      "id": "pt.ine.add.PTCONT.4896658",
      "street": "ESTR CARVALHOS",
      "house": "16",
      "postcode": "2950-312",
      "city": "PALMELA",
      "lon": "-8.903757912307135",
      "lat": "38.57815265531479"
    },
    {
      "id": "pt.ine.add.PTCONT.4896659",
      "street": "ESTR CARVALHOS",
      "house": "16",
      "postcode": "2950-312",
      "city": "PALMELA",
      "lon": "-8.903757912307135",
      "lat": "38.57815265531479"
    },
    {
      "id": "pt.ine.add.PTCONT.4899558",
      "street": "ESTR CARVALHOS",
      "house": "16",
      "postcode": "2950-312",
      "city": "PALMELA",
      "lon": "-8.903757912307135",
      "lat": "38.57815265531479"
    },
    {
      "id": "pt.ine.add.PTCONT.4906131",
      "street": "R LIMOEIROS",
      "house": "",
      "postcode": "2950-421",
      "city": "PALMELA",
      "lon": "-8.90451305901446",
      "lat": "38.58185501667026"
    },
    {
      "id": "pt.ine.add.PTCONT.4926407",
      "street": "R AMEIXEIRAS",
      "house": "7",
      "postcode": "2950-421",
      "city": "PALMELA",
      "lon": "-8.904646814140966",
      "lat": "38.58148479816509"
    },
    {
      "id": "pt.ine.add.PTCONT.4929168",
      "street": "R LIMOEIROS",
      "house": "1",
      "postcode": "2950-421",
      "city": "PALMELA",
      "lon": "-8.90450987922478",
      "lat": "38.581557766502854"
    },
    {
      "id": "pt.ine.add.PTCONT.4932488",
      "street": "R CARLOS RODRIGUES ESPADA QTA DOS PASSARINHOS",
      "house": "CCI 7202",
      "postcode": "2950-430",
      "city": "PALMELA",
      "lon": "-8.90259956432828",
      "lat": "38.58106588149056"
    },
    {
      "id": "pt.ine.add.PTCONT.4932489",
      "street": "R AMEIXEIRAS",
      "house": "3",
      "postcode": "2950-421",
      "city": "PALMELA",
      "lon": "-8.905068610535904",
      "lat": "38.58122077861251"
    },
    {
      "id": "pt.ine.add.PTCONT.4942366",
      "street": "R CÍRIOS DO CABO",
      "house": "",
      "postcode": "2950-423",
      "city": "PALMELA",
      "lon": "-8.905339288943946",
      "lat": "38.578633634360024"
    },
    {
      "id": "pt.ine.add.PTCONT.4946197",
      "street": "R AMEIXEIRAS",
      "house": "27 A",
      "postcode": "2950-421",
      "city": "PALMELA",
      "lon": "-8.904436305271993",
      "lat": "38.58111684879159"
    },
    {
      "id": "pt.ine.add.PTCONT.4947683",
      "street": "R CARLOS RODRIGUES ESPADA",
      "house": "",
      "postcode": "2950-430",
      "city": "PALMELA",
      "lon": "-8.903582403697792",
      "lat": "38.58240116960856"
    },
    {
      "id": "pt.ine.add.PTCONT.4951488",
      "street": "R ROBERTO IVENS",
      "house": "1",
      "postcode": "2950-423",
      "city": "PALMELA",
      "lon": "-8.90521287158413",
      "lat": "38.57968843005108"
    },
    {
      "id": "pt.ine.add.PTCONT.4955263",
      "street": "ESTR CARVALHOS",
      "house": "CCI 7009",
      "postcode": "2950-312",
      "city": "PALMELA",
      "lon": "-8.90190863868784",
      "lat": "38.57869225194002"
    },
    {
      "id": "pt.ine.add.PTCONT.4955264",
      "street": "ESTR CARVALHOS",
      "house": "",
      "postcode": "2950-312",
      "city": "PALMELA",
      "lon": "-8.905336489801225",
      "lat": "38.57758297266906"
    },
    {
      "id": "pt.ine.add.PTCONT.4962758",
      "street": "R CARLOS RODRIGUES ESPADA",
      "house": "",
      "postcode": "2950-430",
      "city": "PALMELA",
      "lon": "-8.902618921542496",
      "lat": "38.5818044280359"
    },
    {
      "id": "pt.ine.add.PTCONT.4966142",
      "street": "ESTR CARVALHOS",
      "house": "22",
      "postcode": "2950-312",
      "city": "PALMELA",
      "lon": "-8.903948393192278",
      "lat": "38.578130153278565"
    },
    {
      "id": "pt.ine.add.PTCONT.4969759",
      "street": "R AMENDOEIRAS",
      "house": "3",
      "postcode": "2950-421",
      "city": "PALMELA",
      "lon": "-8.905557043476247",
      "lat": "38.58182110649391"
    },
    {
      "id": "pt.ine.add.PTCONT.4969930",
      "street": "R CIRIOS DO CABO",
      "house": "4",
      "postcode": "2950-423",
      "city": "PALMELA",
      "lon": "-8.905790289120981",
      "lat": "38.5789549537617"
    },
    {
      "id": "pt.ine.add.PTCONT.4969931",
      "street": "R SILVA RASTEIRO",
      "house": "",
      "postcode": "2950-423",
      "city": "PALMELA",
      "lon": "-8.905736861814935",
      "lat": "38.57825266529991"
    },
    {
      "id": "pt.ine.add.PTCONT.4969932",
      "street": "R SILVA RASTEIRO",
      "house": "",
      "postcode": "2950-423",
      "city": "PALMELA",
      "lon": "-8.905736861814935",
      "lat": "38.57825266529991"
    },
    {
      "id": "pt.ine.add.PTCONT.4973366",
      "street": "R SILVA RASTEIRO",
      "house": "",
      "postcode": "2950-423",
      "city": "PALMELA",
      "lon": "-8.906088627431577",
      "lat": "38.57788100563232"
    },
    {
      "id": "pt.ine.add.PTCONT.4977172",
      "street": "R ROBERTO IVENS",
      "house": "",
      "postcode": "2950-423",
      "city": "PALMELA",
      "lon": "-8.905042093518698",
      "lat": "38.57981567158307"
    },
    {
      "id": "pt.ine.add.PTCONT.4978508",
      "street": "R ROBERTO IVENS",
      "house": "",
      "postcode": "2950-423",
      "city": "PALMELA",
      "lon": "-8.905315087362888",
      "lat": "38.57958866529978"
    },
    {
      "id": "pt.ine.add.PTCONT.4980481",
      "street": "R ROBERTO IVENS",
      "house": "",
      "postcode": "2950-423",
      "city": "PALMELA",
      "lon": "-8.90619597216904",
      "lat": "38.57933062004352"
    },
    {
      "id": "pt.ine.add.PTCONT.4987908",
      "street": "PCT PALMEIRA",
      "house": "3",
      "postcode": "2950-421",
      "city": "PALMELA",
      "lon": "-8.90522097388488",
      "lat": "38.581517044703176"
    },
    {
      "id": "pt.ine.add.PTCONT.4988057",
      "street": "R ROBERTO IVENS",
      "house": "6",
      "postcode": "2950-423",
      "city": "PALMELA",
      "lon": "-8.906036285693581",
      "lat": "38.579421756886696"
    },
    {
      "id": "pt.ine.add.PTCONT.4991462",
      "street": "R MACIEIRAS",
      "house": "",
      "postcode": "2950-421",
      "city": "PALMELA",
      "lon": "-8.905203423756925",
      "lat": "38.5820216205477"
    },
    {
      "id": "pt.ine.add.PTCONT.4995968",
      "street": "PCT SOBREIROS",
      "house": "6",
      "postcode": "2950-421",
      "city": "PALMELA",
      "lon": "-8.906576819752402",
      "lat": "38.581670240198505"
    },
    {
      "id": "pt.ine.add.PTCONT.5009712",
      "street": "SIT PEGARIAS",
      "house": "",
      "postcode": "2950-422",
      "city": "PALMELA",
      "lon": "-8.907110918257178",
      "lat": "38.58010828798274"
    },
    {
      "id": "pt.ine.add.PTCONT.5012638",
      "street": "R AMEIXEIRAS",
      "house": "2",
      "postcode": "2950-421",
      "city": "PALMELA",
      "lon": "-8.904871696489684",
      "lat": "38.581050921114944"
    },
    {
      "id": "pt.ine.add.PTCONT.5012639",
      "street": "R CIRIOS DO CABO",
      "house": "",
      "postcode": "2950-423",
      "city": "PALMELA",
      "lon": "-8.905524915277796",
      "lat": "38.57882158209381"
    },
    {
      "id": "pt.ine.add.PTCONT.5022016",
      "street": "R LARANJEIRAS",
      "house": "7",
      "postcode": "2950-421",
      "city": "PALMELA",
      "lon": "-8.905806126990539",
      "lat": "38.58150417476643"
    },
    {
      "id": "pt.ine.add.PTCONT.5022017",
      "street": "SIT PEGARIAS",
      "house": "",
      "postcode": "2950-422",
      "city": "PALMELA",
      "lon": "-8.907192211905308",
      "lat": "38.580197832522856"
    },
    {
      "id": "pt.ine.add.PTCONT.5024741",
      "street": "PCT SOBREIROS",
      "house": "2",
      "postcode": "2950-421",
      "city": "PALMELA",
      "lon": "-8.906280871077225",
      "lat": "38.58189740100438"
    },
    {
      "id": "pt.ine.add.PTCONT.5024886",
      "street": "R D JORGE",
      "house": "",
      "postcode": "2950-423",
      "city": "PALMELA",
      "lon": "-8.907316699217393",
      "lat": "38.58003486121892"
    },
    {
      "id": "pt.ine.add.PTCONT.5024887",
      "street": "R ROBERTO IVENS",
      "house": "15",
      "postcode": "2950-423",
      "city": "PALMELA",
      "lon": "-8.905965021535428",
      "lat": "38.57919702201239"
    },
    {
      "id": "pt.ine.add.PTCONT.5028497",
      "street": "PCT SOBREIROS",
      "house": "",
      "postcode": "2950-421",
      "city": "PALMELA",
      "lon": "-8.906335351221186",
      "lat": "38.58162679464249"
    },
    {
      "id": "pt.ine.add.PTCONT.5032384",
      "street": "",
      "house": "",
      "postcode": "2950-422",
      "city": "PALMELA",
      "lon": "-8.90649992830487",
      "lat": "38.57985108860476"
    },
    {
      "id": "pt.ine.add.PTCONT.5032385",
      "street": "R AMENDOEIRAS",
      "house": "",
      "postcode": "2950-421",
      "city": "PALMELA",
      "lon": "-8.905374496089578",
      "lat": "38.58192140151257"
    },
    {
      "id": "pt.ine.add.PTCONT.5032386",
      "street": "R SILVA RASTEIRO",
      "house": "",
      "postcode": "2950-423",
      "city": "PALMELA",
      "lon": "-8.906363735366035",
      "lat": "38.577852163769954"
    },
    {
      "id": "pt.ine.add.PTCONT.5032387",
      "street": "ESTR CARVALHOS QTA DO ANASTACIO",
      "house": "",
      "postcode": "2950-312",
      "city": "PALMELA",
      "lon": "-8.901141249575506",
      "lat": "38.57883241339182"
    },
    {
      "id": "pt.ine.add.PTCONT.5034074",
      "street": "ESTR CARVALHOS",
      "house": "S",
      "postcode": "2950-312",
      "city": "PALMELA",
      "lon": "-8.903661528853842",
      "lat": "38.57841948644423"
    },
    {
      "id": "pt.ine.add.PTCONT.5046467",
      "street": "R LARANJEIRAS",
      "house": "9",
      "postcode": "2950-421",
      "city": "PALMELA",
      "lon": "-8.905956466676614",
      "lat": "38.58161128071197"
    },
    {
      "id": "pt.ine.add.PTCONT.5046468",
      "street": "R LIMOEIROS",
      "house": "",
      "postcode": "2950-421",
      "city": "PALMELA",
      "lon": "-8.904649319864046",
      "lat": "38.58171899526332"
    },
    {
      "id": "pt.ine.add.PTCONT.5057065",
      "street": "ESTR CARVALHOS",
      "house": "4",
      "postcode": "2950-312",
      "city": "PALMELA",
      "lon": "-8.903223266750645",
      "lat": "38.578215181832704"
    },
    {
      "id": "pt.ine.add.PTCONT.5061303",
      "street": "R AMENDOEIRAS",
      "house": "",
      "postcode": "2950-421",
      "city": "PALMELA",
      "lon": "-8.905090403867183",
      "lat": "38.58218451394266"
    },
    {
      "id": "pt.ine.add.PTCONT.5062534",
      "street": "R CARLOS RODRIGUES ESPADA",
      "house": "",
      "postcode": "2950-430",
      "city": "PALMELA",
      "lon": "-8.903932660669431",
      "lat": "38.5825316813489"
    },
    {
      "id": "pt.ine.add.PTCONT.5064895",
      "street": "R LIMOEIROS",
      "house": "",
      "postcode": "2950-421",
      "city": "PALMELA",
      "lon": "-8.904594929684311",
      "lat": "38.581998608482884"
    },
    {
      "id": "pt.ine.add.PTCONT.5068617",
      "street": "R LARANJEIRAS",
      "house": "",
      "postcode": "2950-421",
      "city": "PALMELA",
      "lon": "-8.906014616518771",
      "lat": "38.58168296243924"
    },
    {
      "id": "pt.ine.add.PTCONT.5071780",
      "street": "ESTR CARVALHOS",
      "house": "",
      "postcode": "2950-312",
      "city": "PALMELA",
      "lon": "-8.906948428224904",
      "lat": "38.57993820630108"
    },
    {
      "id": "pt.ine.add.PTCONT.5083094",
      "street": "R LARANJEIRAS",
      "house": "6",
      "postcode": "2950-421",
      "city": "PALMELA",
      "lon": "-8.905426760821669",
      "lat": "38.58144362121811"
    },
    {
      "id": "pt.ine.add.PTCONT.5086307",
      "street": "ESTR CARVALHOS",
      "house": "3",
      "postcode": "2950-312",
      "city": "PALMELA",
      "lon": "-8.90330330291432",
      "lat": "38.578187630520816"
    },
    {
      "id": "pt.ine.add.PTCONT.5087397",
      "street": "R AMEIXEIRAS",
      "house": "5",
      "postcode": "2950-421",
      "city": "PALMELA",
      "lon": "-8.904852023195597",
      "lat": "38.58135733020045"
    },
    {
      "id": "pt.ine.add.PTCONT.5090092",
      "street": "R AMENDOEIRAS",
      "house": "38",
      "postcode": "2950-421",
      "city": "PALMELA",
      "lon": "-8.904885096505609",
      "lat": "38.582302974748366"
    },
    {
      "id": "pt.ine.add.PTCONT.5090093",
      "street": "R CIRIOS DO CABO",
      "house": "1",
      "postcode": "2950-423",
      "city": "PALMELA",
      "lon": "-8.904730148829206",
      "lat": "38.578547569595145"
    },
    {
      "id": "pt.ine.add.PTCONT.5095619",
      "street": "R D JORGE",
      "house": "",
      "postcode": "2950-423",
      "city": "PALMELA",
      "lon": "-8.906493842639463",
      "lat": "38.579283611070295"
    },
    {
      "id": "pt.ine.add.PTCONT.5095620",
      "street": "R SILVA RASTEIRO",
      "house": "",
      "postcode": "2950-423",
      "city": "PALMELA",
      "lon": "-8.90558517883098",
      "lat": "38.578019452756934"
    },
    {
      "id": "pt.ine.add.PTCONT.5101423",
      "street": "PCT PESSEGUEIROS",
      "house": "8",
      "postcode": "2950-421",
      "city": "PALMELA",
      "lon": "-8.904231770393007",
      "lat": "38.58130736910766"
    },
    {
      "id": "pt.ine.add.PTCONT.5104099",
      "street": "R D JORGE",
      "house": "",
      "postcode": "2950-423",
      "city": "PALMELA",
      "lon": "-8.906656619961511",
      "lat": "38.57948071616773"
    },
    {
      "id": "pt.ine.add.PTCONT.5124278",
      "street": "PCT MAGNOLIA",
      "house": "1",
      "postcode": "2950-421",
      "city": "PALMELA",
      "lon": "-8.904846817734178",
      "lat": "38.58087092082501"
    },
    {
      "id": "pt.ine.add.PTCONT.5132185",
      "street": "R SILVA RASTEIRO",
      "house": "",
      "postcode": "2950-423",
      "city": "PALMELA",
      "lon": "-8.906214851362435",
      "lat": "38.577880171952195"
    }
  ]
}