{
  "data": {
    "distrito": "Lisboa",
    "concelho": "Alenquer",
    "freguesia": "União das freguesias de Carregado e Cadafais",
    "OBJECTID": 485,
    "BGRI2021": "11012000610",
    "DT21": "11",
    "DTMN21": "1101",
    "DTMNFR21": "110120",
    "DTMNFRSEC21": "110120006",
    "SECNUM21": "006",
    "SSNUM21": "10",
    "SECSSNUM21": "00610",
    "OBJECTID_1": 99211,
    "DT": "11",
    "CC": "01",
    "fr": "20",
    "SEC": "006",
    "SS": "10"
  },
  "addresses": [
    {
      "id": "pt.ine.add.PTCONT.2273440",
      "street": "R NOVA",
      "house": "12",
      "postcode": "2580-507",
      "city": "CARREGADO",
      "lon": "-8.954063995605749",
      "lat": "39.031901482653716"
    },
    {
      "id": "pt.ine.add.PTCONT.2347590",
      "street": "R NOVA",
      "house": "6",
      "postcode": "2580-507",
      "city": "CARREGADO",
      "lon": "-8.954846848479965",
      "lat": "39.03168879736755"
    },
    {
      "id": "pt.ine.add.PTCONT.2358735",
      "street": "CSL CASAL VELHO",
      "house": "",
      "postcode": "2580-507",
      "city": "CARREGADO",
      "lon": "-8.959684009956272",
      "lat": "39.030546695815495"
    },
    {
      "id": "pt.ine.add.PTCONT.2393642",
      "street": "QTA CAMPO",
      "house": "",
      "postcode": "2580-507",
      "city": "CARREGADO",
      "lon": "-8.947633162705628",
      "lat": "39.03105482352306"
    },
    {
      "id": "pt.ine.add.PTCONT.2395928",
      "street": "R NOVA",
      "house": "25",
      "postcode": "2580-507",
      "city": "CARREGADO",
      "lon": "-8.955584758362479",
      "lat": "39.03158451386739"
    },
    {
      "id": "pt.ine.add.PTCONT.2492025",
      "street": "R BELA VISTA",
      "house": "11",
      "postcode": "2580-507",
      "city": "CARREGADO",
      "lon": "-8.953645357610919",
      "lat": "39.031652218106935"
    },
    {
      "id": "pt.ine.add.PTCONT.2492026",
      "street": "R BELA VISTA",
      "house": "113",
      "postcode": "2580-507",
      "city": "CARREGADO",
      "lon": "-8.953645357610919",
      "lat": "39.031652218106935"
    },
    {
      "id": "pt.ine.add.PTCONT.2492027",
      "street": "R BELA VISTA",
      "house": "11",
      "postcode": "2580-507",
      "city": "CARREGADO",
      "lon": "-8.953645357610919",
      "lat": "39.031652218106935"
    },
    {
      "id": "pt.ine.add.PTCONT.2498076",
      "street": "R MARQUES PONTE DE LIMA",
      "house": "5",
      "postcode": "2580-507",
      "city": "CARREGADO",
      "lon": "-8.956213248284088",
      "lat": "39.03200343342443"
    },
    {
      "id": "pt.ine.add.PTCONT.2505145",
      "street": "URB HORTA D EL REI",
      "house": "15",
      "postcode": "2580-598",
      "city": "CARREGADO",
      "lon": "-8.963763775034236",
      "lat": "39.01996090563069"
    },
    {
      "id": "pt.ine.add.PTCONT.2531954",
      "street": "R MARQUES PONTE DE LIMA",
      "house": "27",
      "postcode": "2580-507",
      "city": "CARREGADO",
      "lon": "-8.955172030104148",
      "lat": "39.030848807559316"
    },
    {
      "id": "pt.ine.add.PTCONT.2586176",
      "street": "CSL CASAL VELHO",
      "house": "",
      "postcode": "2580-507",
      "city": "CARREGADO",
      "lon": "-8.95989081710152",
      "lat": "39.03045515502223"
    },
    {
      "id": "pt.ine.add.PTCONT.2621998",
      "street": "CASA DE QUINTA",
      "house": "",
      "postcode": "2580-507",
      "city": "CARREGADO",
      "lon": "-8.957620932469046",
      "lat": "39.03189440871688"
    },
    {
      "id": "pt.ine.add.PTCONT.2640962",
      "street": "R NOVA",
      "house": "20",
      "postcode": "2580-507",
      "city": "CARREGADO",
      "lon": "-8.952739845008487",
      "lat": "39.03224407275592"
    },
    {
      "id": "pt.ine.add.PTCONT.2651449",
      "street": "R NOVA",
      "house": "23",
      "postcode": "2580-507",
      "city": "CARREGADO",
      "lon": "-8.952925547714147",
      "lat": "39.03232383527404"
    },
    {
      "id": "pt.ine.add.PTCONT.2651450",
      "street": "R NOVA",
      "house": "3",
      "postcode": "2580-507",
      "city": "CARREGADO",
      "lon": "-8.955123995355137",
      "lat": "39.03168684454386"
    },
    {
      "id": "pt.ine.add.PTCONT.2657825",
      "street": "R BELA VISTA",
      "house": "7",
      "postcode": "2580-598",
      "city": "CARREGADO",
      "lon": "-8.96352295161694",
      "lat": "39.01986717112109"
    },
    {
      "id": "pt.ine.add.PTCONT.2698035",
      "street": "R NOVA",
      "house": "4",
      "postcode": "2580-507",
      "city": "CARREGADO",
      "lon": "-8.955179334287989",
      "lat": "39.031479281812004"
    },
    {
      "id": "pt.ine.add.PTCONT.2710163",
      "street": "MEIRINHA",
      "house": "30",
      "postcode": "2580-510",
      "city": "CARREGADO",
      "lon": "-8.964139885141533",
      "lat": "39.02052570074074"
    },
    {
      "id": "pt.ine.add.PTCONT.2746513",
      "street": "R BELA VISTA",
      "house": "11",
      "postcode": "2580-507",
      "city": "CARREGADO",
      "lon": "-8.953886402507106",
      "lat": "39.031524417039215"
    },
    {
      "id": "pt.ine.add.PTCONT.2746515",
      "street": "R NOVA",
      "house": "11",
      "postcode": "2580-507",
      "city": "CARREGADO",
      "lon": "-8.954066496590146",
      "lat": "39.03211764528344"
    },
    {
      "id": "pt.ine.add.PTCONT.2764238",
      "street": "R MARQUES PONTE DE LIMA",
      "house": "1",
      "postcode": "2580-507",
      "city": "CARREGADO",
      "lon": "-8.95635474825094",
      "lat": "39.03225464504975"
    },
    {
      "id": "pt.ine.add.PTCONT.2790858",
      "street": "R NOVA",
      "house": "19",
      "postcode": "2580-507",
      "city": "CARREGADO",
      "lon": "-8.953179289124247",
      "lat": "39.03229502903766"
    },
    {
      "id": "pt.ine.add.PTCONT.2804444",
      "street": "R NOVA",
      "house": "18",
      "postcode": "2580-507",
      "city": "CARREGADO",
      "lon": "-8.952958630378157",
      "lat": "39.03218849009911"
    },
    {
      "id": "pt.ine.add.PTCONT.2862728",
      "street": "R BELA VISTA",
      "house": "5",
      "postcode": "2580-507",
      "city": "CARREGADO",
      "lon": "-8.954403862576125",
      "lat": "39.03133161694229"
    },
    {
      "id": "pt.ine.add.PTCONT.2872492",
      "street": "R NOVA",
      "house": "10",
      "postcode": "2580-507",
      "city": "CARREGADO",
      "lon": "-8.954443718451872",
      "lat": "39.03178171181332"
    },
    {
      "id": "pt.ine.add.PTCONT.2886450",
      "street": "EN 3",
      "house": "",
      "postcode": "2580-596",
      "city": "CARREGADO",
      "lon": "-8.95270051985018",
      "lat": "39.032838844713126"
    },
    {
      "id": "pt.ine.add.PTCONT.2908400",
      "street": "R NOVA",
      "house": "8",
      "postcode": "2580-507",
      "city": "CARREGADO",
      "lon": "-8.954776935976383",
      "lat": "39.0316352448196"
    },
    {
      "id": "pt.ine.add.PTCONT.2908401",
      "street": "R NOVA",
      "house": "16",
      "postcode": "2580-507",
      "city": "CARREGADO",
      "lon": "-8.953350112768698",
      "lat": "39.03208665517635"
    },
    {
      "id": "pt.ine.add.PTCONT.2939807",
      "street": "R BELA VISTA",
      "house": "15",
      "postcode": "2580-507",
      "city": "CARREGADO",
      "lon": "-8.95267960881195",
      "lat": "39.03202831577325"
    },
    {
      "id": "pt.ine.add.PTCONT.2939922",
      "street": "R BELA VISTA",
      "house": "108",
      "postcode": "2580-507",
      "city": "CARREGADO",
      "lon": "-8.95267960881195",
      "lat": "39.03202831577325"
    },
    {
      "id": "pt.ine.add.PTCONT.2999628",
      "street": "R MARQUES PONTE DE LIMA",
      "house": "11",
      "postcode": "2580-507",
      "city": "CARREGADO",
      "lon": "-8.955512026903795",
      "lat": "39.03128777887052"
    },
    {
      "id": "pt.ine.add.PTCONT.3027239",
      "street": "R NOVA",
      "house": "21",
      "postcode": "2580-507",
      "city": "CARREGADO",
      "lon": "-8.953018347184127",
      "lat": "39.0323592130311"
    },
    {
      "id": "pt.ine.add.PTCONT.3036249",
      "street": "MEIRINHA",
      "house": "22",
      "postcode": "2580-510",
      "city": "CARREGADO",
      "lon": "-8.964231619961797",
      "lat": "39.02047100204409"
    },
    {
      "id": "pt.ine.add.PTCONT.3066235",
      "street": "R MARQUES PONTE DE LIMA",
      "house": "13B",
      "postcode": "2580-507",
      "city": "CARREGADO",
      "lon": "-8.954831232863404",
      "lat": "39.03133761448532"
    },
    {
      "id": "pt.ine.add.PTCONT.3083682",
      "street": "R NOVA",
      "house": "9",
      "postcode": "2580-507",
      "city": "CARREGADO",
      "lon": "-8.954307542278759",
      "lat": "39.03198984334666"
    },
    {
      "id": "pt.ine.add.PTCONT.3092846",
      "street": "R NOVA",
      "house": "14",
      "postcode": "2580-507",
      "city": "CARREGADO",
      "lon": "-8.953753350189274",
      "lat": "39.032002751258226"
    },
    {
      "id": "pt.ine.add.PTCONT.3092847",
      "street": "R NOVA",
      "house": "7",
      "postcode": "2580-507",
      "city": "CARREGADO",
      "lon": "-8.954606743277715",
      "lat": "39.03189766138127"
    },
    {
      "id": "pt.ine.add.PTCONT.3092850",
      "street": "URB HORTA D EL REI",
      "house": "16",
      "postcode": "2580-510",
      "city": "CARREGADO",
      "lon": "-8.963858355376008",
      "lat": "39.02014939008816"
    },
    {
      "id": "pt.ine.add.PTCONT.3120224",
      "street": "EN 3 QTA DA ALEGRIA",
      "house": "1",
      "postcode": "2580-507",
      "city": "CARREGADO",
      "lon": "-8.952445459611576",
      "lat": "39.02475188789228"
    },
    {
      "id": "pt.ine.add.PTCONT.3138352",
      "street": "R MARQUES PONTE DE LIMA",
      "house": "19",
      "postcode": "2580-507",
      "city": "CARREGADO",
      "lon": "-8.955019719847622",
      "lat": "39.030660723166974"
    },
    {
      "id": "pt.ine.add.PTCONT.3138353",
      "street": "R GIL EANES",
      "house": "110",
      "postcode": "2580-481",
      "city": "CARREGADO",
      "lon": "-8.955019719847622",
      "lat": "39.030660723166974"
    },
    {
      "id": "pt.ine.add.PTCONT.3138354",
      "street": "R GIL EANES",
      "house": "19",
      "postcode": "2580-481",
      "city": "CARREGADO",
      "lon": "-8.955019719847622",
      "lat": "39.030660723166974"
    },
    {
      "id": "pt.ine.add.PTCONT.3138356",
      "street": "EN 3",
      "house": "",
      "postcode": "2580-596",
      "city": "CARREGADO",
      "lon": "-8.95513547313309",
      "lat": "39.03267758963609"
    },
    {
      "id": "pt.ine.add.PTCONT.3138369",
      "street": "CSL CASAL VELHO",
      "house": "",
      "postcode": "2580-507",
      "city": "CARREGADO",
      "lon": "-8.96008733574471",
      "lat": "39.030471776918155"
    },
    {
      "id": "pt.ine.add.PTCONT.3167852",
      "street": "R DALIAS",
      "house": "3",
      "postcode": "2580-598",
      "city": "CARREGADO",
      "lon": "-8.963426764156894",
      "lat": "39.01981837839014"
    },
    {
      "id": "pt.ine.add.PTCONT.3231796",
      "street": "R BELA VISTA",
      "house": "1",
      "postcode": "2580-507",
      "city": "CARREGADO",
      "lon": "-8.9551389522528",
      "lat": "39.03098415334076"
    },
    {
      "id": "pt.ine.add.PTCONT.3231797",
      "street": "R BELA VISTA",
      "house": "13A",
      "postcode": "2580-507",
      "city": "CARREGADO",
      "lon": "-8.9551389522528",
      "lat": "39.03098415334076"
    },
    {
      "id": "pt.ine.add.PTCONT.3231807",
      "street": "URB HORTA D EL REI",
      "house": "",
      "postcode": "2580-510",
      "city": "CARREGADO",
      "lon": "-8.963591535577521",
      "lat": "39.02004319970197"
    },
    {
      "id": "pt.ine.add.PTCONT.3238533",
      "street": "R BELA VISTA",
      "house": "9",
      "postcode": "2580-598",
      "city": "CARREGADO",
      "lon": "-8.964185155502088",
      "lat": "39.02016735261954"
    },
    {
      "id": "pt.ine.add.PTCONT.3238560",
      "street": "R NOVA",
      "house": "15",
      "postcode": "2580-507",
      "city": "CARREGADO",
      "lon": "-8.953789556305159",
      "lat": "39.0321376091659"
    },
    {
      "id": "pt.ine.add.PTCONT.3241051",
      "street": "R BELA VISTA",
      "house": "6",
      "postcode": "2580-507",
      "city": "CARREGADO",
      "lon": "-8.953150988733396",
      "lat": "39.03184485250507"
    },
    {
      "id": "pt.ine.add.PTCONT.3241052",
      "street": "R BELA VISTA",
      "house": "112",
      "postcode": "2580-507",
      "city": "CARREGADO",
      "lon": "-8.953150988733396",
      "lat": "39.03184485250507"
    },
    {
      "id": "pt.ine.add.PTCONT.3247498",
      "street": "R BELA VISTA",
      "house": "112",
      "postcode": "2580-507",
      "city": "CARREGADO",
      "lon": "-8.953150988733396",
      "lat": "39.03184485250507"
    },
    {
      "id": "pt.ine.add.PTCONT.3259717",
      "street": "R NOVA",
      "house": "5",
      "postcode": "2580-507",
      "city": "CARREGADO",
      "lon": "-8.95487130007003",
      "lat": "39.03180572273011"
    },
    {
      "id": "pt.ine.add.PTCONT.3268414",
      "street": "R MARQUES PONTE DE LIMA",
      "house": "2",
      "postcode": "2580-507",
      "city": "CARREGADO",
      "lon": "-8.956596208312739",
      "lat": "39.03216286550748"
    },
    {
      "id": "pt.ine.add.PTCONT.3286635",
      "street": "R COMEND GUILHERME JOÃO CARLOS HENRIQUES",
      "house": "17",
      "postcode": "2580-598",
      "city": "CARREGADO",
      "lon": "-8.963926365700315",
      "lat": "39.02004081544562"
    },
    {
      "id": "pt.ine.add.PTCONT.3299988",
      "street": "R MARQUES PONTE DE LIMA",
      "house": "13A",
      "postcode": "2580-507",
      "city": "CARREGADO",
      "lon": "-8.955313941483253",
      "lat": "39.03113604766086"
    },
    {
      "id": "pt.ine.add.PTCONT.3314602",
      "street": "R MARQUES PONTE DE LIMA",
      "house": "21",
      "postcode": "2580-507",
      "city": "CARREGADO",
      "lon": "-8.954753081694195",
      "lat": "39.030572526589324"
    },
    {
      "id": "pt.ine.add.PTCONT.3333258",
      "street": "R NOVA",
      "house": "17",
      "postcode": "2580-507",
      "city": "CARREGADO",
      "lon": "-8.953559744618588",
      "lat": "39.03223830848642"
    },
    {
      "id": "pt.ine.add.PTCONT.3342398",
      "street": "EN 3",
      "house": "11",
      "postcode": "2580-596",
      "city": "CARREGADO",
      "lon": "-8.952873635491342",
      "lat": "39.032828620655096"
    },
    {
      "id": "pt.ine.add.PTCONT.3363543",
      "street": "R MARQUES PONTE DE LIMA",
      "house": "2",
      "postcode": "2580-507",
      "city": "CARREGADO",
      "lon": "-8.95694452639451",
      "lat": "39.03232254100352"
    },
    {
      "id": "pt.ine.add.PTCONT.3370727",
      "street": "R BELA VISTA",
      "house": "7",
      "postcode": "2580-507",
      "city": "CARREGADO",
      "lon": "-8.954195899203492",
      "lat": "39.03132407355047"
    },
    {
      "id": "pt.ine.add.PTCONT.3395834",
      "street": "PCT PROF ANTÓNIO MARQUES",
      "house": "5",
      "postcode": "2580-598",
      "city": "CARREGADO",
      "lon": "-8.964381969893966",
      "lat": "39.020250138168265"
    },
    {
      "id": "pt.ine.add.PTCONT.3412044",
      "street": "EN 3",
      "house": "",
      "postcode": "2580-596",
      "city": "CARREGADO",
      "lon": "-8.954200193491936",
      "lat": "39.032693184783604"
    },
    {
      "id": "pt.ine.add.PTCONT.3435225",
      "street": "R MARQUES PONTE DE LIMA",
      "house": "7",
      "postcode": "2580-507",
      "city": "CARREGADO",
      "lon": "-8.956072585024652",
      "lat": "39.03182427578222"
    },
    {
      "id": "pt.ine.add.PTCONT.3440976",
      "street": "R BELA VISTA",
      "house": "1",
      "postcode": "2580-598",
      "city": "CARREGADO",
      "lon": "-8.963308443655569",
      "lat": "39.01976422869399"
    },
    {
      "id": "pt.ine.add.PTCONT.3443933",
      "street": "R BELA VISTA",
      "house": "20",
      "postcode": "2580-510",
      "city": "CARREGADO",
      "lon": "-8.9642534463429",
      "lat": "39.02036275626281"
    },
    {
      "id": "pt.ine.add.PTCONT.3452753",
      "street": "R BELA VISTA",
      "house": "38",
      "postcode": "2580-510",
      "city": "CARREGADO",
      "lon": "-8.964067657330558",
      "lat": "39.020274004644286"
    },
    {
      "id": "pt.ine.add.PTCONT.3455193",
      "street": "R NOVA",
      "house": "9",
      "postcode": "2580-507",
      "city": "CARREGADO",
      "lon": "-8.955804270371285",
      "lat": "39.03159197332474"
    }
  ]
}