{
  "data": {
    "distrito": "Porto",
    "concelho": "Marco de Canaveses",
    "freguesia": "Marco",
    "OBJECTID": 936,
    "BGRI2021": "13073600915",
    "DT21": "13",
    "DTMN21": "1307",
    "DTMNFR21": "130736",
    "DTMNFRSEC21": "130736009",
    "SECNUM21": "009",
    "SSNUM21": "15",
    "SECSSNUM21": "00915",
    "OBJECTID_1": 131503,
    "DT": "13",
    "CC": "07",
    "fr": "36",
    "SEC": "009",
    "SS": "15"
  },
  "addresses": [
    {
      "id": "pt.ine.add.PTCONT.3554255",
      "street": "R DR ARLINDO GONÇALVES SOARES",
      "house": "18",
      "postcode": "4630-278",
      "city": "MARCO DE CANAVESES",
      "lon": "-8.146685310118718",
      "lat": "41.19085816544365"
    },
    {
      "id": "pt.ine.add.PTCONT.3567068",
      "street": "AV DR ARTUR DE MELO E CASTRO",
      "house": "67",
      "postcode": "4630-204",
      "city": "MARCO DE CANAVESES",
      "lon": "-8.145254883312216",
      "lat": "41.19076828181873"
    },
    {
      "id": "pt.ine.add.PTCONT.3567069",
      "street": "AV DR ARTUR DE MELO E CASTRO",
      "house": "67",
      "postcode": "4630-204",
      "city": "MARCO DE CANAVESES",
      "lon": "-8.145254883312216",
      "lat": "41.19076828181873"
    },
    {
      "id": "pt.ine.add.PTCONT.3567070",
      "street": "AV DR ARTUR DE MELO E CASTRO",
      "house": "67",
      "postcode": "4630-204",
      "city": "MARCO DE CANAVESES",
      "lon": "-8.145254883312216",
      "lat": "41.19076828181873"
    },
    {
      "id": "pt.ine.add.PTCONT.3567071",
      "street": "AV DR ARTUR DE MELO E CASTRO",
      "house": "67",
      "postcode": "4630-204",
      "city": "MARCO DE CANAVESES",
      "lon": "-8.145254883312216",
      "lat": "41.19076828181873"
    },
    {
      "id": "pt.ine.add.PTCONT.3567072",
      "street": "AV DR ARTUR DE MELO E CASTRO",
      "house": "67",
      "postcode": "4630-204",
      "city": "MARCO DE CANAVESES",
      "lon": "-8.145254883312216",
      "lat": "41.19076828181873"
    },
    {
      "id": "pt.ine.add.PTCONT.3567078",
      "street": "AV DR ARTUR DE MELO E CASTRO",
      "house": "67",
      "postcode": "4630-204",
      "city": "MARCO DE CANAVESES",
      "lon": "-8.145254883312216",
      "lat": "41.19076828181873"
    },
    {
      "id": "pt.ine.add.PTCONT.3567079",
      "street": "AV DR ARTUR DE MELO E CASTRO",
      "house": "67",
      "postcode": "4630-204",
      "city": "MARCO DE CANAVESES",
      "lon": "-8.145254883312216",
      "lat": "41.19076828181873"
    },
    {
      "id": "pt.ine.add.PTCONT.3567080",
      "street": "AV DR ARTUR DE MELO E CASTRO",
      "house": "67",
      "postcode": "4630-204",
      "city": "MARCO DE CANAVESES",
      "lon": "-8.145254883312216",
      "lat": "41.19076828181873"
    },
    {
      "id": "pt.ine.add.PTCONT.3567081",
      "street": "AV DR ARTUR DE MELO E CASTRO",
      "house": "67",
      "postcode": "4630-204",
      "city": "MARCO DE CANAVESES",
      "lon": "-8.145254883312216",
      "lat": "41.19076828181873"
    },
    {
      "id": "pt.ine.add.PTCONT.3567082",
      "street": "AV DR ARTUR DE MELO E CASTRO",
      "house": "67",
      "postcode": "4630-204",
      "city": "MARCO DE CANAVESES",
      "lon": "-8.145254883312216",
      "lat": "41.19076828181873"
    },
    {
      "id": "pt.ine.add.PTCONT.3567083",
      "street": "AV DR ARTUR DE MELO E CASTRO",
      "house": "67",
      "postcode": "4630-204",
      "city": "MARCO DE CANAVESES",
      "lon": "-8.145254883312216",
      "lat": "41.19076828181873"
    },
    {
      "id": "pt.ine.add.PTCONT.3567084",
      "street": "AV DR ARTUR DE MELO E CASTRO",
      "house": "67",
      "postcode": "4630-204",
      "city": "MARCO DE CANAVESES",
      "lon": "-8.145254883312216",
      "lat": "41.19076828181873"
    },
    {
      "id": "pt.ine.add.PTCONT.3567085",
      "street": "AV DR ARTUR DE MELO E CASTRO",
      "house": "67",
      "postcode": "4630-204",
      "city": "MARCO DE CANAVESES",
      "lon": "-8.145254883312216",
      "lat": "41.19076828181873"
    },
    {
      "id": "pt.ine.add.PTCONT.3567086",
      "street": "AV DR ARTUR DE MELO E CASTRO",
      "house": "67",
      "postcode": "4630-204",
      "city": "MARCO DE CANAVESES",
      "lon": "-8.145254883312216",
      "lat": "41.19076828181873"
    },
    {
      "id": "pt.ine.add.PTCONT.3570789",
      "street": "AV DR ARTUR DE MELO E CASTRO",
      "house": "67",
      "postcode": "4630-204",
      "city": "MARCO DE CANAVESES",
      "lon": "-8.145254883312216",
      "lat": "41.19076828181873"
    },
    {
      "id": "pt.ine.add.PTCONT.3593019",
      "street": "AV TORRES DO MARCO",
      "house": "11",
      "postcode": "4630-209",
      "city": "MARCO DE CANAVESES",
      "lon": "-8.14571989039153",
      "lat": "41.19141654404421"
    },
    {
      "id": "pt.ine.add.PTCONT.3593020",
      "street": "AV TORRES DO MARCO",
      "house": "11",
      "postcode": "4630-209",
      "city": "MARCO DE CANAVESES",
      "lon": "-8.14571989039153",
      "lat": "41.19141654404421"
    },
    {
      "id": "pt.ine.add.PTCONT.3593021",
      "street": "AV TORRES DO MARCO",
      "house": "11",
      "postcode": "4630-209",
      "city": "MARCO DE CANAVESES",
      "lon": "-8.14571989039153",
      "lat": "41.19141654404421"
    },
    {
      "id": "pt.ine.add.PTCONT.3593022",
      "street": "AV TORRES DO MARCO",
      "house": "11",
      "postcode": "4630-209",
      "city": "MARCO DE CANAVESES",
      "lon": "-8.14571989039153",
      "lat": "41.19141654404421"
    },
    {
      "id": "pt.ine.add.PTCONT.3593165",
      "street": "AV TORRES DO MARCO",
      "house": "11",
      "postcode": "4630-209",
      "city": "MARCO DE CANAVESES",
      "lon": "-8.14571989039153",
      "lat": "41.19141654404421"
    },
    {
      "id": "pt.ine.add.PTCONT.3593166",
      "street": "AV TORRES DO MARCO",
      "house": "11",
      "postcode": "4630-209",
      "city": "MARCO DE CANAVESES",
      "lon": "-8.14571989039153",
      "lat": "41.19141654404421"
    },
    {
      "id": "pt.ine.add.PTCONT.3593167",
      "street": "AV TORRES DO MARCO",
      "house": "11",
      "postcode": "4630-209",
      "city": "MARCO DE CANAVESES",
      "lon": "-8.14571989039153",
      "lat": "41.19141654404421"
    },
    {
      "id": "pt.ine.add.PTCONT.3593168",
      "street": "AV TORRES DO MARCO",
      "house": "11",
      "postcode": "4630-209",
      "city": "MARCO DE CANAVESES",
      "lon": "-8.14571989039153",
      "lat": "41.19141654404421"
    },
    {
      "id": "pt.ine.add.PTCONT.3593169",
      "street": "AV TORRES DO MARCO",
      "house": "11",
      "postcode": "4630-209",
      "city": "MARCO DE CANAVESES",
      "lon": "-8.14571989039153",
      "lat": "41.19141654404421"
    },
    {
      "id": "pt.ine.add.PTCONT.3593170",
      "street": "AV TORRES DO MARCO",
      "house": "11",
      "postcode": "4630-209",
      "city": "MARCO DE CANAVESES",
      "lon": "-8.14571989039153",
      "lat": "41.19141654404421"
    },
    {
      "id": "pt.ine.add.PTCONT.3593171",
      "street": "AV TORRES DO MARCO",
      "house": "11",
      "postcode": "4630-209",
      "city": "MARCO DE CANAVESES",
      "lon": "-8.14571989039153",
      "lat": "41.19141654404421"
    },
    {
      "id": "pt.ine.add.PTCONT.3593172",
      "street": "AV TORRES DO MARCO",
      "house": "11",
      "postcode": "4630-209",
      "city": "MARCO DE CANAVESES",
      "lon": "-8.14571989039153",
      "lat": "41.19141654404421"
    },
    {
      "id": "pt.ine.add.PTCONT.3593173",
      "street": "AV TORRES DO MARCO",
      "house": "11",
      "postcode": "4630-209",
      "city": "MARCO DE CANAVESES",
      "lon": "-8.14571989039153",
      "lat": "41.19141654404421"
    },
    {
      "id": "pt.ine.add.PTCONT.3593174",
      "street": "AV TORRES DO MARCO",
      "house": "11",
      "postcode": "4630-209",
      "city": "MARCO DE CANAVESES",
      "lon": "-8.14571989039153",
      "lat": "41.19141654404421"
    },
    {
      "id": "pt.ine.add.PTCONT.3593175",
      "street": "AV TORRES DO MARCO",
      "house": "11",
      "postcode": "4630-209",
      "city": "MARCO DE CANAVESES",
      "lon": "-8.14571989039153",
      "lat": "41.19141654404421"
    },
    {
      "id": "pt.ine.add.PTCONT.3593176",
      "street": "AV TORRES DO MARCO",
      "house": "11",
      "postcode": "4630-209",
      "city": "MARCO DE CANAVESES",
      "lon": "-8.14571989039153",
      "lat": "41.19141654404421"
    },
    {
      "id": "pt.ine.add.PTCONT.3593177",
      "street": "AV TORRES DO MARCO",
      "house": "11",
      "postcode": "4630-209",
      "city": "MARCO DE CANAVESES",
      "lon": "-8.14571989039153",
      "lat": "41.19141654404421"
    },
    {
      "id": "pt.ine.add.PTCONT.3593178",
      "street": "AV TORRES DO MARCO",
      "house": "11",
      "postcode": "4630-209",
      "city": "MARCO DE CANAVESES",
      "lon": "-8.14571989039153",
      "lat": "41.19141654404421"
    },
    {
      "id": "pt.ine.add.PTCONT.3593179",
      "street": "AV TORRES DO MARCO",
      "house": "11",
      "postcode": "4630-209",
      "city": "MARCO DE CANAVESES",
      "lon": "-8.14571989039153",
      "lat": "41.19141654404421"
    },
    {
      "id": "pt.ine.add.PTCONT.3593399",
      "street": "AV TORRES DO MARCO",
      "house": "11",
      "postcode": "4630-209",
      "city": "MARCO DE CANAVESES",
      "lon": "-8.14571989039153",
      "lat": "41.19141654404421"
    },
    {
      "id": "pt.ine.add.PTCONT.3593400",
      "street": "AV TORRES DO MARCO",
      "house": "11",
      "postcode": "4630-209",
      "city": "MARCO DE CANAVESES",
      "lon": "-8.14571989039153",
      "lat": "41.19141654404421"
    },
    {
      "id": "pt.ine.add.PTCONT.3593401",
      "street": "AV TORRES DO MARCO",
      "house": "11",
      "postcode": "4630-209",
      "city": "MARCO DE CANAVESES",
      "lon": "-8.14571989039153",
      "lat": "41.19141654404421"
    },
    {
      "id": "pt.ine.add.PTCONT.3593402",
      "street": "AV TORRES DO MARCO",
      "house": "11",
      "postcode": "4630-209",
      "city": "MARCO DE CANAVESES",
      "lon": "-8.14571989039153",
      "lat": "41.19141654404421"
    },
    {
      "id": "pt.ine.add.PTCONT.3593403",
      "street": "AV TORRES DO MARCO",
      "house": "11",
      "postcode": "4630-209",
      "city": "MARCO DE CANAVESES",
      "lon": "-8.14571989039153",
      "lat": "41.19141654404421"
    },
    {
      "id": "pt.ine.add.PTCONT.3593404",
      "street": "AV TORRES DO MARCO",
      "house": "11",
      "postcode": "4630-209",
      "city": "MARCO DE CANAVESES",
      "lon": "-8.14571989039153",
      "lat": "41.19141654404421"
    },
    {
      "id": "pt.ine.add.PTCONT.3593405",
      "street": "AV TORRES DO MARCO",
      "house": "11",
      "postcode": "4630-209",
      "city": "MARCO DE CANAVESES",
      "lon": "-8.14571989039153",
      "lat": "41.19141654404421"
    },
    {
      "id": "pt.ine.add.PTCONT.3593406",
      "street": "AV TORRES DO MARCO",
      "house": "11",
      "postcode": "4630-209",
      "city": "MARCO DE CANAVESES",
      "lon": "-8.14571989039153",
      "lat": "41.19141654404421"
    },
    {
      "id": "pt.ine.add.PTCONT.3593407",
      "street": "AV TORRES DO MARCO",
      "house": "11",
      "postcode": "4630-209",
      "city": "MARCO DE CANAVESES",
      "lon": "-8.14571989039153",
      "lat": "41.19141654404421"
    },
    {
      "id": "pt.ine.add.PTCONT.3593408",
      "street": "AV TORRES DO MARCO",
      "house": "11",
      "postcode": "4630-209",
      "city": "MARCO DE CANAVESES",
      "lon": "-8.14571989039153",
      "lat": "41.19141654404421"
    },
    {
      "id": "pt.ine.add.PTCONT.3593409",
      "street": "AV TORRES MARCO",
      "house": "14",
      "postcode": "4630-209",
      "city": "MARCO DE CANAVESES",
      "lon": "-8.14571989039153",
      "lat": "41.19141654404421"
    },
    {
      "id": "pt.ine.add.PTCONT.3593410",
      "street": "AV TORRES DO MARCO",
      "house": "11",
      "postcode": "4630-209",
      "city": "MARCO DE CANAVESES",
      "lon": "-8.14571989039153",
      "lat": "41.19141654404421"
    },
    {
      "id": "pt.ine.add.PTCONT.3593411",
      "street": "AV TORRES DO MARCO",
      "house": "11",
      "postcode": "4630-209",
      "city": "MARCO DE CANAVESES",
      "lon": "-8.14571989039153",
      "lat": "41.19141654404421"
    },
    {
      "id": "pt.ine.add.PTCONT.3593412",
      "street": "AV TORRES DO MARCO",
      "house": "11",
      "postcode": "4630-209",
      "city": "MARCO DE CANAVESES",
      "lon": "-8.14571989039153",
      "lat": "41.19141654404421"
    },
    {
      "id": "pt.ine.add.PTCONT.3593631",
      "street": "AV TORRES DO MARCO",
      "house": "11",
      "postcode": "4630-209",
      "city": "MARCO DE CANAVESES",
      "lon": "-8.14571989039153",
      "lat": "41.19141654404421"
    },
    {
      "id": "pt.ine.add.PTCONT.3593632",
      "street": "AV TORRES DO MARCO",
      "house": "11",
      "postcode": "4630-209",
      "city": "MARCO DE CANAVESES",
      "lon": "-8.14571989039153",
      "lat": "41.19141654404421"
    },
    {
      "id": "pt.ine.add.PTCONT.3596229",
      "street": "AV TORRES DO MARCO",
      "house": "11",
      "postcode": "4630-209",
      "city": "MARCO DE CANAVESES",
      "lon": "-8.14571989039153",
      "lat": "41.19141654404421"
    },
    {
      "id": "pt.ine.add.PTCONT.3596243",
      "street": "AV TORRES DO MARCO",
      "house": "11",
      "postcode": "4630-209",
      "city": "MARCO DE CANAVESES",
      "lon": "-8.14571989039153",
      "lat": "41.19141654404421"
    },
    {
      "id": "pt.ine.add.PTCONT.3596327",
      "street": "AV TORRES DO MARCO",
      "house": "11",
      "postcode": "4630-209",
      "city": "MARCO DE CANAVESES",
      "lon": "-8.14571989039153",
      "lat": "41.19141654404421"
    },
    {
      "id": "pt.ine.add.PTCONT.3596422",
      "street": "AV TORRES DO MARCO",
      "house": "11",
      "postcode": "4630-209",
      "city": "MARCO DE CANAVESES",
      "lon": "-8.14571989039153",
      "lat": "41.19141654404421"
    },
    {
      "id": "pt.ine.add.PTCONT.3596502",
      "street": "AV TORRES DO MARCO",
      "house": "11",
      "postcode": "4630-209",
      "city": "MARCO DE CANAVESES",
      "lon": "-8.14571989039153",
      "lat": "41.19141654404421"
    },
    {
      "id": "pt.ine.add.PTCONT.3596645",
      "street": "AV TORRES DO MARCO",
      "house": "11",
      "postcode": "4630-209",
      "city": "MARCO DE CANAVESES",
      "lon": "-8.14571989039153",
      "lat": "41.19141654404421"
    },
    {
      "id": "pt.ine.add.PTCONT.3698354",
      "street": "R DR ARLINDO GONÇALVES SOARES",
      "house": "4",
      "postcode": "4630-278",
      "city": "MARCO DE CANAVESES",
      "lon": "-8.14664953687762",
      "lat": "41.19079513929898"
    },
    {
      "id": "pt.ine.add.PTCONT.3760711",
      "street": "VLA CASAS",
      "house": "13",
      "postcode": "4630-241",
      "city": "MARCO DE CANAVESES",
      "lon": "-8.146184659396082",
      "lat": "41.190822206027796"
    },
    {
      "id": "pt.ine.add.PTCONT.3782599",
      "street": "VLA CASAS",
      "house": "47",
      "postcode": "4630-241",
      "city": "MARCO DE CANAVESES",
      "lon": "-8.14587478808936",
      "lat": "41.19108336654861"
    },
    {
      "id": "pt.ine.add.PTCONT.3799862",
      "street": "R ENG ADELINO AMARO DA COSTA",
      "house": "555",
      "postcode": "4630-115",
      "city": "MARCO DE CANAVESES",
      "lon": "-8.145314420104308",
      "lat": "41.19042611071956"
    },
    {
      "id": "pt.ine.add.PTCONT.3822898",
      "street": "R ENG ADELINO AMARO DA COSTA",
      "house": "523",
      "postcode": "4630-115",
      "city": "MARCO DE CANAVESES",
      "lon": "-8.145540915555369",
      "lat": "41.19050712552723"
    },
    {
      "id": "pt.ine.add.PTCONT.3825482",
      "street": "AV DR ARTUR DE MELO E CASTRO",
      "house": "51",
      "postcode": "4630-204",
      "city": "MARCO DE CANAVESES",
      "lon": "-8.145111819466566",
      "lat": "41.19064223610276"
    },
    {
      "id": "pt.ine.add.PTCONT.3825483",
      "street": "AV DR ARTUR DE MELO E CASTRO",
      "house": "51",
      "postcode": "4630-204",
      "city": "MARCO DE CANAVESES",
      "lon": "-8.145111819466566",
      "lat": "41.19064223610276"
    },
    {
      "id": "pt.ine.add.PTCONT.3825484",
      "street": "AV DR ARTUR DE MELO E CASTRO",
      "house": "51",
      "postcode": "4630-204",
      "city": "MARCO DE CANAVESES",
      "lon": "-8.145111819466566",
      "lat": "41.19064223610276"
    },
    {
      "id": "pt.ine.add.PTCONT.3825485",
      "street": "AV DR ARTUR DE MELO E CASTRO",
      "house": "51",
      "postcode": "4630-204",
      "city": "MARCO DE CANAVESES",
      "lon": "-8.145111819466566",
      "lat": "41.19064223610276"
    },
    {
      "id": "pt.ine.add.PTCONT.3825486",
      "street": "AV DR ARTUR DE MELO E CASTRO",
      "house": "51",
      "postcode": "4630-204",
      "city": "MARCO DE CANAVESES",
      "lon": "-8.145111819466566",
      "lat": "41.19064223610276"
    },
    {
      "id": "pt.ine.add.PTCONT.3829169",
      "street": "AV DR ARTUR DE MELO E CASTRO",
      "house": "51",
      "postcode": "4630-204",
      "city": "MARCO DE CANAVESES",
      "lon": "-8.145111819466566",
      "lat": "41.19064223610276"
    },
    {
      "id": "pt.ine.add.PTCONT.3829351",
      "street": "AV DR ARTUR DE MELO E CASTRO",
      "house": "51",
      "postcode": "4630-204",
      "city": "MARCO DE CANAVESES",
      "lon": "-8.145111819466566",
      "lat": "41.19064223610276"
    },
    {
      "id": "pt.ine.add.PTCONT.3837967",
      "street": "AV TORRES MARCO",
      "house": "13",
      "postcode": "4630-209",
      "city": "MARCO DE CANAVESES",
      "lon": "-8.145898719468203",
      "lat": "41.1915515893569"
    },
    {
      "id": "pt.ine.add.PTCONT.3837968",
      "street": "AV TORRES MARCO",
      "house": "13",
      "postcode": "4630-209",
      "city": "MARCO DE CANAVESES",
      "lon": "-8.145898719468203",
      "lat": "41.1915515893569"
    },
    {
      "id": "pt.ine.add.PTCONT.3837969",
      "street": "AV TORRES MARCO",
      "house": "13",
      "postcode": "4630-209",
      "city": "MARCO DE CANAVESES",
      "lon": "-8.145898719468203",
      "lat": "41.1915515893569"
    },
    {
      "id": "pt.ine.add.PTCONT.3837970",
      "street": "AV TORRES MARCO",
      "house": "13",
      "postcode": "4630-209",
      "city": "MARCO DE CANAVESES",
      "lon": "-8.145898719468203",
      "lat": "41.1915515893569"
    },
    {
      "id": "pt.ine.add.PTCONT.3837971",
      "street": "AV TORRES MARCO",
      "house": "13",
      "postcode": "4630-209",
      "city": "MARCO DE CANAVESES",
      "lon": "-8.145898719468203",
      "lat": "41.1915515893569"
    },
    {
      "id": "pt.ine.add.PTCONT.3837972",
      "street": "AV TORRES DO MARCO",
      "house": "13 B",
      "postcode": "4630-209",
      "city": "MARCO DE CANAVESES",
      "lon": "-8.145898719468203",
      "lat": "41.1915515893569"
    },
    {
      "id": "pt.ine.add.PTCONT.3837973",
      "street": "AV TORRES MARCO",
      "house": "13",
      "postcode": "4630-209",
      "city": "MARCO DE CANAVESES",
      "lon": "-8.145898719468203",
      "lat": "41.1915515893569"
    },
    {
      "id": "pt.ine.add.PTCONT.3837974",
      "street": "AV TORRES MARCO",
      "house": "13",
      "postcode": "4630-209",
      "city": "MARCO DE CANAVESES",
      "lon": "-8.145898719468203",
      "lat": "41.1915515893569"
    },
    {
      "id": "pt.ine.add.PTCONT.3837975",
      "street": "AV TORRES MARCO",
      "house": "13",
      "postcode": "4630-209",
      "city": "MARCO DE CANAVESES",
      "lon": "-8.145898719468203",
      "lat": "41.1915515893569"
    },
    {
      "id": "pt.ine.add.PTCONT.3838172",
      "street": "AV TORRES DO MARCO",
      "house": "13 B",
      "postcode": "4630-209",
      "city": "MARCO DE CANAVESES",
      "lon": "-8.145898719468203",
      "lat": "41.1915515893569"
    },
    {
      "id": "pt.ine.add.PTCONT.3838173",
      "street": "AV TORRES MARCO",
      "house": "13",
      "postcode": "4630-209",
      "city": "MARCO DE CANAVESES",
      "lon": "-8.145898719468203",
      "lat": "41.1915515893569"
    },
    {
      "id": "pt.ine.add.PTCONT.3838174",
      "street": "AV TORRES MARCO",
      "house": "",
      "postcode": "4630-209",
      "city": "MARCO DE CANAVESES",
      "lon": "-8.145898719468203",
      "lat": "41.1915515893569"
    },
    {
      "id": "pt.ine.add.PTCONT.3838175",
      "street": "AV TORRES MARCO",
      "house": "13",
      "postcode": "4630-209",
      "city": "MARCO DE CANAVESES",
      "lon": "-8.145898719468203",
      "lat": "41.1915515893569"
    },
    {
      "id": "pt.ine.add.PTCONT.3842071",
      "street": "AV TORRES MARCO",
      "house": "13",
      "postcode": "4630-209",
      "city": "MARCO DE CANAVESES",
      "lon": "-8.145898719468203",
      "lat": "41.1915515893569"
    },
    {
      "id": "pt.ine.add.PTCONT.3985208",
      "street": "R ENG ADELINO AMARO DA COSTA",
      "house": "571",
      "postcode": "4630-115",
      "city": "MARCO DE CANAVESES",
      "lon": "-8.14506409669461",
      "lat": "41.19040812830245"
    },
    {
      "id": "pt.ine.add.PTCONT.3985209",
      "street": "R ENG ADELINO AMARO DA COSTA",
      "house": "571",
      "postcode": "4630-115",
      "city": "MARCO DE CANAVESES",
      "lon": "-8.14506409669461",
      "lat": "41.19040812830245"
    },
    {
      "id": "pt.ine.add.PTCONT.3985210",
      "street": "R ENG ADELINO AMARO DA COSTA",
      "house": "571",
      "postcode": "4630-115",
      "city": "MARCO DE CANAVESES",
      "lon": "-8.14506409669461",
      "lat": "41.19040812830245"
    },
    {
      "id": "pt.ine.add.PTCONT.3985211",
      "street": "R ENG ADELINO AMARO DA COSTA",
      "house": "571",
      "postcode": "4630-115",
      "city": "MARCO DE CANAVESES",
      "lon": "-8.14506409669461",
      "lat": "41.19040812830245"
    },
    {
      "id": "pt.ine.add.PTCONT.3985212",
      "street": "R ENG ADELINO AMARO DA COSTA",
      "house": "571",
      "postcode": "4630-115",
      "city": "MARCO DE CANAVESES",
      "lon": "-8.14506409669461",
      "lat": "41.19040812830245"
    },
    {
      "id": "pt.ine.add.PTCONT.3985213",
      "street": "R ENG ADELINO AMARO DA COSTA",
      "house": "571",
      "postcode": "4630-115",
      "city": "MARCO DE CANAVESES",
      "lon": "-8.14506409669461",
      "lat": "41.19040812830245"
    },
    {
      "id": "pt.ine.add.PTCONT.3985214",
      "street": "R ENG ADELINO AMARO DA COSTA",
      "house": "571",
      "postcode": "4630-115",
      "city": "MARCO DE CANAVESES",
      "lon": "-8.14506409669461",
      "lat": "41.19040812830245"
    },
    {
      "id": "pt.ine.add.PTCONT.3985215",
      "street": "R ENG ADELINO AMARO DA COSTA",
      "house": "571",
      "postcode": "4630-115",
      "city": "MARCO DE CANAVESES",
      "lon": "-8.14506409669461",
      "lat": "41.19040812830245"
    },
    {
      "id": "pt.ine.add.PTCONT.3985216",
      "street": "R ENG ADELINO AMARO DA COSTA",
      "house": "571",
      "postcode": "4630-115",
      "city": "MARCO DE CANAVESES",
      "lon": "-8.14506409669461",
      "lat": "41.19040812830245"
    },
    {
      "id": "pt.ine.add.PTCONT.3985217",
      "street": "R ENG ADELINO AMARO DA COSTA",
      "house": "571",
      "postcode": "4630-115",
      "city": "MARCO DE CANAVESES",
      "lon": "-8.14506409669461",
      "lat": "41.19040812830245"
    },
    {
      "id": "pt.ine.add.PTCONT.3985218",
      "street": "R ENG ADELINO AMARO DA COSTA",
      "house": "571",
      "postcode": "4630-115",
      "city": "MARCO DE CANAVESES",
      "lon": "-8.14506409669461",
      "lat": "41.19040812830245"
    },
    {
      "id": "pt.ine.add.PTCONT.3989995",
      "street": "R ENG ADELINO AMARO DA COSTA",
      "house": "571",
      "postcode": "4630-115",
      "city": "MARCO DE CANAVESES",
      "lon": "-8.14506409669461",
      "lat": "41.19040812830245"
    },
    {
      "id": "pt.ine.add.PTCONT.4012310",
      "street": "VLA CASAS",
      "house": "",
      "postcode": "4630-241",
      "city": "MARCO DE CANAVESES",
      "lon": "-8.14602972670615",
      "lat": "41.19096629289816"
    },
    {
      "id": "pt.ine.add.PTCONT.4012311",
      "street": "VLA CASAS",
      "house": "17",
      "postcode": "4630-241",
      "city": "MARCO DE CANAVESES",
      "lon": "-8.14602972670615",
      "lat": "41.19096629289816"
    },
    {
      "id": "pt.ine.add.PTCONT.4050700",
      "street": "VLA CASAS",
      "house": "7",
      "postcode": "4630-241",
      "city": "MARCO DE CANAVESES",
      "lon": "-8.14632771120116",
      "lat": "41.19087621571674"
    },
    {
      "id": "pt.ine.add.PTCONT.4065017",
      "street": "VLA CASAS",
      "house": "26",
      "postcode": "4630-241",
      "city": "MARCO DE CANAVESES",
      "lon": "-8.14600583701837",
      "lat": "41.19071417415153"
    },
    {
      "id": "pt.ine.add.PTCONT.4077728",
      "street": "R ENG ADELINO AMARO DA COSTA",
      "house": "483",
      "postcode": "4630-115",
      "city": "MARCO DE CANAVESES",
      "lon": "-8.145958142699554",
      "lat": "41.19064214478798"
    },
    {
      "id": "pt.ine.add.PTCONT.4077729",
      "street": "R ENG ADELINO AMARO DA COSTA",
      "house": "483",
      "postcode": "4630-115",
      "city": "MARCO DE CANAVESES",
      "lon": "-8.145958142699554",
      "lat": "41.19064214478798"
    },
    {
      "id": "pt.ine.add.PTCONT.4091099",
      "street": "R DR ARLINDO GONÇALVES SOARES",
      "house": "54",
      "postcode": "4630-278",
      "city": "MARCO DE CANAVESES",
      "lon": "-8.14666150337448",
      "lat": "41.19102024630328"
    },
    {
      "id": "pt.ine.add.PTCONT.4091100",
      "street": "R DR ARLINDO GONÇALVES SOARES",
      "house": "54",
      "postcode": "4630-278",
      "city": "MARCO DE CANAVESES",
      "lon": "-8.14666150337448",
      "lat": "41.19102024630328"
    },
    {
      "id": "pt.ine.add.PTCONT.4139709",
      "street": "AV DR ARTUR DE MELO E CASTRO",
      "house": "109 B",
      "postcode": "4630-204",
      "city": "MARCO DE CANAVESES",
      "lon": "-8.14550524381483",
      "lat": "41.19097535488295"
    },
    {
      "id": "pt.ine.add.PTCONT.4139710",
      "street": "AV DR ARTUR DE MELO E CASTRO",
      "house": "109 B",
      "postcode": "4630-204",
      "city": "MARCO DE CANAVESES",
      "lon": "-8.14550524381483",
      "lat": "41.19097535488295"
    },
    {
      "id": "pt.ine.add.PTCONT.4139711",
      "street": "AV DR ARTUR MELO E CASTRO",
      "house": "109",
      "postcode": "4630-204",
      "city": "MARCO DE CANAVESES",
      "lon": "-8.14550524381483",
      "lat": "41.19097535488295"
    },
    {
      "id": "pt.ine.add.PTCONT.4139712",
      "street": "AV DR ARTUR DE MELO E CASTRO",
      "house": "109 B",
      "postcode": "4630-204",
      "city": "MARCO DE CANAVESES",
      "lon": "-8.14550524381483",
      "lat": "41.19097535488295"
    },
    {
      "id": "pt.ine.add.PTCONT.4139713",
      "street": "AV DR ARTUR MELO E CASTRO",
      "house": "109",
      "postcode": "4630-204",
      "city": "MARCO DE CANAVESES",
      "lon": "-8.14550524381483",
      "lat": "41.19097535488295"
    },
    {
      "id": "pt.ine.add.PTCONT.4139714",
      "street": "AV DR ARTUR MELO E CASTRO",
      "house": "109",
      "postcode": "4630-204",
      "city": "MARCO DE CANAVESES",
      "lon": "-8.14550524381483",
      "lat": "41.19097535488295"
    },
    {
      "id": "pt.ine.add.PTCONT.4139715",
      "street": "AV DR ARTUR DE MELO E CASTRO",
      "house": "109 B",
      "postcode": "4630-204",
      "city": "MARCO DE CANAVESES",
      "lon": "-8.14550524381483",
      "lat": "41.19097535488295"
    },
    {
      "id": "pt.ine.add.PTCONT.4139716",
      "street": "AV DR ARTUR DE MELO E CASTRO",
      "house": "109 B",
      "postcode": "4630-204",
      "city": "MARCO DE CANAVESES",
      "lon": "-8.14550524381483",
      "lat": "41.19097535488295"
    },
    {
      "id": "pt.ine.add.PTCONT.4139717",
      "street": "AV DR ARTUR MELO E CASTRO",
      "house": "109",
      "postcode": "4630-204",
      "city": "MARCO DE CANAVESES",
      "lon": "-8.14550524381483",
      "lat": "41.19097535488295"
    },
    {
      "id": "pt.ine.add.PTCONT.4139718",
      "street": "AV DR ARTUR DE MELO E CASTRO",
      "house": "109 B",
      "postcode": "4630-204",
      "city": "MARCO DE CANAVESES",
      "lon": "-8.14550524381483",
      "lat": "41.19097535488295"
    },
    {
      "id": "pt.ine.add.PTCONT.4139815",
      "street": "AV DR ARTUR DE MELO E CASTRO",
      "house": "109 B",
      "postcode": "4630-204",
      "city": "MARCO DE CANAVESES",
      "lon": "-8.14550524381483",
      "lat": "41.19097535488295"
    },
    {
      "id": "pt.ine.add.PTCONT.4139816",
      "street": "AV DR ARTUR DE MELO E CASTRO",
      "house": "109 B",
      "postcode": "4630-204",
      "city": "MARCO DE CANAVESES",
      "lon": "-8.14550524381483",
      "lat": "41.19097535488295"
    },
    {
      "id": "pt.ine.add.PTCONT.4139817",
      "street": "AV DR ARTUR MELO E CASTRO",
      "house": "96",
      "postcode": "4630-204",
      "city": "MARCO DE CANAVESES",
      "lon": "-8.14550524381483",
      "lat": "41.19097535488295"
    },
    {
      "id": "pt.ine.add.PTCONT.4139818",
      "street": "AV DR ARTUR DE MELO E CASTRO",
      "house": "109 B",
      "postcode": "4630-204",
      "city": "MARCO DE CANAVESES",
      "lon": "-8.14550524381483",
      "lat": "41.19097535488295"
    },
    {
      "id": "pt.ine.add.PTCONT.4139819",
      "street": "AV DR ARTUR DE MELO E CASTRO",
      "house": "109 B",
      "postcode": "4630-204",
      "city": "MARCO DE CANAVESES",
      "lon": "-8.14550524381483",
      "lat": "41.19097535488295"
    },
    {
      "id": "pt.ine.add.PTCONT.4139820",
      "street": "AV DR ARTUR DE MELO E CASTRO",
      "house": "109 B",
      "postcode": "4630-204",
      "city": "MARCO DE CANAVESES",
      "lon": "-8.14550524381483",
      "lat": "41.19097535488295"
    },
    {
      "id": "pt.ine.add.PTCONT.4139821",
      "street": "AV DR ARTUR DE MELO E CASTRO",
      "house": "109 B",
      "postcode": "4630-204",
      "city": "MARCO DE CANAVESES",
      "lon": "-8.14550524381483",
      "lat": "41.19097535488295"
    },
    {
      "id": "pt.ine.add.PTCONT.4139822",
      "street": "AV DR ARTUR DE MELO E CASTRO",
      "house": "109 B",
      "postcode": "4630-204",
      "city": "MARCO DE CANAVESES",
      "lon": "-8.14550524381483",
      "lat": "41.19097535488295"
    },
    {
      "id": "pt.ine.add.PTCONT.4139823",
      "street": "AV DR ARTUR DE MELO E CASTRO",
      "house": "109 B",
      "postcode": "4630-204",
      "city": "MARCO DE CANAVESES",
      "lon": "-8.14550524381483",
      "lat": "41.19097535488295"
    },
    {
      "id": "pt.ine.add.PTCONT.4139824",
      "street": "AV DR ARTUR DE MELO E CASTRO",
      "house": "109 B",
      "postcode": "4630-204",
      "city": "MARCO DE CANAVESES",
      "lon": "-8.14550524381483",
      "lat": "41.19097535488295"
    },
    {
      "id": "pt.ine.add.PTCONT.4139825",
      "street": "AV DR ARTUR DE MELO E CASTRO",
      "house": "109 B",
      "postcode": "4630-204",
      "city": "MARCO DE CANAVESES",
      "lon": "-8.14550524381483",
      "lat": "41.19097535488295"
    },
    {
      "id": "pt.ine.add.PTCONT.4139826",
      "street": "AV DR ARTUR DE MELO E CASTRO",
      "house": "109 B",
      "postcode": "4630-204",
      "city": "MARCO DE CANAVESES",
      "lon": "-8.14550524381483",
      "lat": "41.19097535488295"
    },
    {
      "id": "pt.ine.add.PTCONT.4139827",
      "street": "AV DR ARTUR DE MELO E CASTRO",
      "house": "109 B",
      "postcode": "4630-204",
      "city": "MARCO DE CANAVESES",
      "lon": "-8.14550524381483",
      "lat": "41.19097535488295"
    },
    {
      "id": "pt.ine.add.PTCONT.4139828",
      "street": "AV DR ARTUR DE MELO E CASTRO",
      "house": "109 B",
      "postcode": "4630-204",
      "city": "MARCO DE CANAVESES",
      "lon": "-8.14550524381483",
      "lat": "41.19097535488295"
    },
    {
      "id": "pt.ine.add.PTCONT.4139970",
      "street": "AV DR ARTUR DE MELO E CASTRO",
      "house": "109 B",
      "postcode": "4630-204",
      "city": "MARCO DE CANAVESES",
      "lon": "-8.14550524381483",
      "lat": "41.19097535488295"
    },
    {
      "id": "pt.ine.add.PTCONT.4139971",
      "street": "AV DR ARTUR DE MELO E CASTRO",
      "house": "109 B",
      "postcode": "4630-204",
      "city": "MARCO DE CANAVESES",
      "lon": "-8.14550524381483",
      "lat": "41.19097535488295"
    },
    {
      "id": "pt.ine.add.PTCONT.4139972",
      "street": "AV DR ARTUR MELO E CASTRO",
      "house": "109",
      "postcode": "4630-204",
      "city": "MARCO DE CANAVESES",
      "lon": "-8.14550524381483",
      "lat": "41.19097535488295"
    },
    {
      "id": "pt.ine.add.PTCONT.4139973",
      "street": "AV DR ARTUR MELO E CASTRO",
      "house": "109",
      "postcode": "4630-204",
      "city": "MARCO DE CANAVESES",
      "lon": "-8.14550524381483",
      "lat": "41.19097535488295"
    },
    {
      "id": "pt.ine.add.PTCONT.4139974",
      "street": "AV DR ARTUR DE MELO E CASTRO",
      "house": "109 B",
      "postcode": "4630-204",
      "city": "MARCO DE CANAVESES",
      "lon": "-8.14550524381483",
      "lat": "41.19097535488295"
    },
    {
      "id": "pt.ine.add.PTCONT.4139975",
      "street": "AV DR ARTUR DE MELO E CASTRO",
      "house": "109 B",
      "postcode": "4630-204",
      "city": "MARCO DE CANAVESES",
      "lon": "-8.14550524381483",
      "lat": "41.19097535488295"
    },
    {
      "id": "pt.ine.add.PTCONT.4139976",
      "street": "AV DR ARTUR MELO E CASTRO",
      "house": "109",
      "postcode": "4630-204",
      "city": "MARCO DE CANAVESES",
      "lon": "-8.14550524381483",
      "lat": "41.19097535488295"
    },
    {
      "id": "pt.ine.add.PTCONT.4139977",
      "street": "AV DR ARTUR DE MELO E CASTRO",
      "house": "109 B",
      "postcode": "4630-204",
      "city": "MARCO DE CANAVESES",
      "lon": "-8.14550524381483",
      "lat": "41.19097535488295"
    },
    {
      "id": "pt.ine.add.PTCONT.4139978",
      "street": "AV DR ARTUR MELO E CASTRO",
      "house": "109",
      "postcode": "4630-204",
      "city": "MARCO DE CANAVESES",
      "lon": "-8.14550524381483",
      "lat": "41.19097535488295"
    },
    {
      "id": "pt.ine.add.PTCONT.4139979",
      "street": "AV DR ARTUR MELO E CASTRO",
      "house": "109",
      "postcode": "4630-204",
      "city": "MARCO DE CANAVESES",
      "lon": "-8.14550524381483",
      "lat": "41.19097535488295"
    },
    {
      "id": "pt.ine.add.PTCONT.4139980",
      "street": "AV DR ARTUR DE MELO E CASTRO",
      "house": "109 B",
      "postcode": "4630-204",
      "city": "MARCO DE CANAVESES",
      "lon": "-8.14550524381483",
      "lat": "41.19097535488295"
    },
    {
      "id": "pt.ine.add.PTCONT.4139981",
      "street": "AV DR ARTUR DE MELO E CASTRO",
      "house": "109 B",
      "postcode": "4630-204",
      "city": "MARCO DE CANAVESES",
      "lon": "-8.14550524381483",
      "lat": "41.19097535488295"
    },
    {
      "id": "pt.ine.add.PTCONT.4139982",
      "street": "AV DR ARTUR DE MELO E CASTRO",
      "house": "109 B",
      "postcode": "4630-204",
      "city": "MARCO DE CANAVESES",
      "lon": "-8.14550524381483",
      "lat": "41.19097535488295"
    },
    {
      "id": "pt.ine.add.PTCONT.4139983",
      "street": "AV DR ARTUR DE MELO E CASTRO",
      "house": "109 B",
      "postcode": "4630-204",
      "city": "MARCO DE CANAVESES",
      "lon": "-8.14550524381483",
      "lat": "41.19097535488295"
    },
    {
      "id": "pt.ine.add.PTCONT.4140135",
      "street": "AV DR ARTUR DE MELO E CASTRO",
      "house": "109 B",
      "postcode": "4630-204",
      "city": "MARCO DE CANAVESES",
      "lon": "-8.14550524381483",
      "lat": "41.19097535488295"
    },
    {
      "id": "pt.ine.add.PTCONT.4140136",
      "street": "AV DR ARTUR DE MELO E CASTRO",
      "house": "109 B",
      "postcode": "4630-204",
      "city": "MARCO DE CANAVESES",
      "lon": "-8.14550524381483",
      "lat": "41.19097535488295"
    },
    {
      "id": "pt.ine.add.PTCONT.4140944",
      "street": "AV DR ARTUR DE MELO E CASTRO",
      "house": "109 B",
      "postcode": "4630-204",
      "city": "MARCO DE CANAVESES",
      "lon": "-8.14550524381483",
      "lat": "41.19097535488295"
    },
    {
      "id": "pt.ine.add.PTCONT.4140987",
      "street": "AV DR ARTUR DE MELO E CASTRO",
      "house": "109 B",
      "postcode": "4630-204",
      "city": "MARCO DE CANAVESES",
      "lon": "-8.14550524381483",
      "lat": "41.19097535488295"
    },
    {
      "id": "pt.ine.add.PTCONT.4141022",
      "street": "AV DR ARTUR DE MELO E CASTRO",
      "house": "109 B",
      "postcode": "4630-204",
      "city": "MARCO DE CANAVESES",
      "lon": "-8.14550524381483",
      "lat": "41.19097535488295"
    },
    {
      "id": "pt.ine.add.PTCONT.4141250",
      "street": "AV DR ARTUR DE MELO E CASTRO",
      "house": "109 B",
      "postcode": "4630-204",
      "city": "MARCO DE CANAVESES",
      "lon": "-8.14550524381483",
      "lat": "41.19097535488295"
    },
    {
      "id": "pt.ine.add.PTCONT.4143495",
      "street": "AV ENG ADELINO AMARO DA COSTA",
      "house": "445",
      "postcode": "4630-231",
      "city": "MARCO DE CANAVESES",
      "lon": "-8.14655415971171",
      "lat": "41.19071411144283"
    },
    {
      "id": "pt.ine.add.PTCONT.4143496",
      "street": "AV ENG ADELINO AMARO DA COSTA",
      "house": "445",
      "postcode": "4630-231",
      "city": "MARCO DE CANAVESES",
      "lon": "-8.14655415971171",
      "lat": "41.19071411144283"
    },
    {
      "id": "pt.ine.add.PTCONT.4172325",
      "street": "R DR ARLINDO GONÇALVES SOARES",
      "house": "36",
      "postcode": "4630-278",
      "city": "MARCO DE CANAVESES",
      "lon": "-8.146673406761266",
      "lat": "41.190939205874635"
    },
    {
      "id": "pt.ine.add.PTCONT.4172326",
      "street": "R DR ARLINDO GONÇALVES SOARES",
      "house": "36",
      "postcode": "4630-278",
      "city": "MARCO DE CANAVESES",
      "lon": "-8.146673406761266",
      "lat": "41.190939205874635"
    },
    {
      "id": "pt.ine.add.PTCONT.4172327",
      "street": "R DR ARLINDO GONÇALVES SOARES",
      "house": "36",
      "postcode": "4630-278",
      "city": "MARCO DE CANAVESES",
      "lon": "-8.146673406761266",
      "lat": "41.190939205874635"
    },
    {
      "id": "pt.ine.add.PTCONT.4221934",
      "street": "R DR ARLINDO GONÇALVES SOARES",
      "house": "100",
      "postcode": "4630-278",
      "city": "MARCO DE CANAVESES",
      "lon": "-8.14647087492267",
      "lat": "41.191479489711085"
    },
    {
      "id": "pt.ine.add.PTCONT.4254489",
      "street": "VLA CASAS",
      "house": "47",
      "postcode": "4630-241",
      "city": "MARCO DE CANAVESES",
      "lon": "-8.14595824305296",
      "lat": "41.19115539195685"
    },
    {
      "id": "pt.ine.add.PTCONT.4284231",
      "street": "AV TORRES MARCO",
      "house": "22",
      "postcode": "4630-209",
      "city": "MARCO DE CANAVESES",
      "lon": "-8.146053698167615",
      "lat": "41.191632611060186"
    },
    {
      "id": "pt.ine.add.PTCONT.4284232",
      "street": "AV TORRES MARCO",
      "house": "22",
      "postcode": "4630-209",
      "city": "MARCO DE CANAVESES",
      "lon": "-8.146053698167615",
      "lat": "41.191632611060186"
    },
    {
      "id": "pt.ine.add.PTCONT.4284233",
      "street": "AV TORRES MARCO",
      "house": "22",
      "postcode": "4630-209",
      "city": "MARCO DE CANAVESES",
      "lon": "-8.146053698167615",
      "lat": "41.191632611060186"
    },
    {
      "id": "pt.ine.add.PTCONT.4284376",
      "street": "AV TORRES MARCO",
      "house": "22",
      "postcode": "4630-209",
      "city": "MARCO DE CANAVESES",
      "lon": "-8.146053698167615",
      "lat": "41.191632611060186"
    },
    {
      "id": "pt.ine.add.PTCONT.4284377",
      "street": "AV TORRES MARCO",
      "house": "22",
      "postcode": "4630-209",
      "city": "MARCO DE CANAVESES",
      "lon": "-8.146053698167615",
      "lat": "41.191632611060186"
    },
    {
      "id": "pt.ine.add.PTCONT.4284378",
      "street": "TV TORRES DO MARCO",
      "house": "22",
      "postcode": "4630-209",
      "city": "MARCO DE CANAVESES",
      "lon": "-8.146053698167615",
      "lat": "41.191632611060186"
    },
    {
      "id": "pt.ine.add.PTCONT.4284379",
      "street": "AV TORRES MARCO",
      "house": "22",
      "postcode": "4630-209",
      "city": "MARCO DE CANAVESES",
      "lon": "-8.146053698167615",
      "lat": "41.191632611060186"
    },
    {
      "id": "pt.ine.add.PTCONT.4284380",
      "street": "TV TORRES DO MARCO",
      "house": "22",
      "postcode": "4630-209",
      "city": "MARCO DE CANAVESES",
      "lon": "-8.146053698167615",
      "lat": "41.191632611060186"
    },
    {
      "id": "pt.ine.add.PTCONT.4284381",
      "street": "R TORRES MARCO",
      "house": "22",
      "postcode": "4630-209",
      "city": "MARCO DE CANAVESES",
      "lon": "-8.146053698167615",
      "lat": "41.191632611060186"
    },
    {
      "id": "pt.ine.add.PTCONT.4284382",
      "street": "AV TORRES MARCO",
      "house": "22",
      "postcode": "4630-209",
      "city": "MARCO DE CANAVESES",
      "lon": "-8.146053698167615",
      "lat": "41.191632611060186"
    },
    {
      "id": "pt.ine.add.PTCONT.4284383",
      "street": "AV TORRES MARCO",
      "house": "22",
      "postcode": "4630-209",
      "city": "MARCO DE CANAVESES",
      "lon": "-8.146053698167615",
      "lat": "41.191632611060186"
    },
    {
      "id": "pt.ine.add.PTCONT.4285191",
      "street": "AV TORRES MARCO",
      "house": "22",
      "postcode": "4630-209",
      "city": "MARCO DE CANAVESES",
      "lon": "-8.146053698167615",
      "lat": "41.191632611060186"
    },
    {
      "id": "pt.ine.add.PTCONT.4366608",
      "street": "AV DR ARTUR DE MELO E CASTRO",
      "house": "109A",
      "postcode": "4630-204",
      "city": "MARCO DE CANAVESES",
      "lon": "-8.145314542188144",
      "lat": "41.19108342728728"
    },
    {
      "id": "pt.ine.add.PTCONT.4366609",
      "street": "AV DR ARTUR DE MELO E CASTRO",
      "house": "109A",
      "postcode": "4630-204",
      "city": "MARCO DE CANAVESES",
      "lon": "-8.145314542188144",
      "lat": "41.19108342728728"
    },
    {
      "id": "pt.ine.add.PTCONT.4366610",
      "street": "AV DR ARTUR MELO E CASTRO",
      "house": "109",
      "postcode": "4630-204",
      "city": "MARCO DE CANAVESES",
      "lon": "-8.145314542188144",
      "lat": "41.19108342728728"
    },
    {
      "id": "pt.ine.add.PTCONT.4366617",
      "street": "AV DR ARTUR DE MELO E CASTRO",
      "house": "109A",
      "postcode": "4630-204",
      "city": "MARCO DE CANAVESES",
      "lon": "-8.145314542188144",
      "lat": "41.19108342728728"
    },
    {
      "id": "pt.ine.add.PTCONT.4366618",
      "street": "AV DR ARTUR DE MELO E CASTRO",
      "house": "109A",
      "postcode": "4630-204",
      "city": "MARCO DE CANAVESES",
      "lon": "-8.145314542188144",
      "lat": "41.19108342728728"
    },
    {
      "id": "pt.ine.add.PTCONT.4366619",
      "street": "AV DR ARTUR DE MELO E CASTRO",
      "house": "109A",
      "postcode": "4630-204",
      "city": "MARCO DE CANAVESES",
      "lon": "-8.145314542188144",
      "lat": "41.19108342728728"
    },
    {
      "id": "pt.ine.add.PTCONT.4366620",
      "street": "AV DR ARTUR DE MELO E CASTRO",
      "house": "109A",
      "postcode": "4630-204",
      "city": "MARCO DE CANAVESES",
      "lon": "-8.145314542188144",
      "lat": "41.19108342728728"
    },
    {
      "id": "pt.ine.add.PTCONT.4366621",
      "street": "AV DR ARTUR DE MELO E CASTRO",
      "house": "109A",
      "postcode": "4630-204",
      "city": "MARCO DE CANAVESES",
      "lon": "-8.145314542188144",
      "lat": "41.19108342728728"
    },
    {
      "id": "pt.ine.add.PTCONT.4366622",
      "street": "AV DR ARTUR DE MELO E CASTRO",
      "house": "109A",
      "postcode": "4630-204",
      "city": "MARCO DE CANAVESES",
      "lon": "-8.145314542188144",
      "lat": "41.19108342728728"
    },
    {
      "id": "pt.ine.add.PTCONT.4366623",
      "street": "AV DR ARTUR DE MELO E CASTRO",
      "house": "109A",
      "postcode": "4630-204",
      "city": "MARCO DE CANAVESES",
      "lon": "-8.145314542188144",
      "lat": "41.19108342728728"
    },
    {
      "id": "pt.ine.add.PTCONT.4366624",
      "street": "AV DR ARTUR DE MELO E CASTRO",
      "house": "109A",
      "postcode": "4630-204",
      "city": "MARCO DE CANAVESES",
      "lon": "-8.145314542188144",
      "lat": "41.19108342728728"
    },
    {
      "id": "pt.ine.add.PTCONT.4366625",
      "street": "AV DR ARTUR DE MELO E CASTRO",
      "house": "109A",
      "postcode": "4630-204",
      "city": "MARCO DE CANAVESES",
      "lon": "-8.145314542188144",
      "lat": "41.19108342728728"
    },
    {
      "id": "pt.ine.add.PTCONT.4366626",
      "street": "AV DR ARTUR DE MELO E CASTRO",
      "house": "109A",
      "postcode": "4630-204",
      "city": "MARCO DE CANAVESES",
      "lon": "-8.145314542188144",
      "lat": "41.19108342728728"
    },
    {
      "id": "pt.ine.add.PTCONT.4370305",
      "street": "AV DR ARTUR DE MELO E CASTRO",
      "house": "109A",
      "postcode": "4630-204",
      "city": "MARCO DE CANAVESES",
      "lon": "-8.145314542188144",
      "lat": "41.19108342728728"
    },
    {
      "id": "pt.ine.add.PTCONT.4386137",
      "street": "R ENG ADELINO AMARO DA COSTA",
      "house": "483",
      "postcode": "4630-115",
      "city": "MARCO DE CANAVESES",
      "lon": "-8.145958142699554",
      "lat": "41.19064214478798"
    }
  ]
}