{
  "data": {
    "distrito": "Faro",
    "concelho": "Albufeira",
    "freguesia": "Albufeira e Olhos de Água",
    "OBJECTID": 537,
    "BGRI2021": "08010603610",
    "DT21": "08",
    "DTMN21": "0801",
    "DTMNFR21": "080106",
    "DTMNFRSEC21": "080106036",
    "SECNUM21": "036",
    "SSNUM21": "10",
    "SECSSNUM21": "03610",
    "OBJECTID_1": 64558,
    "DT": "08",
    "CC": "01",
    "fr": "06",
    "SEC": "036",
    "SS": "10"
  },
  "addresses": [
    {
      "id": "pt.ine.add.PTCONT.1469403",
      "street": "R LAGO",
      "house": "46",
      "postcode": "8200-261",
      "city": "ALBUFEIRA",
      "lon": "-8.237821806653644",
      "lat": "37.08775731267358"
    },
    {
      "id": "pt.ine.add.PTCONT.1472185",
      "street": "PCT NAUS",
      "house": "77",
      "postcode": "8200-261",
      "city": "ALBUFEIRA",
      "lon": "-8.235641388462918",
      "lat": "37.088930606920314"
    },
    {
      "id": "pt.ine.add.PTCONT.1478574",
      "street": "TV NAUS",
      "house": "",
      "postcode": "8200-391",
      "city": "ALBUFEIRA",
      "lon": "-8.235945340855295",
      "lat": "37.089128578803106"
    },
    {
      "id": "pt.ine.add.PTCONT.1486976",
      "street": "R ASTROLABIO",
      "house": "22",
      "postcode": "8200-261",
      "city": "ALBUFEIRA",
      "lon": "-8.237789068207142",
      "lat": "37.088487207116096"
    },
    {
      "id": "pt.ine.add.PTCONT.1486978",
      "street": "R LAGO",
      "house": "30",
      "postcode": "8200-261",
      "city": "ALBUFEIRA",
      "lon": "-8.238035867509673",
      "lat": "37.088018433372916"
    },
    {
      "id": "pt.ine.add.PTCONT.1489087",
      "street": "R ASTROLABIO",
      "house": "22",
      "postcode": "8200-261",
      "city": "ALBUFEIRA",
      "lon": "-8.237789068207142",
      "lat": "37.088487207116096"
    },
    {
      "id": "pt.ine.add.PTCONT.1489816",
      "street": "URB VALE MANGUDE",
      "house": "",
      "postcode": "8200-261",
      "city": "ALBUFEIRA",
      "lon": "-8.238868941824762",
      "lat": "37.08856734519516"
    },
    {
      "id": "pt.ine.add.PTCONT.1498504",
      "street": "R ASTROLABIO",
      "house": "27",
      "postcode": "8200-261",
      "city": "ALBUFEIRA",
      "lon": "-8.237103167064218",
      "lat": "37.088631981516635"
    },
    {
      "id": "pt.ine.add.PTCONT.1498505",
      "street": "AV INF D HENRIQUE",
      "house": "52",
      "postcode": "8200-261",
      "city": "ALBUFEIRA",
      "lon": "-8.236764648993098",
      "lat": "37.08783032685604"
    },
    {
      "id": "pt.ine.add.PTCONT.1502916",
      "street": "R DUNFERMLINE",
      "house": "",
      "postcode": "8200-278",
      "city": "ALBUFEIRA",
      "lon": "-8.2346323517456",
      "lat": "37.091364359373166"
    },
    {
      "id": "pt.ine.add.PTCONT.1502917",
      "street": "R DUNFERMLINE",
      "house": "",
      "postcode": "8200-278",
      "city": "ALBUFEIRA",
      "lon": "-8.2346323517456",
      "lat": "37.091364359373166"
    },
    {
      "id": "pt.ine.add.PTCONT.1502918",
      "street": "R DUNFERMLINE",
      "house": "",
      "postcode": "8200-278",
      "city": "ALBUFEIRA",
      "lon": "-8.2346323517456",
      "lat": "37.091364359373166"
    },
    {
      "id": "pt.ine.add.PTCONT.1503048",
      "street": "R DUNFERMLINE",
      "house": "",
      "postcode": "8200-278",
      "city": "ALBUFEIRA",
      "lon": "-8.2346323517456",
      "lat": "37.091364359373166"
    },
    {
      "id": "pt.ine.add.PTCONT.1503049",
      "street": "R DUNFERMLINE",
      "house": "",
      "postcode": "8200-278",
      "city": "ALBUFEIRA",
      "lon": "-8.2346323517456",
      "lat": "37.091364359373166"
    },
    {
      "id": "pt.ine.add.PTCONT.1503050",
      "street": "R DUNFERMLINE",
      "house": "",
      "postcode": "8200-278",
      "city": "ALBUFEIRA",
      "lon": "-8.2346323517456",
      "lat": "37.091364359373166"
    },
    {
      "id": "pt.ine.add.PTCONT.1503051",
      "street": "TV NAUS",
      "house": "",
      "postcode": "8200-391",
      "city": "ALBUFEIRA",
      "lon": "-8.236327551704834",
      "lat": "37.08897506512733"
    },
    {
      "id": "pt.ine.add.PTCONT.1503944",
      "street": "R DUNFERMLINE",
      "house": "",
      "postcode": "8200-278",
      "city": "ALBUFEIRA",
      "lon": "-8.2346323517456",
      "lat": "37.091364359373166"
    },
    {
      "id": "pt.ine.add.PTCONT.1510160",
      "street": "R ASTROLABIO",
      "house": "19",
      "postcode": "8200-261",
      "city": "ALBUFEIRA",
      "lon": "-8.23834024602162",
      "lat": "37.088522762068756"
    },
    {
      "id": "pt.ine.add.PTCONT.1510161",
      "street": "R ASTROLABIO",
      "house": "19",
      "postcode": "8200-261",
      "city": "ALBUFEIRA",
      "lon": "-8.23834024602162",
      "lat": "37.088522762068756"
    },
    {
      "id": "pt.ine.add.PTCONT.1524732",
      "street": "R LAGO",
      "house": "47",
      "postcode": "8200-261",
      "city": "ALBUFEIRA",
      "lon": "-8.237608167864714",
      "lat": "37.08780255454195"
    },
    {
      "id": "pt.ine.add.PTCONT.1529046",
      "street": "BC ANCORAS",
      "house": "71",
      "postcode": "8200-261",
      "city": "ALBUFEIRA",
      "lon": "-8.235674341955999",
      "lat": "37.08834488389566"
    },
    {
      "id": "pt.ine.add.PTCONT.1529201",
      "street": "BC ANCORAS",
      "house": "71",
      "postcode": "8200-261",
      "city": "ALBUFEIRA",
      "lon": "-8.235674341955999",
      "lat": "37.08834488389566"
    },
    {
      "id": "pt.ine.add.PTCONT.1529202",
      "street": "BC ANCORAS",
      "house": "71",
      "postcode": "8200-261",
      "city": "ALBUFEIRA",
      "lon": "-8.235674341955999",
      "lat": "37.08834488389566"
    },
    {
      "id": "pt.ine.add.PTCONT.1529203",
      "street": "BC ANCORAS",
      "house": "71",
      "postcode": "8200-261",
      "city": "ALBUFEIRA",
      "lon": "-8.235674341955999",
      "lat": "37.08834488389566"
    },
    {
      "id": "pt.ine.add.PTCONT.1529204",
      "street": "BC ANCORAS",
      "house": "71",
      "postcode": "8200-261",
      "city": "ALBUFEIRA",
      "lon": "-8.235674341955999",
      "lat": "37.08834488389566"
    },
    {
      "id": "pt.ine.add.PTCONT.1529205",
      "street": "BC ANCORAS",
      "house": "71",
      "postcode": "8200-261",
      "city": "ALBUFEIRA",
      "lon": "-8.235674341955999",
      "lat": "37.08834488389566"
    },
    {
      "id": "pt.ine.add.PTCONT.1530867",
      "street": "R LAGO",
      "house": "31",
      "postcode": "8200-261",
      "city": "ALBUFEIRA",
      "lon": "-8.237855945658538",
      "lat": "37.088045624478774"
    },
    {
      "id": "pt.ine.add.PTCONT.1532227",
      "street": "R LAGO",
      "house": "35",
      "postcode": "8200-261",
      "city": "ALBUFEIRA",
      "lon": "-8.23806988319004",
      "lat": "37.08821663835777"
    },
    {
      "id": "pt.ine.add.PTCONT.1535819",
      "street": "R MIGUEL TORGA",
      "house": "",
      "postcode": "8200-284",
      "city": "ALBUFEIRA",
      "lon": "-8.235791460544938",
      "lat": "37.09178686341331"
    },
    {
      "id": "pt.ine.add.PTCONT.1538527",
      "street": "R ASTROLABIO",
      "house": "21",
      "postcode": "8200-261",
      "city": "ALBUFEIRA",
      "lon": "-8.237980288291583",
      "lat": "37.08849604886328"
    },
    {
      "id": "pt.ine.add.PTCONT.1538649",
      "street": "AV INF D HENRIQUE",
      "house": "60 62",
      "postcode": "8200-261",
      "city": "ALBUFEIRA",
      "lon": "-8.237664083102393",
      "lat": "37.08756822741428"
    },
    {
      "id": "pt.ine.add.PTCONT.1547550",
      "street": "R LAGO",
      "house": "32",
      "postcode": "8200-261",
      "city": "ALBUFEIRA",
      "lon": "-8.237653578284966",
      "lat": "37.08810887784302"
    },
    {
      "id": "pt.ine.add.PTCONT.1550890",
      "street": "R DUNFERMLINE",
      "house": "",
      "postcode": "8200-278",
      "city": "ALBUFEIRA",
      "lon": "-8.2347446867106",
      "lat": "37.09125613497999"
    },
    {
      "id": "pt.ine.add.PTCONT.1550891",
      "street": "R DUNFERMLINE",
      "house": "",
      "postcode": "8200-278",
      "city": "ALBUFEIRA",
      "lon": "-8.2347446867106",
      "lat": "37.09125613497999"
    },
    {
      "id": "pt.ine.add.PTCONT.1550892",
      "street": "R DUNFERMLINE",
      "house": "",
      "postcode": "8200-278",
      "city": "ALBUFEIRA",
      "lon": "-8.2347446867106",
      "lat": "37.09125613497999"
    },
    {
      "id": "pt.ine.add.PTCONT.1550893",
      "street": "R DUNFERMLINE",
      "house": "",
      "postcode": "8200-278",
      "city": "ALBUFEIRA",
      "lon": "-8.2347446867106",
      "lat": "37.09125613497999"
    },
    {
      "id": "pt.ine.add.PTCONT.1550894",
      "street": "R DUNFERMLINE",
      "house": "",
      "postcode": "8200-278",
      "city": "ALBUFEIRA",
      "lon": "-8.2347446867106",
      "lat": "37.09125613497999"
    },
    {
      "id": "pt.ine.add.PTCONT.1550895",
      "street": "R DUNFERMLINE",
      "house": "",
      "postcode": "8200-278",
      "city": "ALBUFEIRA",
      "lon": "-8.2347446867106",
      "lat": "37.09125613497999"
    },
    {
      "id": "pt.ine.add.PTCONT.1550898",
      "street": "R DUNFERMLINE",
      "house": "",
      "postcode": "8200-278",
      "city": "ALBUFEIRA",
      "lon": "-8.235092949635808",
      "lat": "37.09094046215214"
    },
    {
      "id": "pt.ine.add.PTCONT.1550899",
      "street": "R DUNFERMLINE",
      "house": "",
      "postcode": "8200-278",
      "city": "ALBUFEIRA",
      "lon": "-8.235092949635808",
      "lat": "37.09094046215214"
    },
    {
      "id": "pt.ine.add.PTCONT.1550900",
      "street": "R DUNFERMLINE",
      "house": "",
      "postcode": "8200-278",
      "city": "ALBUFEIRA",
      "lon": "-8.235092949635808",
      "lat": "37.09094046215214"
    },
    {
      "id": "pt.ine.add.PTCONT.1550901",
      "street": "R DUNFERMLINE",
      "house": "",
      "postcode": "8200-278",
      "city": "ALBUFEIRA",
      "lon": "-8.235092949635808",
      "lat": "37.09094046215214"
    },
    {
      "id": "pt.ine.add.PTCONT.1550902",
      "street": "R DUNFERMLINE",
      "house": "",
      "postcode": "8200-278",
      "city": "ALBUFEIRA",
      "lon": "-8.235092949635808",
      "lat": "37.09094046215214"
    },
    {
      "id": "pt.ine.add.PTCONT.1550903",
      "street": "R DUNFERMLINE",
      "house": "",
      "postcode": "8200-278",
      "city": "ALBUFEIRA",
      "lon": "-8.235092949635808",
      "lat": "37.09094046215214"
    },
    {
      "id": "pt.ine.add.PTCONT.1550904",
      "street": "R DUNFERMLINE",
      "house": "",
      "postcode": "8200-278",
      "city": "ALBUFEIRA",
      "lon": "-8.235092949635808",
      "lat": "37.09094046215214"
    },
    {
      "id": "pt.ine.add.PTCONT.1550905",
      "street": "R DUNFERMLINE",
      "house": "",
      "postcode": "8200-278",
      "city": "ALBUFEIRA",
      "lon": "-8.235092949635808",
      "lat": "37.09094046215214"
    },
    {
      "id": "pt.ine.add.PTCONT.1550906",
      "street": "R DUNFERMLINE",
      "house": "",
      "postcode": "8200-278",
      "city": "ALBUFEIRA",
      "lon": "-8.235092949635808",
      "lat": "37.09094046215214"
    },
    {
      "id": "pt.ine.add.PTCONT.1550907",
      "street": "R DUNFERMLINE",
      "house": "",
      "postcode": "8200-278",
      "city": "ALBUFEIRA",
      "lon": "-8.235092949635808",
      "lat": "37.09094046215214"
    },
    {
      "id": "pt.ine.add.PTCONT.1550908",
      "street": "R DUNFERMLINE",
      "house": "",
      "postcode": "8200-278",
      "city": "ALBUFEIRA",
      "lon": "-8.235092949635808",
      "lat": "37.09094046215214"
    },
    {
      "id": "pt.ine.add.PTCONT.1550909",
      "street": "R DUNFERMLINE",
      "house": "",
      "postcode": "8200-278",
      "city": "ALBUFEIRA",
      "lon": "-8.235092949635808",
      "lat": "37.09094046215214"
    },
    {
      "id": "pt.ine.add.PTCONT.1553002",
      "street": "R DUNFERMLINE",
      "house": "",
      "postcode": "8200-278",
      "city": "ALBUFEIRA",
      "lon": "-8.235092949635808",
      "lat": "37.09094046215214"
    },
    {
      "id": "pt.ine.add.PTCONT.1553039",
      "street": "R DUNFERMLINE",
      "house": "",
      "postcode": "8200-278",
      "city": "ALBUFEIRA",
      "lon": "-8.235092949635808",
      "lat": "37.09094046215214"
    },
    {
      "id": "pt.ine.add.PTCONT.1553994",
      "street": "AV INF D HENRIQUE CASA DA PRAIA",
      "house": "68",
      "postcode": "8200-261",
      "city": "ALBUFEIRA",
      "lon": "-8.24331991998023",
      "lat": "37.08646380252767"
    },
    {
      "id": "pt.ine.add.PTCONT.1562581",
      "street": "BC NAUS",
      "house": "65",
      "postcode": "8200-261",
      "city": "ALBUFEIRA",
      "lon": "-8.236585511104945",
      "lat": "37.08843419923824"
    },
    {
      "id": "pt.ine.add.PTCONT.1562582",
      "street": "BC NAUS",
      "house": "65",
      "postcode": "8200-261",
      "city": "ALBUFEIRA",
      "lon": "-8.236585511104945",
      "lat": "37.08843419923824"
    },
    {
      "id": "pt.ine.add.PTCONT.1562583",
      "street": "BC NAUS",
      "house": "65",
      "postcode": "8200-261",
      "city": "ALBUFEIRA",
      "lon": "-8.236585511104945",
      "lat": "37.08843419923824"
    },
    {
      "id": "pt.ine.add.PTCONT.1562584",
      "street": "BC NAUS",
      "house": "65",
      "postcode": "8200-261",
      "city": "ALBUFEIRA",
      "lon": "-8.236585511104945",
      "lat": "37.08843419923824"
    },
    {
      "id": "pt.ine.add.PTCONT.1562585",
      "street": "BC NAUS",
      "house": "65",
      "postcode": "8200-261",
      "city": "ALBUFEIRA",
      "lon": "-8.236585511104945",
      "lat": "37.08843419923824"
    },
    {
      "id": "pt.ine.add.PTCONT.1562586",
      "street": "BC NAUS",
      "house": "65",
      "postcode": "8200-261",
      "city": "ALBUFEIRA",
      "lon": "-8.236585511104945",
      "lat": "37.08843419923824"
    },
    {
      "id": "pt.ine.add.PTCONT.1562587",
      "street": "BC NAUS",
      "house": "65",
      "postcode": "8200-261",
      "city": "ALBUFEIRA",
      "lon": "-8.236585511104945",
      "lat": "37.08843419923824"
    },
    {
      "id": "pt.ine.add.PTCONT.1562588",
      "street": "R LAGO",
      "house": "33",
      "postcode": "8200-261",
      "city": "ALBUFEIRA",
      "lon": "-8.237664999023881",
      "lat": "37.088235017373584"
    },
    {
      "id": "pt.ine.add.PTCONT.1568824",
      "street": "R LAGO",
      "house": "",
      "postcode": "8200-261",
      "city": "ALBUFEIRA",
      "lon": "-8.236934945741757",
      "lat": "37.088992556296475"
    },
    {
      "id": "pt.ine.add.PTCONT.1568825",
      "street": "R LAGO",
      "house": "",
      "postcode": "8200-261",
      "city": "ALBUFEIRA",
      "lon": "-8.236934945741757",
      "lat": "37.088992556296475"
    },
    {
      "id": "pt.ine.add.PTCONT.1568826",
      "street": "R LAGO",
      "house": "",
      "postcode": "8200-261",
      "city": "ALBUFEIRA",
      "lon": "-8.236934945741757",
      "lat": "37.088992556296475"
    },
    {
      "id": "pt.ine.add.PTCONT.1568827",
      "street": "R LAGO",
      "house": "",
      "postcode": "8200-261",
      "city": "ALBUFEIRA",
      "lon": "-8.236934945741757",
      "lat": "37.088992556296475"
    },
    {
      "id": "pt.ine.add.PTCONT.1568828",
      "street": "R LAGO",
      "house": "",
      "postcode": "8200-261",
      "city": "ALBUFEIRA",
      "lon": "-8.236934945741757",
      "lat": "37.088992556296475"
    },
    {
      "id": "pt.ine.add.PTCONT.1568829",
      "street": "R LAGO",
      "house": "",
      "postcode": "8200-261",
      "city": "ALBUFEIRA",
      "lon": "-8.236934945741757",
      "lat": "37.088992556296475"
    },
    {
      "id": "pt.ine.add.PTCONT.1568830",
      "street": "R LAGO",
      "house": "",
      "postcode": "8200-261",
      "city": "ALBUFEIRA",
      "lon": "-8.236934945741757",
      "lat": "37.088992556296475"
    },
    {
      "id": "pt.ine.add.PTCONT.1568850",
      "street": "R LAGO",
      "house": "42",
      "postcode": "8200-261",
      "city": "ALBUFEIRA",
      "lon": "-8.238575682228761",
      "lat": "37.08797290111713"
    },
    {
      "id": "pt.ine.add.PTCONT.1570718",
      "street": "R LAGO",
      "house": "",
      "postcode": "8200-261",
      "city": "ALBUFEIRA",
      "lon": "-8.236934945741757",
      "lat": "37.088992556296475"
    },
    {
      "id": "pt.ine.add.PTCONT.1573713",
      "street": "PCT LAGO",
      "house": "49",
      "postcode": "8200-261",
      "city": "ALBUFEIRA",
      "lon": "-8.237248374056911",
      "lat": "37.08789297788512"
    },
    {
      "id": "pt.ine.add.PTCONT.1585177",
      "street": "TV NAUS",
      "house": "",
      "postcode": "8200-391",
      "city": "ALBUFEIRA",
      "lon": "-8.2355070357908",
      "lat": "37.089390267899226"
    },
    {
      "id": "pt.ine.add.PTCONT.1591717",
      "street": "R DUNFERMLINE",
      "house": "",
      "postcode": "8200-278",
      "city": "ALBUFEIRA",
      "lon": "-8.235194035463088",
      "lat": "37.09083224699959"
    },
    {
      "id": "pt.ine.add.PTCONT.1591718",
      "street": "R DUNFERMLINE",
      "house": "",
      "postcode": "8200-278",
      "city": "ALBUFEIRA",
      "lon": "-8.235194035463088",
      "lat": "37.09083224699959"
    },
    {
      "id": "pt.ine.add.PTCONT.1591719",
      "street": "R DUNFERMLINE",
      "house": "",
      "postcode": "8200-278",
      "city": "ALBUFEIRA",
      "lon": "-8.235194035463088",
      "lat": "37.09083224699959"
    },
    {
      "id": "pt.ine.add.PTCONT.1591720",
      "street": "R DUNFERMLINE",
      "house": "",
      "postcode": "8200-278",
      "city": "ALBUFEIRA",
      "lon": "-8.235194035463088",
      "lat": "37.09083224699959"
    },
    {
      "id": "pt.ine.add.PTCONT.1591721",
      "street": "R DUNFERMLINE",
      "house": "",
      "postcode": "8200-278",
      "city": "ALBUFEIRA",
      "lon": "-8.235194035463088",
      "lat": "37.09083224699959"
    },
    {
      "id": "pt.ine.add.PTCONT.1591722",
      "street": "R DUNFERMLINE",
      "house": "",
      "postcode": "8200-278",
      "city": "ALBUFEIRA",
      "lon": "-8.235194035463088",
      "lat": "37.09083224699959"
    },
    {
      "id": "pt.ine.add.PTCONT.1591723",
      "street": "R DUNFERMLINE",
      "house": "",
      "postcode": "8200-278",
      "city": "ALBUFEIRA",
      "lon": "-8.235194035463088",
      "lat": "37.09083224699959"
    },
    {
      "id": "pt.ine.add.PTCONT.1591724",
      "street": "R DUNFERMLINE",
      "house": "",
      "postcode": "8200-278",
      "city": "ALBUFEIRA",
      "lon": "-8.235194035463088",
      "lat": "37.09083224699959"
    },
    {
      "id": "pt.ine.add.PTCONT.1591725",
      "street": "R DUNFERMLINE",
      "house": "",
      "postcode": "8200-278",
      "city": "ALBUFEIRA",
      "lon": "-8.235194035463088",
      "lat": "37.09083224699959"
    },
    {
      "id": "pt.ine.add.PTCONT.1591726",
      "street": "R DUNFERMLINE",
      "house": "",
      "postcode": "8200-278",
      "city": "ALBUFEIRA",
      "lon": "-8.235194035463088",
      "lat": "37.09083224699959"
    },
    {
      "id": "pt.ine.add.PTCONT.1591727",
      "street": "R DUNFERMLINE",
      "house": "",
      "postcode": "8200-278",
      "city": "ALBUFEIRA",
      "lon": "-8.235194035463088",
      "lat": "37.09083224699959"
    },
    {
      "id": "pt.ine.add.PTCONT.1593720",
      "street": "R DUNFERMLINE",
      "house": "",
      "postcode": "8200-278",
      "city": "ALBUFEIRA",
      "lon": "-8.235194035463088",
      "lat": "37.09083224699959"
    },
    {
      "id": "pt.ine.add.PTCONT.1593881",
      "street": "R DUNFERMLINE",
      "house": "",
      "postcode": "8200-278",
      "city": "ALBUFEIRA",
      "lon": "-8.235194035463088",
      "lat": "37.09083224699959"
    },
    {
      "id": "pt.ine.add.PTCONT.1594421",
      "street": "TV NAUS",
      "house": "",
      "postcode": "8200-391",
      "city": "ALBUFEIRA",
      "lon": "-8.236080129266135",
      "lat": "37.08899330158192"
    },
    {
      "id": "pt.ine.add.PTCONT.1597500",
      "street": "R LAGO",
      "house": "55",
      "postcode": "8200-261",
      "city": "ALBUFEIRA",
      "lon": "-8.236832379048916",
      "lat": "37.088010481360506"
    },
    {
      "id": "pt.ine.add.PTCONT.1597625",
      "street": "R LAGO",
      "house": "39",
      "postcode": "8200-261",
      "city": "ALBUFEIRA",
      "lon": "-8.238812466461136",
      "lat": "37.088396192528755"
    },
    {
      "id": "pt.ine.add.PTCONT.1606368",
      "street": "R LAGO",
      "house": "29",
      "postcode": "8200-261",
      "city": "ALBUFEIRA",
      "lon": "-8.238226999336383",
      "lat": "37.087964200000926"
    },
    {
      "id": "pt.ine.add.PTCONT.1613923",
      "street": "TV NAUS",
      "house": "",
      "postcode": "8200-391",
      "city": "ALBUFEIRA",
      "lon": "-8.235945559994303",
      "lat": "37.08929077092835"
    },
    {
      "id": "pt.ine.add.PTCONT.1625509",
      "street": "BC ANCORAS",
      "house": "70",
      "postcode": "8200-261",
      "city": "ALBUFEIRA",
      "lon": "-8.235955395270883",
      "lat": "37.08824552295662"
    },
    {
      "id": "pt.ine.add.PTCONT.1625510",
      "street": "BC ANCORAS",
      "house": "70",
      "postcode": "8200-261",
      "city": "ALBUFEIRA",
      "lon": "-8.235955395270883",
      "lat": "37.08824552295662"
    },
    {
      "id": "pt.ine.add.PTCONT.1625511",
      "street": "BC ANCORAS",
      "house": "70",
      "postcode": "8200-261",
      "city": "ALBUFEIRA",
      "lon": "-8.235955395270883",
      "lat": "37.08824552295662"
    },
    {
      "id": "pt.ine.add.PTCONT.1625512",
      "street": "BC ANCORAS",
      "house": "70",
      "postcode": "8200-261",
      "city": "ALBUFEIRA",
      "lon": "-8.235955395270883",
      "lat": "37.08824552295662"
    },
    {
      "id": "pt.ine.add.PTCONT.1625513",
      "street": "BC ANCORAS",
      "house": "70",
      "postcode": "8200-261",
      "city": "ALBUFEIRA",
      "lon": "-8.235955395270883",
      "lat": "37.08824552295662"
    },
    {
      "id": "pt.ine.add.PTCONT.1625514",
      "street": "BC ANCORAS",
      "house": "70",
      "postcode": "8200-261",
      "city": "ALBUFEIRA",
      "lon": "-8.235955395270883",
      "lat": "37.08824552295662"
    },
    {
      "id": "pt.ine.add.PTCONT.1626792",
      "street": "R LAGO",
      "house": "45",
      "postcode": "8200-261",
      "city": "ALBUFEIRA",
      "lon": "-8.23802422263197",
      "lat": "37.08773010172145"
    },
    {
      "id": "pt.ine.add.PTCONT.1629151",
      "street": "R MIGUEL TORGA",
      "house": "",
      "postcode": "8200-284",
      "city": "ALBUFEIRA",
      "lon": "-8.234981327238296",
      "lat": "37.09158031645025"
    },
    {
      "id": "pt.ine.add.PTCONT.1629152",
      "street": "R MIGUEL TORGA",
      "house": "",
      "postcode": "8200-284",
      "city": "ALBUFEIRA",
      "lon": "-8.234981327238296",
      "lat": "37.09158031645025"
    },
    {
      "id": "pt.ine.add.PTCONT.1629153",
      "street": "R MIGUEL TORGA",
      "house": "",
      "postcode": "8200-284",
      "city": "ALBUFEIRA",
      "lon": "-8.234981327238296",
      "lat": "37.09158031645025"
    },
    {
      "id": "pt.ine.add.PTCONT.1629154",
      "street": "R MIGUEL TORGA",
      "house": "",
      "postcode": "8200-284",
      "city": "ALBUFEIRA",
      "lon": "-8.234981327238296",
      "lat": "37.09158031645025"
    },
    {
      "id": "pt.ine.add.PTCONT.1629155",
      "street": "R MIGUEL TORGA",
      "house": "",
      "postcode": "8200-284",
      "city": "ALBUFEIRA",
      "lon": "-8.234981327238296",
      "lat": "37.09158031645025"
    },
    {
      "id": "pt.ine.add.PTCONT.1629156",
      "street": "R MIGUEL TORGA",
      "house": "",
      "postcode": "8200-284",
      "city": "ALBUFEIRA",
      "lon": "-8.234981327238296",
      "lat": "37.09158031645025"
    },
    {
      "id": "pt.ine.add.PTCONT.1629157",
      "street": "R MIGUEL TORGA",
      "house": "",
      "postcode": "8200-284",
      "city": "ALBUFEIRA",
      "lon": "-8.234981327238296",
      "lat": "37.09158031645025"
    },
    {
      "id": "pt.ine.add.PTCONT.1629171",
      "street": "R MIGUEL TORGA",
      "house": "",
      "postcode": "8200-284",
      "city": "ALBUFEIRA",
      "lon": "-8.234981327238296",
      "lat": "37.09158031645025"
    },
    {
      "id": "pt.ine.add.PTCONT.1629172",
      "street": "R MIGUEL TORGA",
      "house": "",
      "postcode": "8200-284",
      "city": "ALBUFEIRA",
      "lon": "-8.234981327238296",
      "lat": "37.09158031645025"
    },
    {
      "id": "pt.ine.add.PTCONT.1629173",
      "street": "R MIGUEL TORGA",
      "house": "",
      "postcode": "8200-284",
      "city": "ALBUFEIRA",
      "lon": "-8.234981327238296",
      "lat": "37.09158031645025"
    },
    {
      "id": "pt.ine.add.PTCONT.1629174",
      "street": "R MIGUEL TORGA",
      "house": "",
      "postcode": "8200-284",
      "city": "ALBUFEIRA",
      "lon": "-8.234981327238296",
      "lat": "37.09158031645025"
    },
    {
      "id": "pt.ine.add.PTCONT.1629175",
      "street": "R MIGUEL TORGA",
      "house": "",
      "postcode": "8200-284",
      "city": "ALBUFEIRA",
      "lon": "-8.234981327238296",
      "lat": "37.09158031645025"
    },
    {
      "id": "pt.ine.add.PTCONT.1629176",
      "street": "R MIGUEL TORGA",
      "house": "",
      "postcode": "8200-284",
      "city": "ALBUFEIRA",
      "lon": "-8.234981327238296",
      "lat": "37.09158031645025"
    },
    {
      "id": "pt.ine.add.PTCONT.1629177",
      "street": "R MIGUEL TORGA",
      "house": "",
      "postcode": "8200-284",
      "city": "ALBUFEIRA",
      "lon": "-8.234981327238296",
      "lat": "37.09158031645025"
    },
    {
      "id": "pt.ine.add.PTCONT.1629178",
      "street": "R MIGUEL TORGA",
      "house": "",
      "postcode": "8200-284",
      "city": "ALBUFEIRA",
      "lon": "-8.234981327238296",
      "lat": "37.09158031645025"
    },
    {
      "id": "pt.ine.add.PTCONT.1629179",
      "street": "R MIGUEL TORGA",
      "house": "",
      "postcode": "8200-284",
      "city": "ALBUFEIRA",
      "lon": "-8.234981327238296",
      "lat": "37.09158031645025"
    },
    {
      "id": "pt.ine.add.PTCONT.1629180",
      "street": "R MIGUEL TORGA",
      "house": "",
      "postcode": "8200-284",
      "city": "ALBUFEIRA",
      "lon": "-8.234981327238296",
      "lat": "37.09158031645025"
    },
    {
      "id": "pt.ine.add.PTCONT.1629181",
      "street": "R MIGUEL TORGA",
      "house": "",
      "postcode": "8200-284",
      "city": "ALBUFEIRA",
      "lon": "-8.234981327238296",
      "lat": "37.09158031645025"
    },
    {
      "id": "pt.ine.add.PTCONT.1629182",
      "street": "R MIGUEL TORGA",
      "house": "",
      "postcode": "8200-284",
      "city": "ALBUFEIRA",
      "lon": "-8.234981327238296",
      "lat": "37.09158031645025"
    },
    {
      "id": "pt.ine.add.PTCONT.1629187",
      "street": "BC NAUS",
      "house": "66",
      "postcode": "8200-261",
      "city": "ALBUFEIRA",
      "lon": "-8.23622573750544",
      "lat": "37.088542640824855"
    },
    {
      "id": "pt.ine.add.PTCONT.1629188",
      "street": "BC NAUS",
      "house": "66",
      "postcode": "8200-261",
      "city": "ALBUFEIRA",
      "lon": "-8.23622573750544",
      "lat": "37.088542640824855"
    },
    {
      "id": "pt.ine.add.PTCONT.1629189",
      "street": "BC NAUS",
      "house": "66",
      "postcode": "8200-261",
      "city": "ALBUFEIRA",
      "lon": "-8.23622573750544",
      "lat": "37.088542640824855"
    },
    {
      "id": "pt.ine.add.PTCONT.1629190",
      "street": "BC NAUS",
      "house": "66",
      "postcode": "8200-261",
      "city": "ALBUFEIRA",
      "lon": "-8.23622573750544",
      "lat": "37.088542640824855"
    },
    {
      "id": "pt.ine.add.PTCONT.1629191",
      "street": "BC NAUS",
      "house": "66",
      "postcode": "8200-261",
      "city": "ALBUFEIRA",
      "lon": "-8.23622573750544",
      "lat": "37.088542640824855"
    },
    {
      "id": "pt.ine.add.PTCONT.1629192",
      "street": "R LAGO",
      "house": "34",
      "postcode": "8200-261",
      "city": "ALBUFEIRA",
      "lon": "-8.237912493051343",
      "lat": "37.088270841661775"
    },
    {
      "id": "pt.ine.add.PTCONT.1631278",
      "street": "R MIGUEL TORGA",
      "house": "",
      "postcode": "8200-284",
      "city": "ALBUFEIRA",
      "lon": "-8.234981327238296",
      "lat": "37.09158031645025"
    },
    {
      "id": "pt.ine.add.PTCONT.1631290",
      "street": "BC NAUS",
      "house": "66",
      "postcode": "8200-261",
      "city": "ALBUFEIRA",
      "lon": "-8.23622573750544",
      "lat": "37.088542640824855"
    },
    {
      "id": "pt.ine.add.PTCONT.1631410",
      "street": "BC NAUS",
      "house": "66",
      "postcode": "8200-261",
      "city": "ALBUFEIRA",
      "lon": "-8.23622573750544",
      "lat": "37.088542640824855"
    },
    {
      "id": "pt.ine.add.PTCONT.1631803",
      "street": "R MIGUEL TORGA",
      "house": "",
      "postcode": "8200-284",
      "city": "ALBUFEIRA",
      "lon": "-8.234981327238296",
      "lat": "37.09158031645025"
    },
    {
      "id": "pt.ine.add.PTCONT.1631804",
      "street": "R MIGUEL TORGA",
      "house": "",
      "postcode": "8200-284",
      "city": "ALBUFEIRA",
      "lon": "-8.234981327238296",
      "lat": "37.09158031645025"
    },
    {
      "id": "pt.ine.add.PTCONT.1640810",
      "street": "R MIGUEL TORGA",
      "house": "",
      "postcode": "8200-284",
      "city": "ALBUFEIRA",
      "lon": "-8.2347787073267",
      "lat": "37.09146335148168"
    },
    {
      "id": "pt.ine.add.PTCONT.1640811",
      "street": "R MIGUEL TORGA",
      "house": "",
      "postcode": "8200-284",
      "city": "ALBUFEIRA",
      "lon": "-8.2347787073267",
      "lat": "37.09146335148168"
    },
    {
      "id": "pt.ine.add.PTCONT.1640812",
      "street": "R MIGUEL TORGA",
      "house": "",
      "postcode": "8200-284",
      "city": "ALBUFEIRA",
      "lon": "-8.2347787073267",
      "lat": "37.09146335148168"
    },
    {
      "id": "pt.ine.add.PTCONT.1640813",
      "street": "R MIGUEL TORGA",
      "house": "",
      "postcode": "8200-284",
      "city": "ALBUFEIRA",
      "lon": "-8.2347787073267",
      "lat": "37.09146335148168"
    },
    {
      "id": "pt.ine.add.PTCONT.1640814",
      "street": "R MIGUEL TORGA",
      "house": "",
      "postcode": "8200-284",
      "city": "ALBUFEIRA",
      "lon": "-8.2347787073267",
      "lat": "37.09146335148168"
    },
    {
      "id": "pt.ine.add.PTCONT.1640815",
      "street": "R MIGUEL TORGA",
      "house": "",
      "postcode": "8200-284",
      "city": "ALBUFEIRA",
      "lon": "-8.2347787073267",
      "lat": "37.09146335148168"
    },
    {
      "id": "pt.ine.add.PTCONT.1643005",
      "street": "R MIGUEL TORGA",
      "house": "",
      "postcode": "8200-284",
      "city": "ALBUFEIRA",
      "lon": "-8.2347787073267",
      "lat": "37.09146335148168"
    },
    {
      "id": "pt.ine.add.PTCONT.1643652",
      "street": "R LAGO",
      "house": "",
      "postcode": "8200-261",
      "city": "ALBUFEIRA",
      "lon": "-8.23827333361847",
      "lat": "37.08893731291977"
    },
    {
      "id": "pt.ine.add.PTCONT.1643653",
      "street": "R LAGO",
      "house": "",
      "postcode": "8200-261",
      "city": "ALBUFEIRA",
      "lon": "-8.23827333361847",
      "lat": "37.08893731291977"
    },
    {
      "id": "pt.ine.add.PTCONT.1643654",
      "street": "R LAGO",
      "house": "",
      "postcode": "8200-261",
      "city": "ALBUFEIRA",
      "lon": "-8.23827333361847",
      "lat": "37.08893731291977"
    },
    {
      "id": "pt.ine.add.PTCONT.1643655",
      "street": "R LAGO",
      "house": "",
      "postcode": "8200-261",
      "city": "ALBUFEIRA",
      "lon": "-8.23827333361847",
      "lat": "37.08893731291977"
    },
    {
      "id": "pt.ine.add.PTCONT.1643656",
      "street": "R LAGO",
      "house": "",
      "postcode": "8200-261",
      "city": "ALBUFEIRA",
      "lon": "-8.23827333361847",
      "lat": "37.08893731291977"
    },
    {
      "id": "pt.ine.add.PTCONT.1643657",
      "street": "R LAGO",
      "house": "",
      "postcode": "8200-261",
      "city": "ALBUFEIRA",
      "lon": "-8.23827333361847",
      "lat": "37.08893731291977"
    },
    {
      "id": "pt.ine.add.PTCONT.1643658",
      "street": "R LAGO",
      "house": "",
      "postcode": "8200-261",
      "city": "ALBUFEIRA",
      "lon": "-8.23827333361847",
      "lat": "37.08893731291977"
    },
    {
      "id": "pt.ine.add.PTCONT.1643659",
      "street": "R LAGO",
      "house": "",
      "postcode": "8200-261",
      "city": "ALBUFEIRA",
      "lon": "-8.23827333361847",
      "lat": "37.08893731291977"
    },
    {
      "id": "pt.ine.add.PTCONT.1643694",
      "street": "R LAGO",
      "house": "",
      "postcode": "8200-261",
      "city": "ALBUFEIRA",
      "lon": "-8.23827333361847",
      "lat": "37.08893731291977"
    },
    {
      "id": "pt.ine.add.PTCONT.1643695",
      "street": "R LAGO",
      "house": "",
      "postcode": "8200-261",
      "city": "ALBUFEIRA",
      "lon": "-8.23827333361847",
      "lat": "37.08893731291977"
    },
    {
      "id": "pt.ine.add.PTCONT.1643696",
      "street": "R LAGO",
      "house": "",
      "postcode": "8200-261",
      "city": "ALBUFEIRA",
      "lon": "-8.23827333361847",
      "lat": "37.08893731291977"
    },
    {
      "id": "pt.ine.add.PTCONT.1652414",
      "street": "BC ANCORAS",
      "house": "67",
      "postcode": "8200-261",
      "city": "ALBUFEIRA",
      "lon": "-8.235866084526164",
      "lat": "37.08874118806388"
    },
    {
      "id": "pt.ine.add.PTCONT.1652415",
      "street": "BC ANCORAS",
      "house": "67",
      "postcode": "8200-261",
      "city": "ALBUFEIRA",
      "lon": "-8.235866084526164",
      "lat": "37.08874118806388"
    },
    {
      "id": "pt.ine.add.PTCONT.1652416",
      "street": "BC ANCORAS",
      "house": "67",
      "postcode": "8200-261",
      "city": "ALBUFEIRA",
      "lon": "-8.235866084526164",
      "lat": "37.08874118806388"
    },
    {
      "id": "pt.ine.add.PTCONT.1652417",
      "street": "BC ANCORAS",
      "house": "67",
      "postcode": "8200-261",
      "city": "ALBUFEIRA",
      "lon": "-8.235866084526164",
      "lat": "37.08874118806388"
    },
    {
      "id": "pt.ine.add.PTCONT.1652418",
      "street": "BC ANCORAS",
      "house": "67",
      "postcode": "8200-261",
      "city": "ALBUFEIRA",
      "lon": "-8.235866084526164",
      "lat": "37.08874118806388"
    },
    {
      "id": "pt.ine.add.PTCONT.1652419",
      "street": "BC ANCORAS",
      "house": "67",
      "postcode": "8200-261",
      "city": "ALBUFEIRA",
      "lon": "-8.235866084526164",
      "lat": "37.08874118806388"
    },
    {
      "id": "pt.ine.add.PTCONT.1652420",
      "street": "BC ANCORAS",
      "house": "67",
      "postcode": "8200-261",
      "city": "ALBUFEIRA",
      "lon": "-8.235866084526164",
      "lat": "37.08874118806388"
    },
    {
      "id": "pt.ine.add.PTCONT.1652421",
      "street": "BC ANCORAS",
      "house": "67",
      "postcode": "8200-261",
      "city": "ALBUFEIRA",
      "lon": "-8.235866084526164",
      "lat": "37.08874118806388"
    },
    {
      "id": "pt.ine.add.PTCONT.1652422",
      "street": "BC ANCORAS",
      "house": "67",
      "postcode": "8200-261",
      "city": "ALBUFEIRA",
      "lon": "-8.235866084526164",
      "lat": "37.08874118806388"
    },
    {
      "id": "pt.ine.add.PTCONT.1652423",
      "street": "BC ANCORAS",
      "house": "67",
      "postcode": "8200-261",
      "city": "ALBUFEIRA",
      "lon": "-8.235866084526164",
      "lat": "37.08874118806388"
    },
    {
      "id": "pt.ine.add.PTCONT.1652424",
      "street": "BC ANCORAS",
      "house": "67",
      "postcode": "8200-261",
      "city": "ALBUFEIRA",
      "lon": "-8.235866084526164",
      "lat": "37.08874118806388"
    },
    {
      "id": "pt.ine.add.PTCONT.1652425",
      "street": "BC ANCORAS",
      "house": "67",
      "postcode": "8200-261",
      "city": "ALBUFEIRA",
      "lon": "-8.235866084526164",
      "lat": "37.08874118806388"
    },
    {
      "id": "pt.ine.add.PTCONT.1652426",
      "street": "BC ANCORAS",
      "house": "67",
      "postcode": "8200-261",
      "city": "ALBUFEIRA",
      "lon": "-8.235866084526164",
      "lat": "37.08874118806388"
    },
    {
      "id": "pt.ine.add.PTCONT.1652427",
      "street": "BC ANCORAS",
      "house": "67",
      "postcode": "8200-261",
      "city": "ALBUFEIRA",
      "lon": "-8.235866084526164",
      "lat": "37.08874118806388"
    },
    {
      "id": "pt.ine.add.PTCONT.1652459",
      "street": "BC ANCORAS",
      "house": "67",
      "postcode": "8200-261",
      "city": "ALBUFEIRA",
      "lon": "-8.235866084526164",
      "lat": "37.08874118806388"
    },
    {
      "id": "pt.ine.add.PTCONT.1654475",
      "street": "AV INF D HENRIQUE",
      "house": "68",
      "postcode": "8200-261",
      "city": "ALBUFEIRA",
      "lon": "-8.238304859650395",
      "lat": "37.087333382917386"
    },
    {
      "id": "pt.ine.add.PTCONT.1660846",
      "street": "PCT NAUS",
      "house": "",
      "postcode": "8200-261",
      "city": "ALBUFEIRA",
      "lon": "-8.23557409709019",
      "lat": "37.08907483603121"
    },
    {
      "id": "pt.ine.add.PTCONT.1664406",
      "street": "R LAGO",
      "house": "",
      "postcode": "8200-261",
      "city": "ALBUFEIRA",
      "lon": "-8.237744734685545",
      "lat": "37.088964812532716"
    },
    {
      "id": "pt.ine.add.PTCONT.1664407",
      "street": "R LAGO",
      "house": "",
      "postcode": "8200-261",
      "city": "ALBUFEIRA",
      "lon": "-8.237744734685545",
      "lat": "37.088964812532716"
    },
    {
      "id": "pt.ine.add.PTCONT.1664408",
      "street": "R LAGO",
      "house": "",
      "postcode": "8200-261",
      "city": "ALBUFEIRA",
      "lon": "-8.237744734685545",
      "lat": "37.088964812532716"
    },
    {
      "id": "pt.ine.add.PTCONT.1664409",
      "street": "R LAGO",
      "house": "",
      "postcode": "8200-261",
      "city": "ALBUFEIRA",
      "lon": "-8.237744734685545",
      "lat": "37.088964812532716"
    },
    {
      "id": "pt.ine.add.PTCONT.1665008",
      "street": "AV INF D HENRIQUE",
      "house": "54",
      "postcode": "8200-261",
      "city": "ALBUFEIRA",
      "lon": "-8.23698948658211",
      "lat": "37.087749033953095"
    },
    {
      "id": "pt.ine.add.PTCONT.1666370",
      "street": "R LAGO",
      "house": "",
      "postcode": "8200-261",
      "city": "ALBUFEIRA",
      "lon": "-8.237744734685545",
      "lat": "37.088964812532716"
    },
    {
      "id": "pt.ine.add.PTCONT.1666471",
      "street": "R LAGO",
      "house": "",
      "postcode": "8200-261",
      "city": "ALBUFEIRA",
      "lon": "-8.237744734685545",
      "lat": "37.088964812532716"
    },
    {
      "id": "pt.ine.add.PTCONT.1666472",
      "street": "R LAGO",
      "house": "",
      "postcode": "8200-261",
      "city": "ALBUFEIRA",
      "lon": "-8.237744734685545",
      "lat": "37.088964812532716"
    },
    {
      "id": "pt.ine.add.PTCONT.1666473",
      "street": "R LAGO",
      "house": "",
      "postcode": "8200-261",
      "city": "ALBUFEIRA",
      "lon": "-8.237744734685545",
      "lat": "37.088964812532716"
    },
    {
      "id": "pt.ine.add.PTCONT.1672819",
      "street": "R LAGO",
      "house": "",
      "postcode": "8200-261",
      "city": "ALBUFEIRA",
      "lon": "-8.238992952863418",
      "lat": "37.08877448029003"
    },
    {
      "id": "pt.ine.add.PTCONT.1678491",
      "street": "R ASTROLABIO",
      "house": "20",
      "postcode": "8200-261",
      "city": "ALBUFEIRA",
      "lon": "-8.238194015884945",
      "lat": "37.088513881045806"
    },
    {
      "id": "pt.ine.add.PTCONT.1686861",
      "street": "PCT LAGO",
      "house": "52 53",
      "postcode": "8200-261",
      "city": "ALBUFEIRA",
      "lon": "-8.237113971348716",
      "lat": "37.088307587374246"
    },
    {
      "id": "pt.ine.add.PTCONT.1689511",
      "street": "R PACIFICO",
      "house": "26",
      "postcode": "8200-166",
      "city": "ALBUFEIRA",
      "lon": "-8.239950171068097",
      "lat": "37.08961161540397"
    },
    {
      "id": "pt.ine.add.PTCONT.1689513",
      "street": "AV INF D HENRIQUE",
      "house": "66",
      "postcode": "8200-261",
      "city": "ALBUFEIRA",
      "lon": "-8.242993776932039",
      "lat": "37.08648212653478"
    },
    {
      "id": "pt.ine.add.PTCONT.1689514",
      "street": "AV INF D HENRIQUE",
      "house": "66",
      "postcode": "8200-261",
      "city": "ALBUFEIRA",
      "lon": "-8.242993776932039",
      "lat": "37.08648212653478"
    },
    {
      "id": "pt.ine.add.PTCONT.1689515",
      "street": "AV INF D HENRIQUE CASA DO MAR",
      "house": "",
      "postcode": "8200-261",
      "city": "ALBUFEIRA",
      "lon": "-8.242993776932039",
      "lat": "37.08648212653478"
    },
    {
      "id": "pt.ine.add.PTCONT.1695972",
      "street": "R LAGO",
      "house": "40",
      "postcode": "8200-261",
      "city": "ALBUFEIRA",
      "lon": "-8.238733571434633",
      "lat": "37.08827912391259"
    },
    {
      "id": "pt.ine.add.PTCONT.1701229",
      "street": "R ASTROLABIO",
      "house": "18",
      "postcode": "8200-261",
      "city": "ALBUFEIRA",
      "lon": "-8.238531478737494",
      "lat": "37.088540613600856"
    },
    {
      "id": "pt.ine.add.PTCONT.1703433",
      "street": "R DUNFERMLINE",
      "house": "",
      "postcode": "8200-278",
      "city": "ALBUFEIRA",
      "lon": "-8.236463599440976",
      "lat": "37.08976788682307"
    },
    {
      "id": "pt.ine.add.PTCONT.1703816",
      "street": "R LAGO",
      "house": "48",
      "postcode": "8200-261",
      "city": "ALBUFEIRA",
      "lon": "-8.23743954318494",
      "lat": "37.0878657778065"
    },
    {
      "id": "pt.ine.add.PTCONT.1718235",
      "street": "R ASTROLABIO",
      "house": "25",
      "postcode": "8200-261",
      "city": "ALBUFEIRA",
      "lon": "-8.237361724531237",
      "lat": "37.088532636974264"
    },
    {
      "id": "pt.ine.add.PTCONT.1723840",
      "street": "R ASTROLABIO",
      "house": "24",
      "postcode": "8200-261",
      "city": "ALBUFEIRA",
      "lon": "-8.237496670017984",
      "lat": "37.08851449690147"
    },
    {
      "id": "pt.ine.add.PTCONT.1749281",
      "street": "BC ANCORAS",
      "house": "69",
      "postcode": "8200-261",
      "city": "ALBUFEIRA",
      "lon": "-8.23625891834901",
      "lat": "37.08812812043748"
    },
    {
      "id": "pt.ine.add.PTCONT.1749282",
      "street": "BC ANCORAS",
      "house": "69",
      "postcode": "8200-261",
      "city": "ALBUFEIRA",
      "lon": "-8.23625891834901",
      "lat": "37.08812812043748"
    },
    {
      "id": "pt.ine.add.PTCONT.1749283",
      "street": "BC ANCORAS",
      "house": "69",
      "postcode": "8200-261",
      "city": "ALBUFEIRA",
      "lon": "-8.23625891834901",
      "lat": "37.08812812043748"
    },
    {
      "id": "pt.ine.add.PTCONT.1749284",
      "street": "BC ANCORAS",
      "house": "69",
      "postcode": "8200-261",
      "city": "ALBUFEIRA",
      "lon": "-8.23625891834901",
      "lat": "37.08812812043748"
    },
    {
      "id": "pt.ine.add.PTCONT.1750009",
      "street": "BC ANCORAS",
      "house": "69",
      "postcode": "8200-261",
      "city": "ALBUFEIRA",
      "lon": "-8.23625891834901",
      "lat": "37.08812812043748"
    },
    {
      "id": "pt.ine.add.PTCONT.1750166",
      "street": "BC ANCORAS",
      "house": "69",
      "postcode": "8200-261",
      "city": "ALBUFEIRA",
      "lon": "-8.23625891834901",
      "lat": "37.08812812043748"
    },
    {
      "id": "pt.ine.add.PTCONT.1753802",
      "street": "R DUNFERMLINE",
      "house": "15",
      "postcode": "8200-278",
      "city": "ALBUFEIRA",
      "lon": "-8.23483448941659",
      "lat": "37.0911208977644"
    },
    {
      "id": "pt.ine.add.PTCONT.1753803",
      "street": "R DUNFERMLINE",
      "house": "15",
      "postcode": "8200-278",
      "city": "ALBUFEIRA",
      "lon": "-8.23483448941659",
      "lat": "37.0911208977644"
    },
    {
      "id": "pt.ine.add.PTCONT.1753804",
      "street": "R DUNFERMLINE",
      "house": "15",
      "postcode": "8200-278",
      "city": "ALBUFEIRA",
      "lon": "-8.23483448941659",
      "lat": "37.0911208977644"
    },
    {
      "id": "pt.ine.add.PTCONT.1753805",
      "street": "R DUNFERMLINE",
      "house": "15",
      "postcode": "8200-278",
      "city": "ALBUFEIRA",
      "lon": "-8.23483448941659",
      "lat": "37.0911208977644"
    },
    {
      "id": "pt.ine.add.PTCONT.1753806",
      "street": "R DUNFERMLINE",
      "house": "15",
      "postcode": "8200-278",
      "city": "ALBUFEIRA",
      "lon": "-8.23483448941659",
      "lat": "37.0911208977644"
    },
    {
      "id": "pt.ine.add.PTCONT.1753807",
      "street": "R DUNFERMLINE",
      "house": "15",
      "postcode": "8200-278",
      "city": "ALBUFEIRA",
      "lon": "-8.23483448941659",
      "lat": "37.0911208977644"
    },
    {
      "id": "pt.ine.add.PTCONT.1753808",
      "street": "R DUNFERMLINE",
      "house": "15",
      "postcode": "8200-278",
      "city": "ALBUFEIRA",
      "lon": "-8.23483448941659",
      "lat": "37.0911208977644"
    },
    {
      "id": "pt.ine.add.PTCONT.1753809",
      "street": "R DUNFERMLINE",
      "house": "15",
      "postcode": "8200-278",
      "city": "ALBUFEIRA",
      "lon": "-8.23483448941659",
      "lat": "37.0911208977644"
    },
    {
      "id": "pt.ine.add.PTCONT.1756133",
      "street": "R DUNFERMLINE B",
      "house": "B",
      "postcode": "8200-278",
      "city": "ALBUFEIRA",
      "lon": "-8.23483448941659",
      "lat": "37.0911208977644"
    },
    {
      "id": "pt.ine.add.PTCONT.1756719",
      "street": "R LAGO",
      "house": "54",
      "postcode": "8200-261",
      "city": "ALBUFEIRA",
      "lon": "-8.23695633446515",
      "lat": "37.08818157591489"
    },
    {
      "id": "pt.ine.add.PTCONT.1765937",
      "street": "R PACÍFICO",
      "house": "25-27",
      "postcode": "8200-166",
      "city": "ALBUFEIRA",
      "lon": "-8.240118835523758",
      "lat": "37.089575420601165"
    },
    {
      "id": "pt.ine.add.PTCONT.1765938",
      "street": "R PACÍFICO",
      "house": "25-27",
      "postcode": "8200-166",
      "city": "ALBUFEIRA",
      "lon": "-8.240118835523758",
      "lat": "37.089575420601165"
    },
    {
      "id": "pt.ine.add.PTCONT.1765939",
      "street": "R PACÍFICO",
      "house": "25-27",
      "postcode": "8200-166",
      "city": "ALBUFEIRA",
      "lon": "-8.240118835523758",
      "lat": "37.089575420601165"
    },
    {
      "id": "pt.ine.add.PTCONT.1765940",
      "street": "R PACÍFICO",
      "house": "25-27",
      "postcode": "8200-166",
      "city": "ALBUFEIRA",
      "lon": "-8.240118835523758",
      "lat": "37.089575420601165"
    },
    {
      "id": "pt.ine.add.PTCONT.1765941",
      "street": "R PACÍFICO",
      "house": "25-27",
      "postcode": "8200-166",
      "city": "ALBUFEIRA",
      "lon": "-8.240118835523758",
      "lat": "37.089575420601165"
    },
    {
      "id": "pt.ine.add.PTCONT.1765942",
      "street": "R PACÍFICO",
      "house": "25-27",
      "postcode": "8200-166",
      "city": "ALBUFEIRA",
      "lon": "-8.240118835523758",
      "lat": "37.089575420601165"
    },
    {
      "id": "pt.ine.add.PTCONT.1765943",
      "street": "R PACÍFICO",
      "house": "25-27",
      "postcode": "8200-166",
      "city": "ALBUFEIRA",
      "lon": "-8.240118835523758",
      "lat": "37.089575420601165"
    },
    {
      "id": "pt.ine.add.PTCONT.1765944",
      "street": "R PACÍFICO",
      "house": "25-27",
      "postcode": "8200-166",
      "city": "ALBUFEIRA",
      "lon": "-8.240118835523758",
      "lat": "37.089575420601165"
    },
    {
      "id": "pt.ine.add.PTCONT.1765945",
      "street": "R PACÍFICO",
      "house": "25-27",
      "postcode": "8200-166",
      "city": "ALBUFEIRA",
      "lon": "-8.240118835523758",
      "lat": "37.089575420601165"
    },
    {
      "id": "pt.ine.add.PTCONT.1765946",
      "street": "R PACÍFICO",
      "house": "25-27",
      "postcode": "8200-166",
      "city": "ALBUFEIRA",
      "lon": "-8.240118835523758",
      "lat": "37.089575420601165"
    },
    {
      "id": "pt.ine.add.PTCONT.1765947",
      "street": "R PACÍFICO",
      "house": "25-27",
      "postcode": "8200-166",
      "city": "ALBUFEIRA",
      "lon": "-8.240118835523758",
      "lat": "37.089575420601165"
    },
    {
      "id": "pt.ine.add.PTCONT.1765948",
      "street": "R PACÍFICO",
      "house": "25-27",
      "postcode": "8200-166",
      "city": "ALBUFEIRA",
      "lon": "-8.240118835523758",
      "lat": "37.089575420601165"
    },
    {
      "id": "pt.ine.add.PTCONT.1765949",
      "street": "R PACÍFICO",
      "house": "25-27",
      "postcode": "8200-166",
      "city": "ALBUFEIRA",
      "lon": "-8.240118835523758",
      "lat": "37.089575420601165"
    },
    {
      "id": "pt.ine.add.PTCONT.1765956",
      "street": "R PACÍFICO",
      "house": "25-27",
      "postcode": "8200-166",
      "city": "ALBUFEIRA",
      "lon": "-8.240118835523758",
      "lat": "37.089575420601165"
    },
    {
      "id": "pt.ine.add.PTCONT.1765958",
      "street": "R PACÍFICO",
      "house": "25-27",
      "postcode": "8200-166",
      "city": "ALBUFEIRA",
      "lon": "-8.240118835523758",
      "lat": "37.089575420601165"
    },
    {
      "id": "pt.ine.add.PTCONT.1767184",
      "street": "R PACIFICO",
      "house": "27",
      "postcode": "8200-166",
      "city": "ALBUFEIRA",
      "lon": "-8.239792728872173",
      "lat": "37.08962977850562"
    },
    {
      "id": "pt.ine.add.PTCONT.1767185",
      "street": "R PACIFICO",
      "house": "27",
      "postcode": "8200-166",
      "city": "ALBUFEIRA",
      "lon": "-8.239792728872173",
      "lat": "37.08962977850562"
    },
    {
      "id": "pt.ine.add.PTCONT.1767186",
      "street": "R PACIFICO",
      "house": "27",
      "postcode": "8200-166",
      "city": "ALBUFEIRA",
      "lon": "-8.239792728872173",
      "lat": "37.08962977850562"
    },
    {
      "id": "pt.ine.add.PTCONT.1767187",
      "street": "R PACIFICO",
      "house": "27",
      "postcode": "8200-166",
      "city": "ALBUFEIRA",
      "lon": "-8.239792728872173",
      "lat": "37.08962977850562"
    },
    {
      "id": "pt.ine.add.PTCONT.1767188",
      "street": "R PACIFICO",
      "house": "27",
      "postcode": "8200-166",
      "city": "ALBUFEIRA",
      "lon": "-8.239792728872173",
      "lat": "37.08962977850562"
    },
    {
      "id": "pt.ine.add.PTCONT.1767189",
      "street": "R PACIFICO",
      "house": "27",
      "postcode": "8200-166",
      "city": "ALBUFEIRA",
      "lon": "-8.239792728872173",
      "lat": "37.08962977850562"
    },
    {
      "id": "pt.ine.add.PTCONT.1767190",
      "street": "R PACIFICO",
      "house": "27",
      "postcode": "8200-166",
      "city": "ALBUFEIRA",
      "lon": "-8.239792728872173",
      "lat": "37.08962977850562"
    },
    {
      "id": "pt.ine.add.PTCONT.1767191",
      "street": "R PACIFICO",
      "house": "27",
      "postcode": "8200-166",
      "city": "ALBUFEIRA",
      "lon": "-8.239792728872173",
      "lat": "37.08962977850562"
    },
    {
      "id": "pt.ine.add.PTCONT.1767192",
      "street": "R PACIFICO",
      "house": "4",
      "postcode": "8200-166",
      "city": "ALBUFEIRA",
      "lon": "-8.239792728872173",
      "lat": "37.08962977850562"
    },
    {
      "id": "pt.ine.add.PTCONT.1767193",
      "street": "R PACIFICO",
      "house": "102",
      "postcode": "8200-166",
      "city": "ALBUFEIRA",
      "lon": "-8.239792728872173",
      "lat": "37.08962977850562"
    },
    {
      "id": "pt.ine.add.PTCONT.1767194",
      "street": "R PACIFICO",
      "house": "27",
      "postcode": "8200-166",
      "city": "ALBUFEIRA",
      "lon": "-8.239792728872173",
      "lat": "37.08962977850562"
    },
    {
      "id": "pt.ine.add.PTCONT.1767195",
      "street": "R PACIFICO",
      "house": "27",
      "postcode": "8200-166",
      "city": "ALBUFEIRA",
      "lon": "-8.239792728872173",
      "lat": "37.08962977850562"
    },
    {
      "id": "pt.ine.add.PTCONT.1767332",
      "street": "R PACIFICO",
      "house": "27",
      "postcode": "8200-166",
      "city": "ALBUFEIRA",
      "lon": "-8.239792728872173",
      "lat": "37.08962977850562"
    },
    {
      "id": "pt.ine.add.PTCONT.1767333",
      "street": "R PACIFICO",
      "house": "202",
      "postcode": "8200-166",
      "city": "ALBUFEIRA",
      "lon": "-8.239792728872173",
      "lat": "37.08962977850562"
    },
    {
      "id": "pt.ine.add.PTCONT.1767334",
      "street": "R PACIFICO",
      "house": "27",
      "postcode": "8200-166",
      "city": "ALBUFEIRA",
      "lon": "-8.239792728872173",
      "lat": "37.08962977850562"
    },
    {
      "id": "pt.ine.add.PTCONT.1767335",
      "street": "R PACIFICO",
      "house": "27",
      "postcode": "8200-166",
      "city": "ALBUFEIRA",
      "lon": "-8.239792728872173",
      "lat": "37.08962977850562"
    },
    {
      "id": "pt.ine.add.PTCONT.1767336",
      "street": "R PACIFICO",
      "house": "27",
      "postcode": "8200-166",
      "city": "ALBUFEIRA",
      "lon": "-8.239792728872173",
      "lat": "37.08962977850562"
    },
    {
      "id": "pt.ine.add.PTCONT.1767337",
      "street": "R PACIFICO",
      "house": "27",
      "postcode": "8200-166",
      "city": "ALBUFEIRA",
      "lon": "-8.239792728872173",
      "lat": "37.08962977850562"
    },
    {
      "id": "pt.ine.add.PTCONT.1767338",
      "street": "R PACIFICO",
      "house": "27",
      "postcode": "8200-166",
      "city": "ALBUFEIRA",
      "lon": "-8.239792728872173",
      "lat": "37.08962977850562"
    },
    {
      "id": "pt.ine.add.PTCONT.1767339",
      "street": "R PACIFICO",
      "house": "27",
      "postcode": "8200-166",
      "city": "ALBUFEIRA",
      "lon": "-8.239792728872173",
      "lat": "37.08962977850562"
    },
    {
      "id": "pt.ine.add.PTCONT.1768175",
      "street": "R PACIFICO",
      "house": "27",
      "postcode": "8200-166",
      "city": "ALBUFEIRA",
      "lon": "-8.239792728872173",
      "lat": "37.08962977850562"
    },
    {
      "id": "pt.ine.add.PTCONT.1768292",
      "street": "R PACIFICO",
      "house": "27",
      "postcode": "8200-166",
      "city": "ALBUFEIRA",
      "lon": "-8.239792728872173",
      "lat": "37.08962977850562"
    },
    {
      "id": "pt.ine.add.PTCONT.1772014",
      "street": "PCT LAGO",
      "house": "50",
      "postcode": "8200-261",
      "city": "ALBUFEIRA",
      "lon": "-8.237046031189733",
      "lat": "37.08797425156482"
    },
    {
      "id": "pt.ine.add.PTCONT.1778106",
      "street": "R LAGO",
      "house": "",
      "postcode": "8200-261",
      "city": "ALBUFEIRA",
      "lon": "-8.237351143405077",
      "lat": "37.08901922325078"
    },
    {
      "id": "pt.ine.add.PTCONT.1778107",
      "street": "R LAGO",
      "house": "",
      "postcode": "8200-261",
      "city": "ALBUFEIRA",
      "lon": "-8.237351143405077",
      "lat": "37.08901922325078"
    },
    {
      "id": "pt.ine.add.PTCONT.1778108",
      "street": "R LAGO",
      "house": "",
      "postcode": "8200-261",
      "city": "ALBUFEIRA",
      "lon": "-8.237351143405077",
      "lat": "37.08901922325078"
    },
    {
      "id": "pt.ine.add.PTCONT.1778109",
      "street": "R LAGO",
      "house": "",
      "postcode": "8200-261",
      "city": "ALBUFEIRA",
      "lon": "-8.237351143405077",
      "lat": "37.08901922325078"
    },
    {
      "id": "pt.ine.add.PTCONT.1778110",
      "street": "R LAGO",
      "house": "",
      "postcode": "8200-261",
      "city": "ALBUFEIRA",
      "lon": "-8.237351143405077",
      "lat": "37.08901922325078"
    },
    {
      "id": "pt.ine.add.PTCONT.1778111",
      "street": "R LAGO",
      "house": "",
      "postcode": "8200-261",
      "city": "ALBUFEIRA",
      "lon": "-8.237351143405077",
      "lat": "37.08901922325078"
    },
    {
      "id": "pt.ine.add.PTCONT.1778112",
      "street": "R LAGO",
      "house": "",
      "postcode": "8200-261",
      "city": "ALBUFEIRA",
      "lon": "-8.237351143405077",
      "lat": "37.08901922325078"
    },
    {
      "id": "pt.ine.add.PTCONT.1780393",
      "street": "R LAGO",
      "house": "",
      "postcode": "8200-261",
      "city": "ALBUFEIRA",
      "lon": "-8.237351143405077",
      "lat": "37.08901922325078"
    },
    {
      "id": "pt.ine.add.PTCONT.1780397",
      "street": "AV INF D HENRIQUE",
      "house": "66",
      "postcode": "8200-261",
      "city": "ALBUFEIRA",
      "lon": "-8.238102494543869",
      "lat": "37.08739663705169"
    },
    {
      "id": "pt.ine.add.PTCONT.1786951",
      "street": "TV NAUS",
      "house": "85",
      "postcode": "8200-391",
      "city": "ALBUFEIRA",
      "lon": "-8.236777172733134",
      "lat": "37.08876742720163"
    },
    {
      "id": "pt.ine.add.PTCONT.1786952",
      "street": "TV NAUS",
      "house": "85",
      "postcode": "8200-391",
      "city": "ALBUFEIRA",
      "lon": "-8.236777172733134",
      "lat": "37.08876742720163"
    },
    {
      "id": "pt.ine.add.PTCONT.1786953",
      "street": "TV NAUS",
      "house": "85",
      "postcode": "8200-391",
      "city": "ALBUFEIRA",
      "lon": "-8.236777172733134",
      "lat": "37.08876742720163"
    },
    {
      "id": "pt.ine.add.PTCONT.1786954",
      "street": "TV NAUS",
      "house": "85",
      "postcode": "8200-391",
      "city": "ALBUFEIRA",
      "lon": "-8.236777172733134",
      "lat": "37.08876742720163"
    },
    {
      "id": "pt.ine.add.PTCONT.1786955",
      "street": "TV NAUS",
      "house": "85",
      "postcode": "8200-391",
      "city": "ALBUFEIRA",
      "lon": "-8.236777172733134",
      "lat": "37.08876742720163"
    },
    {
      "id": "pt.ine.add.PTCONT.1786956",
      "street": "TV NAUS",
      "house": "85",
      "postcode": "8200-391",
      "city": "ALBUFEIRA",
      "lon": "-8.236777172733134",
      "lat": "37.08876742720163"
    },
    {
      "id": "pt.ine.add.PTCONT.1817136",
      "street": "R LAGO",
      "house": "41",
      "postcode": "8200-261",
      "city": "ALBUFEIRA",
      "lon": "-8.238654626672583",
      "lat": "37.08812601254335"
    },
    {
      "id": "pt.ine.add.PTCONT.1818930",
      "street": "BC ANCORAS",
      "house": "68",
      "postcode": "8200-261",
      "city": "ALBUFEIRA",
      "lon": "-8.236539994586293",
      "lat": "37.088046779462296"
    },
    {
      "id": "pt.ine.add.PTCONT.1818928",
      "street": "BC ANCORAS",
      "house": "68",
      "postcode": "8200-261",
      "city": "ALBUFEIRA",
      "lon": "-8.236539994586293",
      "lat": "37.088046779462296"
    },
    {
      "id": "pt.ine.add.PTCONT.1818929",
      "street": "BC ANCORAS",
      "house": "68",
      "postcode": "8200-261",
      "city": "ALBUFEIRA",
      "lon": "-8.236539994586293",
      "lat": "37.088046779462296"
    },
    {
      "id": "pt.ine.add.PTCONT.1821225",
      "street": "BC ANCORAS",
      "house": "68",
      "postcode": "8200-261",
      "city": "ALBUFEIRA",
      "lon": "-8.236539994586293",
      "lat": "37.088046779462296"
    },
    {
      "id": "pt.ine.add.PTCONT.1821226",
      "street": "BC ANCORAS",
      "house": "68",
      "postcode": "8200-261",
      "city": "ALBUFEIRA",
      "lon": "-8.236539994586293",
      "lat": "37.088046779462296"
    },
    {
      "id": "pt.ine.add.PTCONT.1826538",
      "street": "R ASTROLABIO",
      "house": "23",
      "postcode": "8200-261",
      "city": "ALBUFEIRA",
      "lon": "-8.237642838201452",
      "lat": "37.08847832541328"
    },
    {
      "id": "pt.ine.add.PTCONT.1827570",
      "street": "AV INF D HENRIQUE",
      "house": "56",
      "postcode": "8200-261",
      "city": "ALBUFEIRA",
      "lon": "-8.237191890518114",
      "lat": "37.087712813745554"
    },
    {
      "id": "pt.ine.add.PTCONT.1833212",
      "street": "R ASTROLABIO",
      "house": "26",
      "postcode": "8200-261",
      "city": "ALBUFEIRA",
      "lon": "-8.23720430858683",
      "lat": "37.08856881798891"
    },
    {
      "id": "pt.ine.add.PTCONT.1839605",
      "street": "R DUNFERMLINE",
      "house": "",
      "postcode": "8200-278",
      "city": "ALBUFEIRA",
      "lon": "-8.2346323517456",
      "lat": "37.091364359373166"
    },
    {
      "id": "pt.ine.add.PTCONT.1839883",
      "street": "R DUNFERMLINE",
      "house": "",
      "postcode": "8200-278",
      "city": "ALBUFEIRA",
      "lon": "-8.235194035463088",
      "lat": "37.09083224699959"
    },
    {
      "id": "pt.ine.add.PTCONT.1840768",
      "street": "BC NAUS",
      "house": "66",
      "postcode": "8200-261",
      "city": "ALBUFEIRA",
      "lon": "-8.23622573750544",
      "lat": "37.088542640824855"
    },
    {
      "id": "pt.ine.add.PTCONT.1842125",
      "street": "BC ANCORAS",
      "house": "67",
      "postcode": "8200-261",
      "city": "ALBUFEIRA",
      "lon": "-8.235866084526164",
      "lat": "37.08874118806388"
    },
    {
      "id": "pt.ine.add.PTCONT.1843427",
      "street": "AV INF D HENRIQUE",
      "house": "68",
      "postcode": "8200-261",
      "city": "ALBUFEIRA",
      "lon": "-8.236539994586293",
      "lat": "37.088046779462296"
    },
    {
      "id": "pt.ine.add.PTCONT.1843494",
      "street": "R PACIFICO",
      "house": "27",
      "postcode": "8200-166",
      "city": "ALBUFEIRA",
      "lon": "-8.239792728872173",
      "lat": "37.08962977850562"
    },
    {
      "id": "pt.ine.add.PTCONT.1844498",
      "street": "AV INF D HENRIQUE",
      "house": "58",
      "postcode": "8200-261",
      "city": "ALBUFEIRA",
      "lon": "-8.237371713082133",
      "lat": "37.08761353824168"
    },
    {
      "id": "pt.ine.add.PTCONT.1845824",
      "street": "AV INF D HENRIQUE",
      "house": "64",
      "postcode": "8200-261",
      "city": "ALBUFEIRA",
      "lon": "-8.23790015391033",
      "lat": "37.08747791219197"
    },
    {
      "id": "pt.ine.add.PTCONT.1846480",
      "street": "R PACÍFICO",
      "house": "25-27",
      "postcode": "8200-166",
      "city": "ALBUFEIRA",
      "lon": "-8.240118835523758",
      "lat": "37.089575420601165"
    },
    {
      "id": "pt.ine.add.PTCONT.1847904",
      "street": "BC NAUS",
      "house": "65",
      "postcode": "8200-261",
      "city": "ALBUFEIRA",
      "lon": "-8.236585511104945",
      "lat": "37.08843419923824"
    },
    {
      "id": "pt.ine.add.PTCONT.1848037",
      "street": "R DUNFERMLINE B",
      "house": "B",
      "postcode": "8200-278",
      "city": "ALBUFEIRA",
      "lon": "-8.2347446867106",
      "lat": "37.09125613497999"
    }
  ]
}