{
  "data": {
    "distrito": "Santarém",
    "concelho": "Rio Maior",
    "freguesia": "Rio Maior",
    "OBJECTID": 87,
    "BGRI2021": "14140800612",
    "DT21": "14",
    "DTMN21": "1414",
    "DTMNFR21": "141408",
    "DTMNFRSEC21": "141408006",
    "SECNUM21": "006",
    "SSNUM21": "12",
    "SECSSNUM21": "00612",
    "OBJECTID_1": 153068,
    "DT": "14",
    "CC": "14",
    "fr": "08",
    "SEC": "006",
    "SS": "12"
  },
  "addresses": [
    {
      "id": "pt.ine.add.PTCONT.4394699",
      "street": "R PROF AMILCAR ANDRADE",
      "house": "3",
      "postcode": "2040-230",
      "city": "RIO MAIOR",
      "lon": "-8.943275807274679",
      "lat": "39.339233298470425"
    },
    {
      "id": "pt.ine.add.PTCONT.4399362",
      "street": "R MAJOR CABRAL QUADROS",
      "house": "",
      "postcode": "2040-223",
      "city": "RIO MAIOR",
      "lon": "-8.947185248407692",
      "lat": "39.34127763991847"
    },
    {
      "id": "pt.ine.add.PTCONT.4402879",
      "street": "R MAJ CABRAL QUADROS",
      "house": "20",
      "postcode": "2040-223",
      "city": "RIO MAIOR",
      "lon": "-8.947024953762487",
      "lat": "39.342458683537465"
    },
    {
      "id": "pt.ine.add.PTCONT.4402950",
      "street": "R MARQUES DE RIO MAIOR CASA BELMIRA",
      "house": "",
      "postcode": "2040-201",
      "city": "RIO MAIOR",
      "lon": "-8.94305895735435",
      "lat": "39.34154961862493"
    },
    {
      "id": "pt.ine.add.PTCONT.4409063",
      "street": "R MARQUES DE RIO MAIOR",
      "house": "",
      "postcode": "2040-201",
      "city": "RIO MAIOR",
      "lon": "-8.944177318716171",
      "lat": "39.341965161483024"
    },
    {
      "id": "pt.ine.add.PTCONT.4413301",
      "street": "R MAJ CABRAL QUADROS",
      "house": "",
      "postcode": "2040-223",
      "city": "RIO MAIOR",
      "lon": "-8.947340524258735",
      "lat": "39.342663638189556"
    },
    {
      "id": "pt.ine.add.PTCONT.4414303",
      "street": "R MAJOR CABRAL QUADROS",
      "house": "",
      "postcode": "2040-223",
      "city": "RIO MAIOR",
      "lon": "-8.9467234017232",
      "lat": "39.34046122842708"
    },
    {
      "id": "pt.ine.add.PTCONT.4419446",
      "street": "R MARQUES DE RIO MAIOR",
      "house": "R",
      "postcode": "2040-201",
      "city": "RIO MAIOR",
      "lon": "-8.943580791975876",
      "lat": "39.34153697889574"
    },
    {
      "id": "pt.ine.add.PTCONT.4419862",
      "street": "R PADRE ARMANDO DELGADO MARQUES",
      "house": "",
      "postcode": "2040-362",
      "city": "RIO MAIOR",
      "lon": "-8.948822868215439",
      "lat": "39.34245510341684"
    },
    {
      "id": "pt.ine.add.PTCONT.4425694",
      "street": "R ENCOSTA DO SOL",
      "house": "",
      "postcode": "2040-362",
      "city": "RIO MAIOR",
      "lon": "-8.947427148440772",
      "lat": "39.34213161670104"
    },
    {
      "id": "pt.ine.add.PTCONT.4425704",
      "street": "R MAJOR CABRAL QUADROS",
      "house": "",
      "postcode": "2040-223",
      "city": "RIO MAIOR",
      "lon": "-8.946835613605451",
      "lat": "39.3421357539863"
    },
    {
      "id": "pt.ine.add.PTCONT.4427725",
      "street": "R ENCOSTA DO SOL",
      "house": "",
      "postcode": "2040-362",
      "city": "RIO MAIOR",
      "lon": "-8.947559438194453",
      "lat": "39.34253600789422"
    },
    {
      "id": "pt.ine.add.PTCONT.4427726",
      "street": "R MAJOR CABRAL QUADROS",
      "house": "",
      "postcode": "2040-223",
      "city": "RIO MAIOR",
      "lon": "-8.947114507768347",
      "lat": "39.341179057222504"
    },
    {
      "id": "pt.ine.add.PTCONT.4427746",
      "street": "R PROF AMILCAR ANDRADE",
      "house": "",
      "postcode": "2040-230",
      "city": "RIO MAIOR",
      "lon": "-8.943487695720432",
      "lat": "39.33950203477596"
    },
    {
      "id": "pt.ine.add.PTCONT.4427747",
      "street": "R PROF AMILCAR ANDRADE",
      "house": "",
      "postcode": "2040-230",
      "city": "RIO MAIOR",
      "lon": "-8.943487695720432",
      "lat": "39.33950203477596"
    },
    {
      "id": "pt.ine.add.PTCONT.4429479",
      "street": "R MAJOR CABRAL QUADROS",
      "house": "",
      "postcode": "2040-223",
      "city": "RIO MAIOR",
      "lon": "-8.94679047893089",
      "lat": "39.34124437232043"
    },
    {
      "id": "pt.ine.add.PTCONT.4429480",
      "street": "R MAJOR CABRAL QUADROS",
      "house": "",
      "postcode": "2040-223",
      "city": "RIO MAIOR",
      "lon": "-8.94679047893089",
      "lat": "39.34124437232043"
    },
    {
      "id": "pt.ine.add.PTCONT.4429481",
      "street": "R MAJOR CABRAL QUADROS",
      "house": "",
      "postcode": "2040-223",
      "city": "RIO MAIOR",
      "lon": "-8.94679047893089",
      "lat": "39.34124437232043"
    },
    {
      "id": "pt.ine.add.PTCONT.4429482",
      "street": "R FERREIRA CAMPOS",
      "house": "",
      "postcode": "2040-309",
      "city": "RIO MAIOR",
      "lon": "-8.943134029470372",
      "lat": "39.33900910907864"
    },
    {
      "id": "pt.ine.add.PTCONT.4430164",
      "street": "R MAJOR CABRAL QUADROS",
      "house": "",
      "postcode": "2040-223",
      "city": "RIO MAIOR",
      "lon": "-8.94679047893089",
      "lat": "39.34124437232043"
    },
    {
      "id": "pt.ine.add.PTCONT.4430713",
      "street": "R ENCOSTA DO SOL",
      "house": "",
      "postcode": "2040-362",
      "city": "RIO MAIOR",
      "lon": "-8.947458600100415",
      "lat": "39.34184317129862"
    },
    {
      "id": "pt.ine.add.PTCONT.4430714",
      "street": "R MAJOR CABRAL QUADROS",
      "house": "",
      "postcode": "2040-223",
      "city": "RIO MAIOR",
      "lon": "-8.946949720727291",
      "lat": "39.3419728293814"
    },
    {
      "id": "pt.ine.add.PTCONT.4434208",
      "street": "R D AFONSO HENRIQUES",
      "house": "",
      "postcode": "2040-273",
      "city": "RIO MAIOR",
      "lon": "-8.945573094763814",
      "lat": "39.33928934102282"
    },
    {
      "id": "pt.ine.add.PTCONT.4435688",
      "street": "R VALE FALANTE",
      "house": "",
      "postcode": "2040-214",
      "city": "RIO MAIOR",
      "lon": "-8.947126213334274",
      "lat": "39.34018820051136"
    },
    {
      "id": "pt.ine.add.PTCONT.4439872",
      "street": "R MANUEL SOARES CARTAXO",
      "house": "2",
      "postcode": "2040-349",
      "city": "RIO MAIOR",
      "lon": "-8.947961849826385",
      "lat": "39.34322673328569"
    },
    {
      "id": "pt.ine.add.PTCONT.4439961",
      "street": "R ENCOSTA DO SOL",
      "house": "",
      "postcode": "2040-362",
      "city": "RIO MAIOR",
      "lon": "-8.947436029826576",
      "lat": "39.341897371472015"
    },
    {
      "id": "pt.ine.add.PTCONT.4439981",
      "street": "R VALE FALANTE",
      "house": "",
      "postcode": "2040-214",
      "city": "RIO MAIOR",
      "lon": "-8.947558594310916",
      "lat": "39.34046439400457"
    },
    {
      "id": "pt.ine.add.PTCONT.4439982",
      "street": "R VALE FALANTE",
      "house": "",
      "postcode": "2040-214",
      "city": "RIO MAIOR",
      "lon": "-8.947558594310916",
      "lat": "39.34046439400457"
    },
    {
      "id": "pt.ine.add.PTCONT.4441298",
      "street": "R S BARBARA",
      "house": "11",
      "postcode": "2040-228",
      "city": "RIO MAIOR",
      "lon": "-8.942624093625794",
      "lat": "39.34105725660697"
    },
    {
      "id": "pt.ine.add.PTCONT.4441299",
      "street": "R D AFONSO HENRIQUES",
      "house": "170",
      "postcode": "2040-273",
      "city": "RIO MAIOR",
      "lon": "-8.9453056052436",
      "lat": "39.33922815863076"
    },
    {
      "id": "pt.ine.add.PTCONT.4443176",
      "street": "R S BARBARA",
      "house": "6",
      "postcode": "2040-228",
      "city": "RIO MAIOR",
      "lon": "-8.94291229076042",
      "lat": "39.340902131960135"
    },
    {
      "id": "pt.ine.add.PTCONT.4446213",
      "street": "R D AFONSO HENRIQUES",
      "house": "",
      "postcode": "2040-273",
      "city": "RIO MAIOR",
      "lon": "-8.945234318486623",
      "lat": "39.34008432548104"
    },
    {
      "id": "pt.ine.add.PTCONT.4446214",
      "street": "AV COMBATENTES",
      "house": "",
      "postcode": "2040-344",
      "city": "RIO MAIOR",
      "lon": "-8.945924380329133",
      "lat": "39.33957511378615"
    },
    {
      "id": "pt.ine.add.PTCONT.4448270",
      "street": "AV PORTUGAL",
      "house": "18",
      "postcode": "2040-349",
      "city": "RIO MAIOR",
      "lon": "-8.948341997687296",
      "lat": "39.34299889512481"
    },
    {
      "id": "pt.ine.add.PTCONT.4452374",
      "street": "R MAJOR CABRAL QUADROS",
      "house": "",
      "postcode": "2040-223",
      "city": "RIO MAIOR",
      "lon": "-8.94688034326811",
      "lat": "39.34099154681076"
    },
    {
      "id": "pt.ine.add.PTCONT.4454311",
      "street": "R ALF MILICIANO MANUEL SOARES CARTAXO",
      "house": "",
      "postcode": "2040-362",
      "city": "RIO MAIOR",
      "lon": "-8.946762150170013",
      "lat": "39.34280278865941"
    },
    {
      "id": "pt.ine.add.PTCONT.4456901",
      "street": "R ALF MILICIANO MANUEL SOARES CARTAXO",
      "house": "",
      "postcode": "2040-362",
      "city": "RIO MAIOR",
      "lon": "-8.947146269885195",
      "lat": "39.34291719416891"
    },
    {
      "id": "pt.ine.add.PTCONT.4457401",
      "street": "R MAJOR CABRAL QUADROS",
      "house": "",
      "postcode": "2040-223",
      "city": "RIO MAIOR",
      "lon": "-8.947124852698117",
      "lat": "39.34107090034979"
    },
    {
      "id": "pt.ine.add.PTCONT.4457402",
      "street": "R MARQUES DE RIO MAIOR CASAL DANIEL",
      "house": "",
      "postcode": "2040-201",
      "city": "RIO MAIOR",
      "lon": "-8.944262569756214",
      "lat": "39.34231584203761"
    },
    {
      "id": "pt.ine.add.PTCONT.4460592",
      "street": "R D AFONSO HENRIQUES",
      "house": "158",
      "postcode": "2040-273",
      "city": "RIO MAIOR",
      "lon": "-8.944700934049537",
      "lat": "39.33909727094065"
    },
    {
      "id": "pt.ine.add.PTCONT.4465754",
      "street": "R ENCOSTA DO SOL",
      "house": "",
      "postcode": "2040-362",
      "city": "RIO MAIOR",
      "lon": "-8.947432580946709",
      "lat": "39.341600163208206"
    },
    {
      "id": "pt.ine.add.PTCONT.4465755",
      "street": "R ENCOSTA DO SOL",
      "house": "",
      "postcode": "2040-362",
      "city": "RIO MAIOR",
      "lon": "-8.947432580946709",
      "lat": "39.341600163208206"
    },
    {
      "id": "pt.ine.add.PTCONT.4465756",
      "street": "R MAJ CABRAL QUADROS",
      "house": "1",
      "postcode": "2040-223",
      "city": "RIO MAIOR",
      "lon": "-8.94670825322677",
      "lat": "39.34015509480027"
    },
    {
      "id": "pt.ine.add.PTCONT.4465757",
      "street": "R S BARBARA",
      "house": "4",
      "postcode": "2040-228",
      "city": "RIO MAIOR",
      "lon": "-8.943039146987136",
      "lat": "39.340838199927"
    },
    {
      "id": "pt.ine.add.PTCONT.4468206",
      "street": "R MAJOR CABRAL QUADROS",
      "house": "",
      "postcode": "2040-223",
      "city": "RIO MAIOR",
      "lon": "-8.946783273578314",
      "lat": "39.340622936672446"
    },
    {
      "id": "pt.ine.add.PTCONT.4468333",
      "street": "R MAJOR CABRAL QUADROS",
      "house": "",
      "postcode": "2040-223",
      "city": "RIO MAIOR",
      "lon": "-8.946783273578314",
      "lat": "39.340622936672446"
    },
    {
      "id": "pt.ine.add.PTCONT.4475160",
      "street": "R PROF AMILCAR ANDRADE",
      "house": "1",
      "postcode": "2040-230",
      "city": "RIO MAIOR",
      "lon": "-8.943181357940698",
      "lat": "39.339089843113534"
    },
    {
      "id": "pt.ine.add.PTCONT.4479084",
      "street": "R ALF MILICIANO MANUEL SOARES CARTAXO",
      "house": "",
      "postcode": "2040-362",
      "city": "RIO MAIOR",
      "lon": "-8.946734671067777",
      "lat": "39.34243369207159"
    },
    {
      "id": "pt.ine.add.PTCONT.4481402",
      "street": "R MAJOR CABRAL QUADROS",
      "house": "",
      "postcode": "2040-223",
      "city": "RIO MAIOR",
      "lon": "-8.9477989275507",
      "lat": "39.341183275446724"
    },
    {
      "id": "pt.ine.add.PTCONT.4483700",
      "street": "R MAJOR CABRAL QUADROS",
      "house": "",
      "postcode": "2040-223",
      "city": "RIO MAIOR",
      "lon": "-8.946946587243719",
      "lat": "39.34170264002216"
    },
    {
      "id": "pt.ine.add.PTCONT.4483701",
      "street": "R MAJOR CABRAL QUADROS",
      "house": "",
      "postcode": "2040-223",
      "city": "RIO MAIOR",
      "lon": "-8.946945542758563",
      "lat": "39.34161257689957"
    },
    {
      "id": "pt.ine.add.PTCONT.4484228",
      "street": "R MARQUES DE RIO MAIOR",
      "house": "",
      "postcode": "2040-201",
      "city": "RIO MAIOR",
      "lon": "-8.94360242896115",
      "lat": "39.34140172255633"
    },
    {
      "id": "pt.ine.add.PTCONT.4485922",
      "street": "R MAJOR CABRAL QUADROS",
      "house": "",
      "postcode": "2040-223",
      "city": "RIO MAIOR",
      "lon": "-8.947014720773515",
      "lat": "39.34057628315332"
    },
    {
      "id": "pt.ine.add.PTCONT.4485934",
      "street": "R MAJOR CABRAL QUADROS",
      "house": "",
      "postcode": "2040-223",
      "city": "RIO MAIOR",
      "lon": "-8.946657569707094",
      "lat": "39.3407859422071"
    },
    {
      "id": "pt.ine.add.PTCONT.4485950",
      "street": "R PROF AMILCAR ANDRADE",
      "house": "24",
      "postcode": "2040-230",
      "city": "RIO MAIOR",
      "lon": "-8.943960832576511",
      "lat": "39.33929157740671"
    },
    {
      "id": "pt.ine.add.PTCONT.4486917",
      "street": "R ENCOSTA DO SOL",
      "house": "",
      "postcode": "2040-362",
      "city": "RIO MAIOR",
      "lon": "-8.947426207834535",
      "lat": "39.34205055990644"
    },
    {
      "id": "pt.ine.add.PTCONT.4486918",
      "street": "R D AFONSO HENRIQUES PATIO ISB",
      "house": "958",
      "postcode": "2040-273",
      "city": "RIO MAIOR",
      "lon": "-8.944269821788877",
      "lat": "39.33892914243199"
    },
    {
      "id": "pt.ine.add.PTCONT.4491443",
      "street": "R S BARBARA",
      "house": "5",
      "postcode": "2040-228",
      "city": "RIO MAIOR",
      "lon": "-8.942981570133952",
      "lat": "39.34087462876818"
    },
    {
      "id": "pt.ine.add.PTCONT.4497836",
      "street": "R MAJOR CABRAL QUADROS",
      "house": "12",
      "postcode": "2040-223",
      "city": "RIO MAIOR",
      "lon": "-8.946890688536515",
      "lat": "39.34088338995189"
    },
    {
      "id": "pt.ine.add.PTCONT.4497837",
      "street": "R S BARBARA",
      "house": "12",
      "postcode": "2040-228",
      "city": "RIO MAIOR",
      "lon": "-8.942555021695233",
      "lat": "39.34110277223449"
    },
    {
      "id": "pt.ine.add.PTCONT.4497838",
      "street": "R PROF AMILCAR ANDRADE",
      "house": "26",
      "postcode": "2040-230",
      "city": "RIO MAIOR",
      "lon": "-8.943971598374459",
      "lat": "39.33921944602266"
    },
    {
      "id": "pt.ine.add.PTCONT.4498832",
      "street": "R S BARBARA",
      "house": "2",
      "postcode": "2040-228",
      "city": "RIO MAIOR",
      "lon": "-8.943166002981327",
      "lat": "39.34077426775733"
    },
    {
      "id": "pt.ine.add.PTCONT.4499694",
      "street": "R D AFONSO HENRIQUES",
      "house": "158",
      "postcode": "2040-273",
      "city": "RIO MAIOR",
      "lon": "-8.944249019515231",
      "lat": "39.339136449509226"
    },
    {
      "id": "pt.ine.add.PTCONT.4503717",
      "street": "R ENCOSTA DO SOL",
      "house": "",
      "postcode": "2040-362",
      "city": "RIO MAIOR",
      "lon": "-8.947763197666678",
      "lat": "39.34210224385731"
    },
    {
      "id": "pt.ine.add.PTCONT.4503838",
      "street": "R MARQUES DE RIO MAIOR",
      "house": "",
      "postcode": "2040-201",
      "city": "RIO MAIOR",
      "lon": "-8.943486962862945",
      "lat": "39.341447561803584"
    },
    {
      "id": "pt.ine.add.PTCONT.4505685",
      "street": "R S BARBARA",
      "house": "7",
      "postcode": "2040-228",
      "city": "RIO MAIOR",
      "lon": "-8.942854609867632",
      "lat": "39.34092955441685"
    },
    {
      "id": "pt.ine.add.PTCONT.4507723",
      "street": "R PADRE ARMANDO DELGADO MARQUES",
      "house": "",
      "postcode": "2040-362",
      "city": "RIO MAIOR",
      "lon": "-8.948753903692875",
      "lat": "39.34250962899169"
    },
    {
      "id": "pt.ine.add.PTCONT.4510025",
      "street": "R MAJOR CABRAL QUADROS",
      "house": "",
      "postcode": "2040-223",
      "city": "RIO MAIOR",
      "lon": "-8.94686686489127",
      "lat": "39.340829514261735"
    },
    {
      "id": "pt.ine.add.PTCONT.4520666",
      "street": "R ALF MILICIANO MANUEL SOARES CARTAXO",
      "house": "",
      "postcode": "2040-362",
      "city": "RIO MAIOR",
      "lon": "-8.947771353101821",
      "lat": "39.34280473597374"
    },
    {
      "id": "pt.ine.add.PTCONT.4523124",
      "street": "R VALE FALANTE",
      "house": "",
      "postcode": "2040-214",
      "city": "RIO MAIOR",
      "lon": "-8.947266647951727",
      "lat": "39.34029530276033"
    },
    {
      "id": "pt.ine.add.PTCONT.4526976",
      "street": "R ENCOSTA DO SOL",
      "house": "",
      "postcode": "2040-362",
      "city": "RIO MAIOR",
      "lon": "-8.94749224640906",
      "lat": "39.34174385840831"
    },
    {
      "id": "pt.ine.add.PTCONT.4526977",
      "street": "R MAJOR CABRAL QUADROS",
      "house": "",
      "postcode": "2040-223",
      "city": "RIO MAIOR",
      "lon": "-8.947637070337885",
      "lat": "39.34122944352437"
    },
    {
      "id": "pt.ine.add.PTCONT.4530068",
      "street": "R ENCOSTA DO SOL",
      "house": "",
      "postcode": "2040-362",
      "city": "RIO MAIOR",
      "lon": "-8.94785431432211",
      "lat": "39.34195749337682"
    },
    {
      "id": "pt.ine.add.PTCONT.4533667",
      "street": "R MAJOR CABRAL QUADROS",
      "house": "",
      "postcode": "2040-223",
      "city": "RIO MAIOR",
      "lon": "-8.946859542127067",
      "lat": "39.342198635978086"
    },
    {
      "id": "pt.ine.add.PTCONT.4537332",
      "street": "R ENCOSTA DO SOL",
      "house": "",
      "postcode": "2040-362",
      "city": "RIO MAIOR",
      "lon": "-8.947163512198513",
      "lat": "39.34240367223253"
    },
    {
      "id": "pt.ine.add.PTCONT.4537333",
      "street": "R ENCOSTA DO SOL",
      "house": "",
      "postcode": "2040-362",
      "city": "RIO MAIOR",
      "lon": "-8.947163512198513",
      "lat": "39.34240367223253"
    },
    {
      "id": "pt.ine.add.PTCONT.4537334",
      "street": "R ENCOSTA DO SOL",
      "house": "",
      "postcode": "2040-362",
      "city": "RIO MAIOR",
      "lon": "-8.947163512198513",
      "lat": "39.34240367223253"
    },
    {
      "id": "pt.ine.add.PTCONT.4537783",
      "street": "R ENCOSTA DO SOL",
      "house": "",
      "postcode": "2040-362",
      "city": "RIO MAIOR",
      "lon": "-8.947163512198513",
      "lat": "39.34240367223253"
    },
    {
      "id": "pt.ine.add.PTCONT.4537818",
      "street": "R MANUEL SOARES CARTAXO",
      "house": "1",
      "postcode": "2040-061",
      "city": "RIO MAIOR",
      "lon": "-8.948159763399703",
      "lat": "39.343288396734295"
    },
    {
      "id": "pt.ine.add.PTCONT.4543371",
      "street": "R D AFONSO HENRIQUES",
      "house": "",
      "postcode": "2040-273",
      "city": "RIO MAIOR",
      "lon": "-8.944091894042872",
      "lat": "39.33858811451227"
    },
    {
      "id": "pt.ine.add.PTCONT.4545169",
      "street": "R MARQUES DE RIO MAIOR",
      "house": "",
      "postcode": "2040-201",
      "city": "RIO MAIOR",
      "lon": "-8.943010899717004",
      "lat": "39.341405840340215"
    },
    {
      "id": "pt.ine.add.PTCONT.4545170",
      "street": "R MARQUES DE RIO MAIOR",
      "house": "",
      "postcode": "2040-201",
      "city": "RIO MAIOR",
      "lon": "-8.943010899717004",
      "lat": "39.341405840340215"
    },
    {
      "id": "pt.ine.add.PTCONT.4545171",
      "street": "R S BARBARA",
      "house": "3",
      "postcode": "2040-228",
      "city": "RIO MAIOR",
      "lon": "-8.943108322294094",
      "lat": "39.34080169033826"
    },
    {
      "id": "pt.ine.add.PTCONT.4545824",
      "street": "AV COMBATENTES",
      "house": "",
      "postcode": "2040-344",
      "city": "RIO MAIOR",
      "lon": "-8.94574988434418",
      "lat": "39.33953129704392"
    },
    {
      "id": "pt.ine.add.PTCONT.4547448",
      "street": "R ALF MILICIANO MANUEL SOARES CARTAXO",
      "house": "",
      "postcode": "2040-362",
      "city": "RIO MAIOR",
      "lon": "-8.946377405412866",
      "lat": "39.342634343994945"
    },
    {
      "id": "pt.ine.add.PTCONT.4547449",
      "street": "R ENCOSTA DO SOL",
      "house": "",
      "postcode": "2040-362",
      "city": "RIO MAIOR",
      "lon": "-8.947302070415168",
      "lat": "39.342348660764365"
    },
    {
      "id": "pt.ine.add.PTCONT.4547450",
      "street": "R PROF AMILCAR ANDRADE",
      "house": "16",
      "postcode": "2040-230",
      "city": "RIO MAIOR",
      "lon": "-8.94386102616852",
      "lat": "39.339688582772766"
    },
    {
      "id": "pt.ine.add.PTCONT.4549527",
      "street": "R ENCOSTA DO SOL",
      "house": "",
      "postcode": "2040-362",
      "city": "RIO MAIOR",
      "lon": "-8.947887332700754",
      "lat": "39.34180414252005"
    },
    {
      "id": "pt.ine.add.PTCONT.4549528",
      "street": "R MAJOR CABRAL QUADROS",
      "house": "",
      "postcode": "2040-223",
      "city": "RIO MAIOR",
      "lon": "-8.946970515709964",
      "lat": "39.34176552199625"
    },
    {
      "id": "pt.ine.add.PTCONT.4549563",
      "street": "R PROF AMILCAR ANDRADE",
      "house": "5",
      "postcode": "2040-230",
      "city": "RIO MAIOR",
      "lon": "-8.943334838306402",
      "lat": "39.33932295802576"
    },
    {
      "id": "pt.ine.add.PTCONT.4551778",
      "street": "R D AFONSO HENRIQUES",
      "house": "",
      "postcode": "2040-273",
      "city": "RIO MAIOR",
      "lon": "-8.944793199054168",
      "lat": "39.3390515922914"
    },
    {
      "id": "pt.ine.add.PTCONT.4553771",
      "street": "R PROF AMILCAR ANDRADE",
      "house": "28",
      "postcode": "2040-230",
      "city": "RIO MAIOR",
      "lon": "-8.944005664688914",
      "lat": "39.339156159348654"
    },
    {
      "id": "pt.ine.add.PTCONT.4554136",
      "street": "R MAJOR CABRAL QUADROS",
      "house": "",
      "postcode": "2040-223",
      "city": "RIO MAIOR",
      "lon": "-8.947823170271262",
      "lat": "39.34127317617776"
    },
    {
      "id": "pt.ine.add.PTCONT.4555177",
      "street": "R PADRE ARMANDO DELGADO MARQUES",
      "house": "",
      "postcode": "2040-362",
      "city": "RIO MAIOR",
      "lon": "-8.948080558434434",
      "lat": "39.34346008513395"
    },
    {
      "id": "pt.ine.add.PTCONT.4555178",
      "street": "R D AFONSO HENRIQUES",
      "house": "",
      "postcode": "2040-273",
      "city": "RIO MAIOR",
      "lon": "-8.944711178299679",
      "lat": "39.33898010788708"
    },
    {
      "id": "pt.ine.add.PTCONT.4564410",
      "street": "R MAJOR CABRAL QUADROS",
      "house": "",
      "postcode": "2040-223",
      "city": "RIO MAIOR",
      "lon": "-8.946754221290757",
      "lat": "39.34111852719052"
    },
    {
      "id": "pt.ine.add.PTCONT.4564411",
      "street": "R MAJOR CABRAL QUADROS",
      "house": "",
      "postcode": "2040-223",
      "city": "RIO MAIOR",
      "lon": "-8.946754221290757",
      "lat": "39.34111852719052"
    },
    {
      "id": "pt.ine.add.PTCONT.4564412",
      "street": "R MAJOR CABRAL QUADROS",
      "house": "",
      "postcode": "2040-223",
      "city": "RIO MAIOR",
      "lon": "-8.946754221290757",
      "lat": "39.34111852719052"
    },
    {
      "id": "pt.ine.add.PTCONT.4564795",
      "street": "R MAJOR CABRAL QUADROS",
      "house": "",
      "postcode": "2040-223",
      "city": "RIO MAIOR",
      "lon": "-8.946754221290757",
      "lat": "39.34111852719052"
    },
    {
      "id": "pt.ine.add.PTCONT.4572690",
      "street": "R S BARBARA",
      "house": "",
      "postcode": "2040-228",
      "city": "RIO MAIOR",
      "lon": "-8.94322368362317",
      "lat": "39.340746845148125"
    },
    {
      "id": "pt.ine.add.PTCONT.4573740",
      "street": "R D AFONSO HENRIQUES",
      "house": "158",
      "postcode": "2040-273",
      "city": "RIO MAIOR",
      "lon": "-8.944271175027463",
      "lat": "39.339046224622955"
    },
    {
      "id": "pt.ine.add.PTCONT.4574895",
      "street": "R D AFONSO HENRIQUES",
      "house": "158",
      "postcode": "2040-273",
      "city": "RIO MAIOR",
      "lon": "-8.944271175027463",
      "lat": "39.339046224622955"
    },
    {
      "id": "pt.ine.add.PTCONT.4576572",
      "street": "R ENCOSTA DO SOL",
      "house": "29",
      "postcode": "2040-362",
      "city": "RIO MAIOR",
      "lon": "-8.947764034108435",
      "lat": "39.342174294334775"
    },
    {
      "id": "pt.ine.add.PTCONT.4578821",
      "street": "R MARQUES DE RIO MAIOR",
      "house": "",
      "postcode": "2040-201",
      "city": "RIO MAIOR",
      "lon": "-8.94283463427015",
      "lat": "39.34120891179755"
    },
    {
      "id": "pt.ine.add.PTCONT.4580907",
      "street": "R PROF AMILCAR ANDRADE",
      "house": "22",
      "postcode": "2040-230",
      "city": "RIO MAIOR",
      "lon": "-8.943927806685368",
      "lat": "39.33944492729233"
    },
    {
      "id": "pt.ine.add.PTCONT.4580908",
      "street": "R PROF AMILCAR ANDRADE",
      "house": "22",
      "postcode": "2040-230",
      "city": "RIO MAIOR",
      "lon": "-8.943927806685368",
      "lat": "39.33944492729233"
    },
    {
      "id": "pt.ine.add.PTCONT.4580909",
      "street": "R PROF AMILCAR ANDRADE",
      "house": "22",
      "postcode": "2040-230",
      "city": "RIO MAIOR",
      "lon": "-8.943927806685368",
      "lat": "39.33944492729233"
    },
    {
      "id": "pt.ine.add.PTCONT.4587107",
      "street": "AV PORTUGAL",
      "house": "45",
      "postcode": "2040-349",
      "city": "RIO MAIOR",
      "lon": "-8.94654615719575",
      "lat": "39.343182594180675"
    },
    {
      "id": "pt.ine.add.PTCONT.4587177",
      "street": "R ENCOSTA DO SOL",
      "house": "",
      "postcode": "2040-362",
      "city": "RIO MAIOR",
      "lon": "-8.947396844492289",
      "lat": "39.34151934985742"
    },
    {
      "id": "pt.ine.add.PTCONT.4587589",
      "street": "R ENCOSTA DO SOL",
      "house": "",
      "postcode": "2040-362",
      "city": "RIO MAIOR",
      "lon": "-8.94785337322832",
      "lat": "39.34187643658841"
    },
    {
      "id": "pt.ine.add.PTCONT.4589266",
      "street": "R ALF MILICIANO MANUEL SOARES CARTAXO",
      "house": "",
      "postcode": "2040-362",
      "city": "RIO MAIOR",
      "lon": "-8.947969265316644",
      "lat": "39.342866399764944"
    },
    {
      "id": "pt.ine.add.PTCONT.4589286",
      "street": "R ENCOSTA DO SOL",
      "house": "",
      "postcode": "2040-362",
      "city": "RIO MAIOR",
      "lon": "-8.947396008446976",
      "lat": "39.34144729936524"
    },
    {
      "id": "pt.ine.add.PTCONT.4589300",
      "street": "R S BARBARA",
      "house": "9",
      "postcode": "2040-228",
      "city": "RIO MAIOR",
      "lon": "-8.942751158213962",
      "lat": "39.341011337529324"
    },
    {
      "id": "pt.ine.add.PTCONT.4591348",
      "street": "R MAJOR CABRAL QUADROS",
      "house": "",
      "postcode": "2040-223",
      "city": "RIO MAIOR",
      "lon": "-8.947510008646862",
      "lat": "39.34127536790549"
    },
    {
      "id": "pt.ine.add.PTCONT.4595517",
      "street": "R ALF MILICIANO MANUEL SOARES CARTAXO",
      "house": "",
      "postcode": "2040-362",
      "city": "RIO MAIOR",
      "lon": "-8.947445436121988",
      "lat": "39.342707939385555"
    },
    {
      "id": "pt.ine.add.PTCONT.4595518",
      "street": "R MANUEL DE OLIVEIRA LINO",
      "house": "",
      "postcode": "2040-362",
      "city": "RIO MAIOR",
      "lon": "-8.9469158595836",
      "lat": "39.3430539111131"
    },
    {
      "id": "pt.ine.add.PTCONT.4597412",
      "street": "R ENCOSTA DO SOL",
      "house": "",
      "postcode": "2040-362",
      "city": "RIO MAIOR",
      "lon": "-8.947436761413714",
      "lat": "39.34196041564721"
    },
    {
      "id": "pt.ine.add.PTCONT.4603994",
      "street": "R MAJOR CABRAL QUADROS",
      "house": "",
      "postcode": "2040-223",
      "city": "RIO MAIOR",
      "lon": "-8.947753578802127",
      "lat": "39.34127366330117"
    },
    {
      "id": "pt.ine.add.PTCONT.4603995",
      "street": "R S BARBARA",
      "house": "8",
      "postcode": "2040-228",
      "city": "RIO MAIOR",
      "lon": "-8.942785330389176",
      "lat": "39.34095705753404"
    },
    {
      "id": "pt.ine.add.PTCONT.4605724",
      "street": "R D AFONSO HENRIQUES",
      "house": "",
      "postcode": "2040-273",
      "city": "RIO MAIOR",
      "lon": "-8.944806151410681",
      "lat": "39.33916859357883"
    },
    {
      "id": "pt.ine.add.PTCONT.4610025",
      "street": "R MAJOR CABRAL QUADROS",
      "house": "",
      "postcode": "2040-223",
      "city": "RIO MAIOR",
      "lon": "-8.946983054455597",
      "lat": "39.34184649769665"
    },
    {
      "id": "pt.ine.add.PTCONT.4611990",
      "street": "AV COMBATENTES",
      "house": "",
      "postcode": "2040-344",
      "city": "RIO MAIOR",
      "lon": "-8.94606564652063",
      "lat": "39.33975426806641"
    },
    {
      "id": "pt.ine.add.PTCONT.4616301",
      "street": "R S JOÃO",
      "house": "2",
      "postcode": "2040-214",
      "city": "RIO MAIOR",
      "lon": "-8.94830800883199",
      "lat": "39.34107162632985"
    },
    {
      "id": "pt.ine.add.PTCONT.4616320",
      "street": "R D AFONSO HENRIQUES",
      "house": "",
      "postcode": "2040-273",
      "city": "RIO MAIOR",
      "lon": "-8.944512030360775",
      "lat": "39.338810362506"
    },
    {
      "id": "pt.ine.add.PTCONT.4616321",
      "street": "R D AFONSO HENRIQUES",
      "house": "",
      "postcode": "2040-273",
      "city": "RIO MAIOR",
      "lon": "-8.944512030360775",
      "lat": "39.338810362506"
    },
    {
      "id": "pt.ine.add.PTCONT.4616322",
      "street": "R D AFONSO HENRIQUES",
      "house": "",
      "postcode": "2040-273",
      "city": "RIO MAIOR",
      "lon": "-8.944512030360775",
      "lat": "39.338810362506"
    },
    {
      "id": "pt.ine.add.PTCONT.4616323",
      "street": "R D AFONSO HENRIQUES",
      "house": "",
      "postcode": "2040-273",
      "city": "RIO MAIOR",
      "lon": "-8.944512030360775",
      "lat": "39.338810362506"
    },
    {
      "id": "pt.ine.add.PTCONT.4616324",
      "street": "R D AFONSO HENRIQUES",
      "house": "",
      "postcode": "2040-273",
      "city": "RIO MAIOR",
      "lon": "-8.944512030360775",
      "lat": "39.338810362506"
    },
    {
      "id": "pt.ine.add.PTCONT.4616325",
      "street": "R D AFONSO HENRIQUES",
      "house": "",
      "postcode": "2040-273",
      "city": "RIO MAIOR",
      "lon": "-8.944512030360775",
      "lat": "39.338810362506"
    },
    {
      "id": "pt.ine.add.PTCONT.4618231",
      "street": "R S JOÃO",
      "house": "",
      "postcode": "2040-214",
      "city": "RIO MAIOR",
      "lon": "-8.9482894293466",
      "lat": "39.3424678479502"
    },
    {
      "id": "pt.ine.add.PTCONT.4620495",
      "street": "R PADRE ARMANDO DELGADO MARQUES",
      "house": "",
      "postcode": "2040-362",
      "city": "RIO MAIOR",
      "lon": "-8.948444189884798",
      "lat": "39.34280903142342"
    },
    {
      "id": "pt.ine.add.PTCONT.4624660",
      "street": "R ENCOSTA DO SOL",
      "house": "",
      "postcode": "2040-362",
      "city": "RIO MAIOR",
      "lon": "-8.947776678406859",
      "lat": "39.34226427624313"
    },
    {
      "id": "pt.ine.add.PTCONT.4624675",
      "street": "R S BARBARA",
      "house": "10",
      "postcode": "2040-228",
      "city": "RIO MAIOR",
      "lon": "-8.942681774714742",
      "lat": "39.34102983426309"
    },
    {
      "id": "pt.ine.add.PTCONT.4629110",
      "street": "R ALF MILICIANO MANUEL SOARES CARTAXO",
      "house": "",
      "postcode": "2040-362",
      "city": "RIO MAIOR",
      "lon": "-8.947654946611376",
      "lat": "39.34276952256193"
    },
    {
      "id": "pt.ine.add.PTCONT.4630853",
      "street": "R MAJOR CABRAL QUADROS",
      "house": "",
      "postcode": "2040-223",
      "city": "RIO MAIOR",
      "lon": "-8.946993299505476",
      "lat": "39.34072955270205"
    },
    {
      "id": "pt.ine.add.PTCONT.4638970",
      "street": "R VALE FALANTE",
      "house": "4",
      "postcode": "2040-214",
      "city": "RIO MAIOR",
      "lon": "-8.947453372229793",
      "lat": "39.3403930739201"
    },
    {
      "id": "pt.ine.add.PTCONT.4645208",
      "street": "R ALF MILICIANO MANUEL SOARES CARTAXO",
      "house": "",
      "postcode": "2040-362",
      "city": "RIO MAIOR",
      "lon": "-8.946564030353851",
      "lat": "39.34272311017893"
    },
    {
      "id": "pt.ine.add.PTCONT.4646960",
      "street": "R PADRE ARMANDO DELGADO MARQUES",
      "house": "",
      "postcode": "2040-362",
      "city": "RIO MAIOR",
      "lon": "-8.948524544452008",
      "lat": "39.34273641215265"
    },
    {
      "id": "pt.ine.add.PTCONT.4646961",
      "street": "R ENCOSTA DO SOL",
      "house": "",
      "postcode": "2040-362",
      "city": "RIO MAIOR",
      "lon": "-8.947224013724552",
      "lat": "39.34261941803111"
    },
    {
      "id": "pt.ine.add.PTCONT.4647629",
      "street": "R MAJOR CABRAL QUADROS",
      "house": "",
      "postcode": "2040-223",
      "city": "RIO MAIOR",
      "lon": "-8.94791595889415",
      "lat": "39.341272526615164"
    },
    {
      "id": "pt.ine.add.PTCONT.4651929",
      "street": "R MAJ CABRAL QUADROS",
      "house": "",
      "postcode": "2040-357",
      "city": "RIO MAIOR",
      "lon": "-8.9479438619507",
      "lat": "39.34167764817704"
    },
    {
      "id": "pt.ine.add.PTCONT.4653458",
      "street": "R MAJOR CABRAL QUADROS",
      "house": "",
      "postcode": "2040-223",
      "city": "RIO MAIOR",
      "lon": "-8.947485034714559",
      "lat": "39.341122422922226"
    },
    {
      "id": "pt.ine.add.PTCONT.4653469",
      "street": "R PROF AMILCAR ANDRADE",
      "house": "",
      "postcode": "2040-230",
      "city": "RIO MAIOR",
      "lon": "-8.944051121036352",
      "lat": "39.33907477920865"
    },
    {
      "id": "pt.ine.add.PTCONT.4653481",
      "street": "R PROF AMILCAR ANDRADE",
      "house": "7",
      "postcode": "2040-230",
      "city": "RIO MAIOR",
      "lon": "-8.943428872317906",
      "lat": "39.33943038795167"
    },
    {
      "id": "pt.ine.add.PTCONT.4654052",
      "street": "R MAJOR CABRAL QUADROS",
      "house": "",
      "postcode": "2040-223",
      "city": "RIO MAIOR",
      "lon": "-8.946686831401033",
      "lat": "39.340308364309244"
    },
    {
      "id": "pt.ine.add.PTCONT.4654053",
      "street": "R MAJOR CABRAL QUADROS",
      "house": "",
      "postcode": "2040-223",
      "city": "RIO MAIOR",
      "lon": "-8.946686831401033",
      "lat": "39.340308364309244"
    },
    {
      "id": "pt.ine.add.PTCONT.4657543",
      "street": "R MANUEL DE OLIVEIRA LINO",
      "house": "",
      "postcode": "2040-362",
      "city": "RIO MAIOR",
      "lon": "-8.946275625305152",
      "lat": "39.34286023119056"
    },
    {
      "id": "pt.ine.add.PTCONT.4661722",
      "street": "R S BARBARA",
      "house": "",
      "postcode": "2040-228",
      "city": "RIO MAIOR",
      "lon": "-8.943350851232742",
      "lat": "39.340709931745096"
    },
    {
      "id": "pt.ine.add.PTCONT.4662691",
      "street": "R MARQUES DE RIO MAIOR",
      "house": "R",
      "postcode": "2040-201",
      "city": "RIO MAIOR",
      "lon": "-8.943580791975876",
      "lat": "39.34153697889574"
    }
  ]
}