{
  "data": {
    "distrito": "Évora",
    "concelho": "Viana do Alentejo",
    "freguesia": "Viana do Alentejo",
    "OBJECTID": 84,
    "BGRI2021": "07130200137",
    "DT21": "07",
    "DTMN21": "0713",
    "DTMNFR21": "071302",
    "DTMNFRSEC21": "071302001",
    "SECNUM21": "001",
    "SSNUM21": "37",
    "SECSSNUM21": "00137",
    "OBJECTID_1": 64044,
    "DT": "07",
    "CC": "13",
    "fr": "02",
    "SEC": "001",
    "SS": "37"
  },
  "addresses": [
    {
      "id": "pt.ine.add.PTCONT.1368902",
      "street": "R ZECA AFONSO",
      "house": "",
      "postcode": "7090-287",
      "city": "VIANA DO ALENTEJO",
      "lon": "-8.007434927479787",
      "lat": "38.3372637376357"
    },
    {
      "id": "pt.ine.add.PTCONT.1370363",
      "street": "ESTR S PEDRO",
      "house": "50",
      "postcode": "7090-223",
      "city": "VIANA DO ALENTEJO",
      "lon": "-8.00869393187205",
      "lat": "38.33654634130055"
    },
    {
      "id": "pt.ine.add.PTCONT.1370586",
      "street": "R DR JULIO PEREIRA GARRIDO",
      "house": "27",
      "postcode": "7090-270",
      "city": "VIANA DO ALENTEJO",
      "lon": "-8.006438362929947",
      "lat": "38.33656394875147"
    },
    {
      "id": "pt.ine.add.PTCONT.1370587",
      "street": "R DR JULIO PEREIRA GARRIDO",
      "house": "27",
      "postcode": "7090-270",
      "city": "VIANA DO ALENTEJO",
      "lon": "-8.006438362929947",
      "lat": "38.33656394875147"
    },
    {
      "id": "pt.ine.add.PTCONT.1370588",
      "street": "R DR JULIO PEREIRA GARRIDO",
      "house": "27",
      "postcode": "7090-270",
      "city": "VIANA DO ALENTEJO",
      "lon": "-8.006438362929947",
      "lat": "38.33656394875147"
    },
    {
      "id": "pt.ine.add.PTCONT.1370589",
      "street": "R DR JULIO PEREIRA GARRIDO",
      "house": "27",
      "postcode": "7090-270",
      "city": "VIANA DO ALENTEJO",
      "lon": "-8.006438362929947",
      "lat": "38.33656394875147"
    },
    {
      "id": "pt.ine.add.PTCONT.1370590",
      "street": "R DR JULIO PEREIRA GARRIDO",
      "house": "27",
      "postcode": "7090-270",
      "city": "VIANA DO ALENTEJO",
      "lon": "-8.006438362929947",
      "lat": "38.33656394875147"
    },
    {
      "id": "pt.ine.add.PTCONT.1370591",
      "street": "R DR JULIO PEREIRA GARRIDO",
      "house": "27",
      "postcode": "7090-270",
      "city": "VIANA DO ALENTEJO",
      "lon": "-8.006438362929947",
      "lat": "38.33656394875147"
    },
    {
      "id": "pt.ine.add.PTCONT.1370592",
      "street": "R DR JULIO PEREIRA GARRIDO",
      "house": "27",
      "postcode": "7090-270",
      "city": "VIANA DO ALENTEJO",
      "lon": "-8.006438362929947",
      "lat": "38.33656394875147"
    },
    {
      "id": "pt.ine.add.PTCONT.1370593",
      "street": "R DR JULIO PEREIRA GARRIDO",
      "house": "27",
      "postcode": "7090-270",
      "city": "VIANA DO ALENTEJO",
      "lon": "-8.006438362929947",
      "lat": "38.33656394875147"
    },
    {
      "id": "pt.ine.add.PTCONT.1371157",
      "street": "R DR JULIO PEREIRA GARRIDO",
      "house": "32",
      "postcode": "7090-270",
      "city": "VIANA DO ALENTEJO",
      "lon": "-8.006936045989047",
      "lat": "38.33681906593233"
    },
    {
      "id": "pt.ine.add.PTCONT.1374352",
      "street": "R ZECA AFONSO",
      "house": "42",
      "postcode": "7090-287",
      "city": "VIANA DO ALENTEJO",
      "lon": "-8.007559223550661",
      "lat": "38.337262756381364"
    },
    {
      "id": "pt.ine.add.PTCONT.1376255",
      "street": "R DR JULIO PEREIRA GARRIDO",
      "house": "57-58",
      "postcode": "7090-270",
      "city": "VIANA DO ALENTEJO",
      "lon": "-8.007430203897375",
      "lat": "38.33684313915787"
    },
    {
      "id": "pt.ine.add.PTCONT.1376256",
      "street": "R PADRE FRANCISCO CARDIM",
      "house": "3",
      "postcode": "7090-283",
      "city": "VIANA DO ALENTEJO",
      "lon": "-8.005924860238267",
      "lat": "38.33552899847909"
    },
    {
      "id": "pt.ine.add.PTCONT.1377997",
      "street": "R ZECA AFONSO",
      "house": "44",
      "postcode": "7090-287",
      "city": "VIANA DO ALENTEJO",
      "lon": "-8.007778363788969",
      "lat": "38.33726372769403"
    },
    {
      "id": "pt.ine.add.PTCONT.1378002",
      "street": "ESTR S PEDRO",
      "house": "68",
      "postcode": "7090-223",
      "city": "VIANA DO ALENTEJO",
      "lon": "-8.008275522522649",
      "lat": "38.336894709126206"
    },
    {
      "id": "pt.ine.add.PTCONT.1378748",
      "street": "R DR JULIO PEREIRA GARRIDO",
      "house": "26",
      "postcode": "7090-270",
      "city": "VIANA DO ALENTEJO",
      "lon": "-8.006246298063147",
      "lat": "38.33644686043321"
    },
    {
      "id": "pt.ine.add.PTCONT.1380996",
      "street": "R ZECA AFONSO",
      "house": "52",
      "postcode": "7090-287",
      "city": "VIANA DO ALENTEJO",
      "lon": "-8.00736473834951",
      "lat": "38.337097942448004"
    },
    {
      "id": "pt.ine.add.PTCONT.1382522",
      "street": "R ZECA AFONSO",
      "house": "46",
      "postcode": "7090-287",
      "city": "VIANA DO ALENTEJO",
      "lon": "-8.007992183156167",
      "lat": "38.33728264019474"
    },
    {
      "id": "pt.ine.add.PTCONT.1386865",
      "street": "R ZECA AFONSO",
      "house": "",
      "postcode": "7090-287",
      "city": "VIANA DO ALENTEJO",
      "lon": "-8.007698702517153",
      "lat": "38.33711631759304"
    },
    {
      "id": "pt.ine.add.PTCONT.1388430",
      "street": "R DR JULIO PEREIRA GARRIDO",
      "house": "80",
      "postcode": "7090-270",
      "city": "VIANA DO ALENTEJO",
      "lon": "-8.008276024943221",
      "lat": "38.33628058525782"
    },
    {
      "id": "pt.ine.add.PTCONT.1389876",
      "street": "R DR JULIO PEREIRA GARRIDO",
      "house": "31",
      "postcode": "7090-270",
      "city": "VIANA DO ALENTEJO",
      "lon": "-8.00681247053369",
      "lat": "38.33677960962863"
    },
    {
      "id": "pt.ine.add.PTCONT.1392559",
      "street": "R DR JULIO PEREIRA GARRIDO",
      "house": "81",
      "postcode": "7090-270",
      "city": "VIANA DO ALENTEJO",
      "lon": "-8.008196639501312",
      "lat": "38.336378264832945"
    },
    {
      "id": "pt.ine.add.PTCONT.1393667",
      "street": "R ZECA AFONSO",
      "house": "53",
      "postcode": "7090-287",
      "city": "VIANA DO ALENTEJO",
      "lon": "-8.007238922109634",
      "lat": "38.33709780747985"
    },
    {
      "id": "pt.ine.add.PTCONT.1394941",
      "street": "R ZECA AFONSO",
      "house": "43",
      "postcode": "7090-287",
      "city": "VIANA DO ALENTEJO",
      "lon": "-8.007671682987388",
      "lat": "38.33726152090048"
    },
    {
      "id": "pt.ine.add.PTCONT.1394942",
      "street": "R ZECA AFONSO",
      "house": "51",
      "postcode": "7090-287",
      "city": "VIANA DO ALENTEJO",
      "lon": "-8.007467663352346",
      "lat": "38.33710706153084"
    },
    {
      "id": "pt.ine.add.PTCONT.1397089",
      "street": "ESTR S PEDRO",
      "house": "56",
      "postcode": "7090-223",
      "city": "VIANA DO ALENTEJO",
      "lon": "-8.008599224704009",
      "lat": "38.33668742356707"
    },
    {
      "id": "pt.ine.add.PTCONT.1398238",
      "street": "R DR JULIO PEREIRA GARRIDO",
      "house": "84",
      "postcode": "7090-270",
      "city": "VIANA DO ALENTEJO",
      "lon": "-8.008060193553245",
      "lat": "38.33655755074888"
    },
    {
      "id": "pt.ine.add.PTCONT.1398245",
      "street": "R DR JULIO PEREIRA GARRIDO",
      "house": "22",
      "postcode": "7090-270",
      "city": "VIANA DO ALENTEJO",
      "lon": "-8.00603172562643",
      "lat": "38.33570627726053"
    },
    {
      "id": "pt.ine.add.PTCONT.1399058",
      "street": "R ZECA AFONSO",
      "house": "34",
      "postcode": "7090-287",
      "city": "VIANA DO ALENTEJO",
      "lon": "-8.006612722869487",
      "lat": "38.336968420900625"
    },
    {
      "id": "pt.ine.add.PTCONT.1400566",
      "street": "R ZECA AFONSO",
      "house": "33",
      "postcode": "7090-287",
      "city": "VIANA DO ALENTEJO",
      "lon": "-8.006495563349334",
      "lat": "38.33689185414404"
    },
    {
      "id": "pt.ine.add.PTCONT.1401292",
      "street": "R DR JULIO PEREIRA GARRIDO",
      "house": "3D",
      "postcode": "7090-270",
      "city": "VIANA DO ALENTEJO",
      "lon": "-8.006734322296017",
      "lat": "38.336730533039685"
    },
    {
      "id": "pt.ine.add.PTCONT.1402906",
      "street": "ESTR S PEDRO",
      "house": "64",
      "postcode": "7090-223",
      "city": "VIANA DO ALENTEJO",
      "lon": "-8.008541866154873",
      "lat": "38.33678645914983"
    },
    {
      "id": "pt.ine.add.PTCONT.1406654",
      "street": "R ZECA AFONSO",
      "house": "46A",
      "postcode": "7090-287",
      "city": "VIANA DO ALENTEJO",
      "lon": "-8.008067478944998",
      "lat": "38.33728853836472"
    },
    {
      "id": "pt.ine.add.PTCONT.1410292",
      "street": "R DR JULIO PEREIRA GARRIDO",
      "house": "22 B",
      "postcode": "7090-270",
      "city": "VIANA DO ALENTEJO",
      "lon": "-8.006096759831035",
      "lat": "38.33571885729366"
    },
    {
      "id": "pt.ine.add.PTCONT.1410714",
      "street": "R ZECA AFONSO",
      "house": "39",
      "postcode": "7090-287",
      "city": "VIANA DO ALENTEJO",
      "lon": "-8.007214581348153",
      "lat": "38.337253051129736"
    },
    {
      "id": "pt.ine.add.PTCONT.1410715",
      "street": "R DR JULIO PEREIRA GARRIDO",
      "house": "",
      "postcode": "7090-270",
      "city": "VIANA DO ALENTEJO",
      "lon": "-8.006132299213528",
      "lat": "38.33567803288193"
    },
    {
      "id": "pt.ine.add.PTCONT.1413283",
      "street": "R ZECA AFONSO",
      "house": "",
      "postcode": "7090-287",
      "city": "VIANA DO ALENTEJO",
      "lon": "-8.007128124496555",
      "lat": "38.33707744399986"
    },
    {
      "id": "pt.ine.add.PTCONT.1418901",
      "street": "R ZECA AFONSO",
      "house": "38",
      "postcode": "7090-287",
      "city": "VIANA DO ALENTEJO",
      "lon": "-8.007098947497665",
      "lat": "38.3372241439175"
    },
    {
      "id": "pt.ine.add.PTCONT.1418902",
      "street": "ESTR S PEDRO",
      "house": "72",
      "postcode": "7090-223",
      "city": "VIANA DO ALENTEJO",
      "lon": "-8.00818388083496",
      "lat": "38.33697569048939"
    },
    {
      "id": "pt.ine.add.PTCONT.1419730",
      "street": "R DR JULIO PEREIRA GARRIDO",
      "house": "24",
      "postcode": "7090-270",
      "city": "VIANA DO ALENTEJO",
      "lon": "-8.005962756152794",
      "lat": "38.3359068332945"
    },
    {
      "id": "pt.ine.add.PTCONT.1423109",
      "street": "R DR JULIO PEREIRA GARRIDO",
      "house": "23",
      "postcode": "7090-270",
      "city": "VIANA DO ALENTEJO",
      "lon": "-8.006049723143969",
      "lat": "38.335801677148794"
    },
    {
      "id": "pt.ine.add.PTCONT.1426041",
      "street": "R DR JULIO PEREIRA GARRIDO",
      "house": "82A",
      "postcode": "7090-270",
      "city": "VIANA DO ALENTEJO",
      "lon": "-8.008104566873168",
      "lat": "38.336486049483305"
    },
    {
      "id": "pt.ine.add.PTCONT.1427608",
      "street": "R DR JULIO PEREIRA GARRIDO",
      "house": "86",
      "postcode": "7090-270",
      "city": "VIANA DO ALENTEJO",
      "lon": "-8.007836757057323",
      "lat": "38.33678446217551"
    },
    {
      "id": "pt.ine.add.PTCONT.1431307",
      "street": "ESTR S PEDRO",
      "house": "44",
      "postcode": "7090-223",
      "city": "VIANA DO ALENTEJO",
      "lon": "-8.00876155276754",
      "lat": "38.33642676931217"
    },
    {
      "id": "pt.ine.add.PTCONT.1432088",
      "street": "R DR JULIO PEREIRA GARRIDO",
      "house": "",
      "postcode": "7090-270",
      "city": "VIANA DO ALENTEJO",
      "lon": "-8.007960701428864",
      "lat": "38.33664768098841"
    },
    {
      "id": "pt.ine.add.PTCONT.1437181",
      "street": "R ZECA AFONSO",
      "house": "28",
      "postcode": "7090-287",
      "city": "VIANA DO ALENTEJO",
      "lon": "-8.00631217288238",
      "lat": "38.336707952738784"
    },
    {
      "id": "pt.ine.add.PTCONT.1438201",
      "street": "R ZECA AFONSO",
      "house": "47",
      "postcode": "7090-287",
      "city": "VIANA DO ALENTEJO",
      "lon": "-8.0079365643435",
      "lat": "38.33713692432732"
    },
    {
      "id": "pt.ine.add.PTCONT.1438918",
      "street": "R ZECA AFONSO",
      "house": "",
      "postcode": "7090-287",
      "city": "VIANA DO ALENTEJO",
      "lon": "-8.007550026105429",
      "lat": "38.3371071497393"
    },
    {
      "id": "pt.ine.add.PTCONT.1439623",
      "street": "R DR JULIO PEREIRA GARRIDO",
      "house": "29",
      "postcode": "7090-270",
      "city": "VIANA DO ALENTEJO",
      "lon": "-8.006651372185734",
      "lat": "38.336684971848776"
    },
    {
      "id": "pt.ine.add.PTCONT.1440421",
      "street": "R ZECA AFONSO",
      "house": "36",
      "postcode": "7090-287",
      "city": "VIANA DO ALENTEJO",
      "lon": "-8.006840840738937",
      "lat": "38.33710986480899"
    },
    {
      "id": "pt.ine.add.PTCONT.1441914",
      "street": "R DR JULIO PEREIRA GARRIDO",
      "house": "78",
      "postcode": "7090-270",
      "city": "VIANA DO ALENTEJO",
      "lon": "-8.008425872643963",
      "lat": "38.3360992368082"
    },
    {
      "id": "pt.ine.add.PTCONT.1443453",
      "street": "ESTR S PEDRO",
      "house": "34",
      "postcode": "7090-223",
      "city": "VIANA DO ALENTEJO",
      "lon": "-8.008952090938632",
      "lat": "38.33616736807987"
    },
    {
      "id": "pt.ine.add.PTCONT.1444202",
      "street": "R DR JULIO PEREIRA GARRIDO",
      "house": "25",
      "postcode": "7090-270",
      "city": "VIANA DO ALENTEJO",
      "lon": "-8.005983958485187",
      "lat": "38.33606506564833"
    },
    {
      "id": "pt.ine.add.PTCONT.1445670",
      "street": "R LINDINHA",
      "house": "97",
      "postcode": "7090-245",
      "city": "VIANA DO ALENTEJO",
      "lon": "-8.00871323083501",
      "lat": "38.33600715699158"
    },
    {
      "id": "pt.ine.add.PTCONT.1445671",
      "street": "R LINDINHA",
      "house": "97",
      "postcode": "7090-245",
      "city": "VIANA DO ALENTEJO",
      "lon": "-8.00871323083501",
      "lat": "38.33600715699158"
    },
    {
      "id": "pt.ine.add.PTCONT.1446571",
      "street": "R DR JULIO PEREIRA GARRIDO",
      "house": "55",
      "postcode": "7090-270",
      "city": "VIANA DO ALENTEJO",
      "lon": "-8.007200826871435",
      "lat": "38.33681576951294"
    },
    {
      "id": "pt.ine.add.PTCONT.1448106",
      "street": "R LINDINHA",
      "house": "96",
      "postcode": "7090-245",
      "city": "VIANA DO ALENTEJO",
      "lon": "-8.008841508424757",
      "lat": "38.33605509894075"
    },
    {
      "id": "pt.ine.add.PTCONT.1449020",
      "street": "ESTR S PEDRO",
      "house": "42",
      "postcode": "7090-223",
      "city": "VIANA DO ALENTEJO",
      "lon": "-8.008820617068995",
      "lat": "38.33635528695283"
    },
    {
      "id": "pt.ine.add.PTCONT.1450055",
      "street": "R DR JULIO PEREIRA GARRIDO",
      "house": "98",
      "postcode": "7090-270",
      "city": "VIANA DO ALENTEJO",
      "lon": "-8.008551918505493",
      "lat": "38.33596423914832"
    },
    {
      "id": "pt.ine.add.PTCONT.1452752",
      "street": "R DR JULIO PEREIRA GARRIDO",
      "house": "82",
      "postcode": "7090-270",
      "city": "VIANA DO ALENTEJO",
      "lon": "-8.008134799047484",
      "lat": "38.33642752738515"
    },
    {
      "id": "pt.ine.add.PTCONT.1454007",
      "street": "R ZECA AFONSO",
      "house": "44A",
      "postcode": "7090-287",
      "city": "VIANA DO ALENTEJO",
      "lon": "-8.007811272773445",
      "lat": "38.33733086559136"
    },
    {
      "id": "pt.ine.add.PTCONT.1454008",
      "street": "R ZECA AFONSO",
      "house": "",
      "postcode": "7090-287",
      "city": "VIANA DO ALENTEJO",
      "lon": "-8.007811272773445",
      "lat": "38.33733086559136"
    },
    {
      "id": "pt.ine.add.PTCONT.1454956",
      "street": "BC S SEBASTIÃO",
      "house": "",
      "postcode": "7090-252",
      "city": "VIANA DO ALENTEJO",
      "lon": "-8.005773355105884",
      "lat": "38.33551081653135"
    },
    {
      "id": "pt.ine.add.PTCONT.1455683",
      "street": "R ZECA AFONSO",
      "house": "45",
      "postcode": "7090-287",
      "city": "VIANA DO ALENTEJO",
      "lon": "-8.007895955143768",
      "lat": "38.3372865680181"
    },
    {
      "id": "pt.ine.add.PTCONT.1455684",
      "street": "R DR JULIO PEREIRA GARRIDO",
      "house": "79",
      "postcode": "7090-270",
      "city": "VIANA DO ALENTEJO",
      "lon": "-8.008333682058804",
      "lat": "38.336216182539765"
    },
    {
      "id": "pt.ine.add.PTCONT.1458030",
      "street": "R ZECA AFONSO",
      "house": "",
      "postcode": "7090-287",
      "city": "VIANA DO ALENTEJO",
      "lon": "-8.007330998335092",
      "lat": "38.33724847796974"
    },
    {
      "id": "pt.ine.add.PTCONT.1458440",
      "street": "R ZECA AFONSO",
      "house": "37",
      "postcode": "7090-287",
      "city": "VIANA DO ALENTEJO",
      "lon": "-8.006924260791557",
      "lat": "38.33716113792961"
    },
    {
      "id": "pt.ine.add.PTCONT.1462385",
      "street": "ESTR S PEDRO",
      "house": "54",
      "postcode": "7090-223",
      "city": "VIANA DO ALENTEJO",
      "lon": "-8.008648026744174",
      "lat": "38.33663638031549"
    },
    {
      "id": "pt.ine.add.PTCONT.1464919",
      "street": "R ZECA AFONSO",
      "house": "35",
      "postcode": "7090-287",
      "city": "VIANA DO ALENTEJO",
      "lon": "-8.006718083149629",
      "lat": "38.33703917587749"
    }
  ]
}