{
  "data": {
    "distrito": "Lisboa",
    "concelho": "Sintra",
    "freguesia": "Algueirão-Mem Martins",
    "OBJECTID": 1701,
    "BGRI2021": "11110202203",
    "DT21": "11",
    "DTMN21": "1111",
    "DTMNFR21": "111102",
    "DTMNFRSEC21": "111102022",
    "SECNUM21": "022",
    "SSNUM21": "03",
    "SECSSNUM21": "02203",
    "OBJECTID_1": 113966,
    "DT": "11",
    "CC": "11",
    "fr": "02",
    "SEC": "022",
    "SS": "03"
  },
  "addresses": [
    {
      "id": "pt.ine.add.PTCONT.2353671",
      "street": "PCT RAUL REGO",
      "house": "1",
      "postcode": "2725-647",
      "city": "MEM MARTINS",
      "lon": "-9.328771025607017",
      "lat": "38.796936079219655"
    },
    {
      "id": "pt.ine.add.PTCONT.2353666",
      "street": "PCT RAUL REGO",
      "house": "1",
      "postcode": "2725-647",
      "city": "MEM MARTINS",
      "lon": "-9.328771025607017",
      "lat": "38.796936079219655"
    },
    {
      "id": "pt.ine.add.PTCONT.2353667",
      "street": "PCT RAUL REGO",
      "house": "1",
      "postcode": "2725-647",
      "city": "MEM MARTINS",
      "lon": "-9.328771025607017",
      "lat": "38.796936079219655"
    },
    {
      "id": "pt.ine.add.PTCONT.2353668",
      "street": "PCT RAUL REGO",
      "house": "1",
      "postcode": "2725-647",
      "city": "MEM MARTINS",
      "lon": "-9.328771025607017",
      "lat": "38.796936079219655"
    },
    {
      "id": "pt.ine.add.PTCONT.2353669",
      "street": "PCT RAUL REGO",
      "house": "1",
      "postcode": "2725-647",
      "city": "MEM MARTINS",
      "lon": "-9.328771025607017",
      "lat": "38.796936079219655"
    },
    {
      "id": "pt.ine.add.PTCONT.2353670",
      "street": "PCT RAUL REGO",
      "house": "1",
      "postcode": "2725-647",
      "city": "MEM MARTINS",
      "lon": "-9.328771025607017",
      "lat": "38.796936079219655"
    },
    {
      "id": "pt.ine.add.PTCONT.2353672",
      "street": "PCT RAUL REGO",
      "house": "1",
      "postcode": "2725-647",
      "city": "MEM MARTINS",
      "lon": "-9.328771025607017",
      "lat": "38.796936079219655"
    },
    {
      "id": "pt.ine.add.PTCONT.2353673",
      "street": "PCT RAUL REGO",
      "house": "1",
      "postcode": "2725-647",
      "city": "MEM MARTINS",
      "lon": "-9.328771025607017",
      "lat": "38.796936079219655"
    },
    {
      "id": "pt.ine.add.PTCONT.2353674",
      "street": "PCT RAUL REGO",
      "house": "1",
      "postcode": "2725-647",
      "city": "MEM MARTINS",
      "lon": "-9.328771025607017",
      "lat": "38.796936079219655"
    },
    {
      "id": "pt.ine.add.PTCONT.2353675",
      "street": "PCT RAUL REGO",
      "house": "1",
      "postcode": "2725-647",
      "city": "MEM MARTINS",
      "lon": "-9.328771025607017",
      "lat": "38.796936079219655"
    },
    {
      "id": "pt.ine.add.PTCONT.2353676",
      "street": "PCT RAUL REGO",
      "house": "1",
      "postcode": "2725-647",
      "city": "MEM MARTINS",
      "lon": "-9.328771025607017",
      "lat": "38.796936079219655"
    },
    {
      "id": "pt.ine.add.PTCONT.2353677",
      "street": "PCT RAUL REGO",
      "house": "1",
      "postcode": "2725-647",
      "city": "MEM MARTINS",
      "lon": "-9.328771025607017",
      "lat": "38.796936079219655"
    },
    {
      "id": "pt.ine.add.PTCONT.2353678",
      "street": "PCT RAUL REGO",
      "house": "1",
      "postcode": "2725-647",
      "city": "MEM MARTINS",
      "lon": "-9.328771025607017",
      "lat": "38.796936079219655"
    },
    {
      "id": "pt.ine.add.PTCONT.2353679",
      "street": "PCT RAUL REGO",
      "house": "1",
      "postcode": "2725-647",
      "city": "MEM MARTINS",
      "lon": "-9.328771025607017",
      "lat": "38.796936079219655"
    },
    {
      "id": "pt.ine.add.PTCONT.2353680",
      "street": "PCT RAUL REGO",
      "house": "1",
      "postcode": "2725-647",
      "city": "MEM MARTINS",
      "lon": "-9.328771025607017",
      "lat": "38.796936079219655"
    },
    {
      "id": "pt.ine.add.PTCONT.2353681",
      "street": "PCT RAUL REGO",
      "house": "1",
      "postcode": "2725-647",
      "city": "MEM MARTINS",
      "lon": "-9.328771025607017",
      "lat": "38.796936079219655"
    },
    {
      "id": "pt.ine.add.PTCONT.2353682",
      "street": "PCT RAUL REGO",
      "house": "1",
      "postcode": "2725-647",
      "city": "MEM MARTINS",
      "lon": "-9.328771025607017",
      "lat": "38.796936079219655"
    },
    {
      "id": "pt.ine.add.PTCONT.2353683",
      "street": "PCT RAUL REGO",
      "house": "1",
      "postcode": "2725-647",
      "city": "MEM MARTINS",
      "lon": "-9.328771025607017",
      "lat": "38.796936079219655"
    },
    {
      "id": "pt.ine.add.PTCONT.2353684",
      "street": "PCT RAUL REGO",
      "house": "1",
      "postcode": "2725-647",
      "city": "MEM MARTINS",
      "lon": "-9.328771025607017",
      "lat": "38.796936079219655"
    },
    {
      "id": "pt.ine.add.PTCONT.2353685",
      "street": "PCT RAUL REGO",
      "house": "1",
      "postcode": "2725-647",
      "city": "MEM MARTINS",
      "lon": "-9.328771025607017",
      "lat": "38.796936079219655"
    },
    {
      "id": "pt.ine.add.PTCONT.2353686",
      "street": "PCT RAUL REGO",
      "house": "1",
      "postcode": "2725-647",
      "city": "MEM MARTINS",
      "lon": "-9.328771025607017",
      "lat": "38.796936079219655"
    },
    {
      "id": "pt.ine.add.PTCONT.2353687",
      "street": "PCT RAUL REGO",
      "house": "1",
      "postcode": "2725-647",
      "city": "MEM MARTINS",
      "lon": "-9.328771025607017",
      "lat": "38.796936079219655"
    },
    {
      "id": "pt.ine.add.PTCONT.2353688",
      "street": "PCT RAUL REGO",
      "house": "1",
      "postcode": "2725-647",
      "city": "MEM MARTINS",
      "lon": "-9.328771025607017",
      "lat": "38.796936079219655"
    },
    {
      "id": "pt.ine.add.PTCONT.2353689",
      "street": "PCT RAUL REGO",
      "house": "1",
      "postcode": "2725-647",
      "city": "MEM MARTINS",
      "lon": "-9.328771025607017",
      "lat": "38.796936079219655"
    },
    {
      "id": "pt.ine.add.PTCONT.2353690",
      "street": "PCT RAUL REGO",
      "house": "1",
      "postcode": "2725-647",
      "city": "MEM MARTINS",
      "lon": "-9.328771025607017",
      "lat": "38.796936079219655"
    },
    {
      "id": "pt.ine.add.PTCONT.2353691",
      "street": "PCT RAUL REGO",
      "house": "1",
      "postcode": "2725-647",
      "city": "MEM MARTINS",
      "lon": "-9.328771025607017",
      "lat": "38.796936079219655"
    },
    {
      "id": "pt.ine.add.PTCONT.2353692",
      "street": "PCT RAUL REGO",
      "house": "1",
      "postcode": "2725-647",
      "city": "MEM MARTINS",
      "lon": "-9.328771025607017",
      "lat": "38.796936079219655"
    },
    {
      "id": "pt.ine.add.PTCONT.2353693",
      "street": "PCT RAUL REGO",
      "house": "1",
      "postcode": "2725-647",
      "city": "MEM MARTINS",
      "lon": "-9.328771025607017",
      "lat": "38.796936079219655"
    },
    {
      "id": "pt.ine.add.PTCONT.2353694",
      "street": "PCT RAUL REGO",
      "house": "1",
      "postcode": "2725-647",
      "city": "MEM MARTINS",
      "lon": "-9.328771025607017",
      "lat": "38.796936079219655"
    },
    {
      "id": "pt.ine.add.PTCONT.2353695",
      "street": "R FRANCISCO SALGADO ZENHA",
      "house": "1",
      "postcode": "2725-546",
      "city": "MEM MARTINS",
      "lon": "-9.328771025607017",
      "lat": "38.796936079219655"
    },
    {
      "id": "pt.ine.add.PTCONT.2353696",
      "street": "PCT RAUL REGO",
      "house": "1",
      "postcode": "2725-647",
      "city": "MEM MARTINS",
      "lon": "-9.328771025607017",
      "lat": "38.796936079219655"
    },
    {
      "id": "pt.ine.add.PTCONT.2356412",
      "street": "PCT RAUL REGO",
      "house": "1",
      "postcode": "2725-647",
      "city": "MEM MARTINS",
      "lon": "-9.328771025607017",
      "lat": "38.796936079219655"
    },
    {
      "id": "pt.ine.add.PTCONT.2356727",
      "street": "PCT RAUL REGO",
      "house": "1",
      "postcode": "2725-647",
      "city": "MEM MARTINS",
      "lon": "-9.328771025607017",
      "lat": "38.796936079219655"
    },
    {
      "id": "pt.ine.add.PTCONT.2696396",
      "street": "PCT RAUL REGO",
      "house": "40",
      "postcode": "2725-647",
      "city": "MEM MARTINS",
      "lon": "-9.328946813767146",
      "lat": "38.79712344057611"
    },
    {
      "id": "pt.ine.add.PTCONT.2696397",
      "street": "R FRANCISCO SALGADO ZENHA",
      "house": "40",
      "postcode": "2725-546",
      "city": "MEM MARTINS",
      "lon": "-9.328946813767146",
      "lat": "38.79712344057611"
    },
    {
      "id": "pt.ine.add.PTCONT.2696398",
      "street": "PCT RAUL REGO",
      "house": "2",
      "postcode": "2725-647",
      "city": "MEM MARTINS",
      "lon": "-9.328946813767146",
      "lat": "38.79712344057611"
    },
    {
      "id": "pt.ine.add.PTCONT.2696399",
      "street": "PCT RAUL REGO",
      "house": "40",
      "postcode": "2725-647",
      "city": "MEM MARTINS",
      "lon": "-9.328946813767146",
      "lat": "38.79712344057611"
    },
    {
      "id": "pt.ine.add.PTCONT.2696400",
      "street": "PCT RAUL REGO",
      "house": "40",
      "postcode": "2725-647",
      "city": "MEM MARTINS",
      "lon": "-9.328946813767146",
      "lat": "38.79712344057611"
    },
    {
      "id": "pt.ine.add.PTCONT.2696401",
      "street": "PCT RAUL REGO",
      "house": "2",
      "postcode": "2725-647",
      "city": "MEM MARTINS",
      "lon": "-9.328946813767146",
      "lat": "38.79712344057611"
    },
    {
      "id": "pt.ine.add.PTCONT.2696402",
      "street": "PCT RAUL REGO",
      "house": "40",
      "postcode": "2725-647",
      "city": "MEM MARTINS",
      "lon": "-9.328946813767146",
      "lat": "38.79712344057611"
    },
    {
      "id": "pt.ine.add.PTCONT.2696403",
      "street": "PCT RAUL REGO",
      "house": "40",
      "postcode": "2725-647",
      "city": "MEM MARTINS",
      "lon": "-9.328946813767146",
      "lat": "38.79712344057611"
    },
    {
      "id": "pt.ine.add.PTCONT.2696404",
      "street": "PCT RAUL REGO",
      "house": "2",
      "postcode": "2725-647",
      "city": "MEM MARTINS",
      "lon": "-9.328946813767146",
      "lat": "38.79712344057611"
    },
    {
      "id": "pt.ine.add.PTCONT.2696405",
      "street": "PCT RAUL REGO",
      "house": "40",
      "postcode": "2725-647",
      "city": "MEM MARTINS",
      "lon": "-9.328946813767146",
      "lat": "38.79712344057611"
    },
    {
      "id": "pt.ine.add.PTCONT.2696406",
      "street": "PCT RAUL REGO",
      "house": "2",
      "postcode": "2725-647",
      "city": "MEM MARTINS",
      "lon": "-9.328946813767146",
      "lat": "38.79712344057611"
    },
    {
      "id": "pt.ine.add.PTCONT.2696407",
      "street": "PCT RAUL REGO",
      "house": "40",
      "postcode": "2725-647",
      "city": "MEM MARTINS",
      "lon": "-9.328946813767146",
      "lat": "38.79712344057611"
    },
    {
      "id": "pt.ine.add.PTCONT.2696408",
      "street": "PCT RAUL REGO",
      "house": "40",
      "postcode": "2725-647",
      "city": "MEM MARTINS",
      "lon": "-9.328946813767146",
      "lat": "38.79712344057611"
    },
    {
      "id": "pt.ine.add.PTCONT.2696409",
      "street": "PCT RAUL REGO",
      "house": "2",
      "postcode": "2725-647",
      "city": "MEM MARTINS",
      "lon": "-9.328946813767146",
      "lat": "38.79712344057611"
    },
    {
      "id": "pt.ine.add.PTCONT.2696410",
      "street": "PCT RAUL REGO",
      "house": "2",
      "postcode": "2725-647",
      "city": "MEM MARTINS",
      "lon": "-9.328946813767146",
      "lat": "38.79712344057611"
    },
    {
      "id": "pt.ine.add.PTCONT.2696617",
      "street": "PCT RAUL REGO",
      "house": "40",
      "postcode": "2725-647",
      "city": "MEM MARTINS",
      "lon": "-9.328946813767146",
      "lat": "38.79712344057611"
    },
    {
      "id": "pt.ine.add.PTCONT.2696618",
      "street": "PCT RAUL REGO",
      "house": "40",
      "postcode": "2725-647",
      "city": "MEM MARTINS",
      "lon": "-9.328946813767146",
      "lat": "38.79712344057611"
    },
    {
      "id": "pt.ine.add.PTCONT.2696619",
      "street": "PCT RAUL REGO",
      "house": "2",
      "postcode": "2725-647",
      "city": "MEM MARTINS",
      "lon": "-9.328946813767146",
      "lat": "38.79712344057611"
    },
    {
      "id": "pt.ine.add.PTCONT.2696620",
      "street": "PCT RAUL REGO",
      "house": "40",
      "postcode": "2725-647",
      "city": "MEM MARTINS",
      "lon": "-9.328946813767146",
      "lat": "38.79712344057611"
    },
    {
      "id": "pt.ine.add.PTCONT.2696621",
      "street": "PCT RAUL REGO",
      "house": "40",
      "postcode": "2725-647",
      "city": "MEM MARTINS",
      "lon": "-9.328946813767146",
      "lat": "38.79712344057611"
    },
    {
      "id": "pt.ine.add.PTCONT.2696622",
      "street": "PCT RAUL REGO",
      "house": "40",
      "postcode": "2725-647",
      "city": "MEM MARTINS",
      "lon": "-9.328946813767146",
      "lat": "38.79712344057611"
    },
    {
      "id": "pt.ine.add.PTCONT.2696623",
      "street": "PCT RAUL REGO",
      "house": "2",
      "postcode": "2725-647",
      "city": "MEM MARTINS",
      "lon": "-9.328946813767146",
      "lat": "38.79712344057611"
    },
    {
      "id": "pt.ine.add.PTCONT.2696624",
      "street": "PCT RAUL REGO",
      "house": "2",
      "postcode": "2725-647",
      "city": "MEM MARTINS",
      "lon": "-9.328946813767146",
      "lat": "38.79712344057611"
    },
    {
      "id": "pt.ine.add.PTCONT.2696782",
      "street": "PCT RAUL REGO",
      "house": "2",
      "postcode": "2725-647",
      "city": "MEM MARTINS",
      "lon": "-9.328946813767146",
      "lat": "38.79712344057611"
    },
    {
      "id": "pt.ine.add.PTCONT.2696783",
      "street": "PCT RAUL REGO",
      "house": "2",
      "postcode": "2725-647",
      "city": "MEM MARTINS",
      "lon": "-9.328946813767146",
      "lat": "38.79712344057611"
    },
    {
      "id": "pt.ine.add.PTCONT.2698883",
      "street": "PCT RAUL REGO",
      "house": "40",
      "postcode": "2725-647",
      "city": "MEM MARTINS",
      "lon": "-9.328946813767146",
      "lat": "38.79712344057611"
    },
    {
      "id": "pt.ine.add.PTCONT.2698957",
      "street": "PCT RAUL REGO",
      "house": "40",
      "postcode": "2725-647",
      "city": "MEM MARTINS",
      "lon": "-9.328946813767146",
      "lat": "38.79712344057611"
    },
    {
      "id": "pt.ine.add.PTCONT.2699143",
      "street": "PCT RAUL REGO",
      "house": "40",
      "postcode": "2725-647",
      "city": "MEM MARTINS",
      "lon": "-9.328946813767146",
      "lat": "38.79712344057611"
    },
    {
      "id": "pt.ine.add.PTCONT.2699333",
      "street": "PCT RAUL REGO",
      "house": "2",
      "postcode": "2725-647",
      "city": "MEM MARTINS",
      "lon": "-9.328946813767146",
      "lat": "38.79712344057611"
    },
    {
      "id": "pt.ine.add.PTCONT.2699334",
      "street": "PCT RAUL REGO",
      "house": "N 40",
      "postcode": "2725-647",
      "city": "MEM MARTINS",
      "lon": "-9.328946813767146",
      "lat": "38.79712344057611"
    },
    {
      "id": "pt.ine.add.PTCONT.2699335",
      "street": "PCT RAUL REGO",
      "house": "40",
      "postcode": "2725-647",
      "city": "MEM MARTINS",
      "lon": "-9.328946813767146",
      "lat": "38.79712344057611"
    },
    {
      "id": "pt.ine.add.PTCONT.2699336",
      "street": "PCT RAUL REGO",
      "house": "40",
      "postcode": "2725-647",
      "city": "MEM MARTINS",
      "lon": "-9.328946813767146",
      "lat": "38.79712344057611"
    },
    {
      "id": "pt.ine.add.PTCONT.2699337",
      "street": "PCT RAUL REGO",
      "house": "40",
      "postcode": "2725-647",
      "city": "MEM MARTINS",
      "lon": "-9.328946813767146",
      "lat": "38.79712344057611"
    },
    {
      "id": "pt.ine.add.PTCONT.2699338",
      "street": "PCT RAUL REGO",
      "house": "40",
      "postcode": "2725-647",
      "city": "MEM MARTINS",
      "lon": "-9.328946813767146",
      "lat": "38.79712344057611"
    },
    {
      "id": "pt.ine.add.PTCONT.2699339",
      "street": "PCT RAUL REGO",
      "house": "40",
      "postcode": "2725-647",
      "city": "MEM MARTINS",
      "lon": "-9.328946813767146",
      "lat": "38.79712344057611"
    },
    {
      "id": "pt.ine.add.PTCONT.3151846",
      "street": "PCT RAÚL REGO",
      "house": "6",
      "postcode": "2725-647",
      "city": "MEM MARTINS",
      "lon": "-9.328715519056187",
      "lat": "38.79774733486435"
    },
    {
      "id": "pt.ine.add.PTCONT.3151847",
      "street": "PCT RAÚL REGO",
      "house": "6",
      "postcode": "2725-647",
      "city": "MEM MARTINS",
      "lon": "-9.328715519056187",
      "lat": "38.79774733486435"
    },
    {
      "id": "pt.ine.add.PTCONT.3151848",
      "street": "PCT RAÚL REGO",
      "house": "6",
      "postcode": "2725-647",
      "city": "MEM MARTINS",
      "lon": "-9.328715519056187",
      "lat": "38.79774733486435"
    },
    {
      "id": "pt.ine.add.PTCONT.3151849",
      "street": "PCT RAÚL REGO",
      "house": "6",
      "postcode": "2725-647",
      "city": "MEM MARTINS",
      "lon": "-9.328715519056187",
      "lat": "38.79774733486435"
    },
    {
      "id": "pt.ine.add.PTCONT.3151850",
      "street": "PCT RAÚL REGO",
      "house": "6",
      "postcode": "2725-647",
      "city": "MEM MARTINS",
      "lon": "-9.328715519056187",
      "lat": "38.79774733486435"
    },
    {
      "id": "pt.ine.add.PTCONT.3151851",
      "street": "PCT RAÚL REGO",
      "house": "6",
      "postcode": "2725-647",
      "city": "MEM MARTINS",
      "lon": "-9.328715519056187",
      "lat": "38.79774733486435"
    },
    {
      "id": "pt.ine.add.PTCONT.3151852",
      "street": "PCT RAÚL REGO",
      "house": "6",
      "postcode": "2725-647",
      "city": "MEM MARTINS",
      "lon": "-9.328715519056187",
      "lat": "38.79774733486435"
    },
    {
      "id": "pt.ine.add.PTCONT.3151853",
      "street": "PCT RAÚL REGO",
      "house": "6",
      "postcode": "2725-647",
      "city": "MEM MARTINS",
      "lon": "-9.328715519056187",
      "lat": "38.79774733486435"
    },
    {
      "id": "pt.ine.add.PTCONT.3151854",
      "street": "AV EMB ARISTIDES SOUSA MENDES",
      "house": "18",
      "postcode": "2725-538",
      "city": "MEM MARTINS",
      "lon": "-9.328715519056187",
      "lat": "38.79774733486435"
    },
    {
      "id": "pt.ine.add.PTCONT.3151855",
      "street": "AV EMB ARÍSTIDES SOUSA MENDES",
      "house": "65",
      "postcode": "2725-538",
      "city": "MEM MARTINS",
      "lon": "-9.328715519056187",
      "lat": "38.79774733486435"
    },
    {
      "id": "pt.ine.add.PTCONT.3151856",
      "street": "PCT RAÚL REGO",
      "house": "6",
      "postcode": "2725-647",
      "city": "MEM MARTINS",
      "lon": "-9.328715519056187",
      "lat": "38.79774733486435"
    },
    {
      "id": "pt.ine.add.PTCONT.3151857",
      "street": "PCT RAÚL REGO",
      "house": "6",
      "postcode": "2725-647",
      "city": "MEM MARTINS",
      "lon": "-9.328715519056187",
      "lat": "38.79774733486435"
    },
    {
      "id": "pt.ine.add.PTCONT.3152065",
      "street": "PCT RAÚL REGO",
      "house": "6",
      "postcode": "2725-647",
      "city": "MEM MARTINS",
      "lon": "-9.328715519056187",
      "lat": "38.79774733486435"
    },
    {
      "id": "pt.ine.add.PTCONT.3152066",
      "street": "PCT RAÚL REGO",
      "house": "6",
      "postcode": "2725-647",
      "city": "MEM MARTINS",
      "lon": "-9.328715519056187",
      "lat": "38.79774733486435"
    },
    {
      "id": "pt.ine.add.PTCONT.3152067",
      "street": "PCT RAÚL REGO",
      "house": "6",
      "postcode": "2725-647",
      "city": "MEM MARTINS",
      "lon": "-9.328715519056187",
      "lat": "38.79774733486435"
    },
    {
      "id": "pt.ine.add.PTCONT.3152068",
      "street": "PCT RAÚL REGO",
      "house": "6",
      "postcode": "2725-647",
      "city": "MEM MARTINS",
      "lon": "-9.328715519056187",
      "lat": "38.79774733486435"
    },
    {
      "id": "pt.ine.add.PTCONT.3152069",
      "street": "PCT RAÚL REGO",
      "house": "6",
      "postcode": "2725-647",
      "city": "MEM MARTINS",
      "lon": "-9.328715519056187",
      "lat": "38.79774733486435"
    },
    {
      "id": "pt.ine.add.PTCONT.3152070",
      "street": "PCT RAÚL REGO",
      "house": "6",
      "postcode": "2725-647",
      "city": "MEM MARTINS",
      "lon": "-9.328715519056187",
      "lat": "38.79774733486435"
    },
    {
      "id": "pt.ine.add.PTCONT.3152071",
      "street": "PCT RAÚL REGO",
      "house": "6",
      "postcode": "2725-647",
      "city": "MEM MARTINS",
      "lon": "-9.328715519056187",
      "lat": "38.79774733486435"
    },
    {
      "id": "pt.ine.add.PTCONT.3152072",
      "street": "PCT RAÚL REGO",
      "house": "6",
      "postcode": "2725-647",
      "city": "MEM MARTINS",
      "lon": "-9.328715519056187",
      "lat": "38.79774733486435"
    },
    {
      "id": "pt.ine.add.PTCONT.3152073",
      "street": "PCT RAÚL REGO",
      "house": "6",
      "postcode": "2725-647",
      "city": "MEM MARTINS",
      "lon": "-9.328715519056187",
      "lat": "38.79774733486435"
    },
    {
      "id": "pt.ine.add.PTCONT.3152074",
      "street": "PCT RAÚL REGO",
      "house": "6",
      "postcode": "2725-647",
      "city": "MEM MARTINS",
      "lon": "-9.328715519056187",
      "lat": "38.79774733486435"
    },
    {
      "id": "pt.ine.add.PTCONT.3152075",
      "street": "PCT RAÚL REGO",
      "house": "6",
      "postcode": "2725-647",
      "city": "MEM MARTINS",
      "lon": "-9.328715519056187",
      "lat": "38.79774733486435"
    },
    {
      "id": "pt.ine.add.PTCONT.3152076",
      "street": "PCT RAÚL REGO",
      "house": "6",
      "postcode": "2725-647",
      "city": "MEM MARTINS",
      "lon": "-9.328715519056187",
      "lat": "38.79774733486435"
    },
    {
      "id": "pt.ine.add.PTCONT.3152273",
      "street": "PCT RAÚL REGO",
      "house": "6",
      "postcode": "2725-647",
      "city": "MEM MARTINS",
      "lon": "-9.328715519056187",
      "lat": "38.79774733486435"
    },
    {
      "id": "pt.ine.add.PTCONT.3152274",
      "street": "PCT RAÚL REGO",
      "house": "6",
      "postcode": "2725-647",
      "city": "MEM MARTINS",
      "lon": "-9.328715519056187",
      "lat": "38.79774733486435"
    },
    {
      "id": "pt.ine.add.PTCONT.3152275",
      "street": "PCT RAÚL REGO",
      "house": "6",
      "postcode": "2725-647",
      "city": "MEM MARTINS",
      "lon": "-9.328715519056187",
      "lat": "38.79774733486435"
    },
    {
      "id": "pt.ine.add.PTCONT.3152276",
      "street": "PCT RAÚL REGO",
      "house": "6",
      "postcode": "2725-647",
      "city": "MEM MARTINS",
      "lon": "-9.328715519056187",
      "lat": "38.79774733486435"
    },
    {
      "id": "pt.ine.add.PTCONT.3152277",
      "street": "PCT RAÚL REGO",
      "house": "6",
      "postcode": "2725-647",
      "city": "MEM MARTINS",
      "lon": "-9.328715519056187",
      "lat": "38.79774733486435"
    },
    {
      "id": "pt.ine.add.PTCONT.3152278",
      "street": "PCT RAÚL REGO",
      "house": "6",
      "postcode": "2725-647",
      "city": "MEM MARTINS",
      "lon": "-9.328715519056187",
      "lat": "38.79774733486435"
    },
    {
      "id": "pt.ine.add.PTCONT.3152279",
      "street": "PCT RAÚL REGO",
      "house": "6",
      "postcode": "2725-647",
      "city": "MEM MARTINS",
      "lon": "-9.328715519056187",
      "lat": "38.79774733486435"
    },
    {
      "id": "pt.ine.add.PTCONT.3152280",
      "street": "PCT RAÚL REGO",
      "house": "6",
      "postcode": "2725-647",
      "city": "MEM MARTINS",
      "lon": "-9.328715519056187",
      "lat": "38.79774733486435"
    },
    {
      "id": "pt.ine.add.PTCONT.3152281",
      "street": "AV EMB ARISTIDES SOUSA MENDES",
      "house": "6",
      "postcode": "2725-537",
      "city": "MEM MARTINS",
      "lon": "-9.328715519056187",
      "lat": "38.79774733486435"
    },
    {
      "id": "pt.ine.add.PTCONT.3152282",
      "street": "PCT RAÚL REGO",
      "house": "6",
      "postcode": "2725-647",
      "city": "MEM MARTINS",
      "lon": "-9.328715519056187",
      "lat": "38.79774733486435"
    },
    {
      "id": "pt.ine.add.PTCONT.3152283",
      "street": "PCT RAÚL REGO",
      "house": "6",
      "postcode": "2725-647",
      "city": "MEM MARTINS",
      "lon": "-9.328715519056187",
      "lat": "38.79774733486435"
    },
    {
      "id": "pt.ine.add.PTCONT.3152284",
      "street": "PCT RAÚL REGO",
      "house": "6",
      "postcode": "2725-647",
      "city": "MEM MARTINS",
      "lon": "-9.328715519056187",
      "lat": "38.79774733486435"
    },
    {
      "id": "pt.ine.add.PTCONT.3152285",
      "street": "PCT RAÚL REGO",
      "house": "6",
      "postcode": "2725-647",
      "city": "MEM MARTINS",
      "lon": "-9.328715519056187",
      "lat": "38.79774733486435"
    },
    {
      "id": "pt.ine.add.PTCONT.3152411",
      "street": "PCT RAÚL REGO",
      "house": "6",
      "postcode": "2725-647",
      "city": "MEM MARTINS",
      "lon": "-9.328715519056187",
      "lat": "38.79774733486435"
    },
    {
      "id": "pt.ine.add.PTCONT.3152412",
      "street": "PCT RAÚL REGO",
      "house": "6",
      "postcode": "2725-647",
      "city": "MEM MARTINS",
      "lon": "-9.328715519056187",
      "lat": "38.79774733486435"
    },
    {
      "id": "pt.ine.add.PTCONT.3152413",
      "street": "PCT RAÚL REGO",
      "house": "6",
      "postcode": "2725-647",
      "city": "MEM MARTINS",
      "lon": "-9.328715519056187",
      "lat": "38.79774733486435"
    },
    {
      "id": "pt.ine.add.PTCONT.3152414",
      "street": "PCT RAÚL REGO",
      "house": "6",
      "postcode": "2725-647",
      "city": "MEM MARTINS",
      "lon": "-9.328715519056187",
      "lat": "38.79774733486435"
    },
    {
      "id": "pt.ine.add.PTCONT.3152415",
      "street": "PCT RAÚL REGO",
      "house": "6",
      "postcode": "2725-647",
      "city": "MEM MARTINS",
      "lon": "-9.328715519056187",
      "lat": "38.79774733486435"
    },
    {
      "id": "pt.ine.add.PTCONT.3152416",
      "street": "PCT RAÚL REGO",
      "house": "6",
      "postcode": "2725-647",
      "city": "MEM MARTINS",
      "lon": "-9.328715519056187",
      "lat": "38.79774733486435"
    },
    {
      "id": "pt.ine.add.PTCONT.3152735",
      "street": "PCT RAÚL REGO",
      "house": "6",
      "postcode": "2725-647",
      "city": "MEM MARTINS",
      "lon": "-9.328715519056187",
      "lat": "38.79774733486435"
    },
    {
      "id": "pt.ine.add.PTCONT.3152736",
      "street": "PCT RAÚL REGO",
      "house": "6",
      "postcode": "2725-647",
      "city": "MEM MARTINS",
      "lon": "-9.328715519056187",
      "lat": "38.79774733486435"
    },
    {
      "id": "pt.ine.add.PTCONT.3152737",
      "street": "PCT RAÚL REGO",
      "house": "6",
      "postcode": "2725-647",
      "city": "MEM MARTINS",
      "lon": "-9.328715519056187",
      "lat": "38.79774733486435"
    },
    {
      "id": "pt.ine.add.PTCONT.3152738",
      "street": "PCT RAÚL REGO",
      "house": "6",
      "postcode": "2725-647",
      "city": "MEM MARTINS",
      "lon": "-9.328715519056187",
      "lat": "38.79774733486435"
    },
    {
      "id": "pt.ine.add.PTCONT.3152739",
      "street": "PCT RAÚL REGO",
      "house": "6",
      "postcode": "2725-647",
      "city": "MEM MARTINS",
      "lon": "-9.328715519056187",
      "lat": "38.79774733486435"
    },
    {
      "id": "pt.ine.add.PTCONT.3152740",
      "street": "PCT RAÚL REGO",
      "house": "6",
      "postcode": "2725-647",
      "city": "MEM MARTINS",
      "lon": "-9.328715519056187",
      "lat": "38.79774733486435"
    },
    {
      "id": "pt.ine.add.PTCONT.3152741",
      "street": "PCT RAÚL REGO",
      "house": "6",
      "postcode": "2725-647",
      "city": "MEM MARTINS",
      "lon": "-9.328715519056187",
      "lat": "38.79774733486435"
    },
    {
      "id": "pt.ine.add.PTCONT.3152742",
      "street": "PCT RAÚL REGO",
      "house": "6",
      "postcode": "2725-647",
      "city": "MEM MARTINS",
      "lon": "-9.328715519056187",
      "lat": "38.79774733486435"
    },
    {
      "id": "pt.ine.add.PTCONT.3152878",
      "street": "PCT RAÚL REGO",
      "house": "6",
      "postcode": "2725-647",
      "city": "MEM MARTINS",
      "lon": "-9.328715519056187",
      "lat": "38.79774733486435"
    },
    {
      "id": "pt.ine.add.PTCONT.3152879",
      "street": "PCT RAÚL REGO",
      "house": "6",
      "postcode": "2725-647",
      "city": "MEM MARTINS",
      "lon": "-9.328715519056187",
      "lat": "38.79774733486435"
    },
    {
      "id": "pt.ine.add.PTCONT.3152880",
      "street": "PCT RAÚL REGO",
      "house": "6",
      "postcode": "2725-647",
      "city": "MEM MARTINS",
      "lon": "-9.328715519056187",
      "lat": "38.79774733486435"
    },
    {
      "id": "pt.ine.add.PTCONT.3152881",
      "street": "PCT RAÚL REGO",
      "house": "6",
      "postcode": "2725-647",
      "city": "MEM MARTINS",
      "lon": "-9.328715519056187",
      "lat": "38.79774733486435"
    },
    {
      "id": "pt.ine.add.PTCONT.3152882",
      "street": "PCT RAÚL REGO",
      "house": "6",
      "postcode": "2725-647",
      "city": "MEM MARTINS",
      "lon": "-9.328715519056187",
      "lat": "38.79774733486435"
    },
    {
      "id": "pt.ine.add.PTCONT.3152883",
      "street": "PCT RAÚL REGO",
      "house": "6",
      "postcode": "2725-647",
      "city": "MEM MARTINS",
      "lon": "-9.328715519056187",
      "lat": "38.79774733486435"
    },
    {
      "id": "pt.ine.add.PTCONT.3152884",
      "street": "PCT RAÚL REGO",
      "house": "6",
      "postcode": "2725-647",
      "city": "MEM MARTINS",
      "lon": "-9.328715519056187",
      "lat": "38.79774733486435"
    },
    {
      "id": "pt.ine.add.PTCONT.3152885",
      "street": "PCT RAÚL REGO",
      "house": "6",
      "postcode": "2725-647",
      "city": "MEM MARTINS",
      "lon": "-9.328715519056187",
      "lat": "38.79774733486435"
    },
    {
      "id": "pt.ine.add.PTCONT.3152886",
      "street": "PCT RAÚL REGO",
      "house": "6",
      "postcode": "2725-647",
      "city": "MEM MARTINS",
      "lon": "-9.328715519056187",
      "lat": "38.79774733486435"
    },
    {
      "id": "pt.ine.add.PTCONT.3152887",
      "street": "PCT RAÚL REGO",
      "house": "6",
      "postcode": "2725-647",
      "city": "MEM MARTINS",
      "lon": "-9.328715519056187",
      "lat": "38.79774733486435"
    },
    {
      "id": "pt.ine.add.PTCONT.3152888",
      "street": "PCT RAÚL REGO",
      "house": "6",
      "postcode": "2725-647",
      "city": "MEM MARTINS",
      "lon": "-9.328715519056187",
      "lat": "38.79774733486435"
    },
    {
      "id": "pt.ine.add.PTCONT.3152889",
      "street": "PCT RAÚL REGO",
      "house": "6",
      "postcode": "2725-647",
      "city": "MEM MARTINS",
      "lon": "-9.328715519056187",
      "lat": "38.79774733486435"
    },
    {
      "id": "pt.ine.add.PTCONT.3152890",
      "street": "PCT RAÚL REGO",
      "house": "6",
      "postcode": "2725-647",
      "city": "MEM MARTINS",
      "lon": "-9.328715519056187",
      "lat": "38.79774733486435"
    },
    {
      "id": "pt.ine.add.PTCONT.3152891",
      "street": "PCT RAÚL REGO",
      "house": "6",
      "postcode": "2725-647",
      "city": "MEM MARTINS",
      "lon": "-9.328715519056187",
      "lat": "38.79774733486435"
    },
    {
      "id": "pt.ine.add.PTCONT.3153045",
      "street": "PCT RAÚL REGO",
      "house": "6",
      "postcode": "2725-647",
      "city": "MEM MARTINS",
      "lon": "-9.328715519056187",
      "lat": "38.79774733486435"
    },
    {
      "id": "pt.ine.add.PTCONT.3153046",
      "street": "PCT RAÚL REGO",
      "house": "6",
      "postcode": "2725-647",
      "city": "MEM MARTINS",
      "lon": "-9.328715519056187",
      "lat": "38.79774733486435"
    },
    {
      "id": "pt.ine.add.PTCONT.3153047",
      "street": "PCT RAÚL REGO",
      "house": "6",
      "postcode": "2725-647",
      "city": "MEM MARTINS",
      "lon": "-9.328715519056187",
      "lat": "38.79774733486435"
    },
    {
      "id": "pt.ine.add.PTCONT.3153048",
      "street": "PCT RAÚL REGO",
      "house": "6",
      "postcode": "2725-647",
      "city": "MEM MARTINS",
      "lon": "-9.328715519056187",
      "lat": "38.79774733486435"
    },
    {
      "id": "pt.ine.add.PTCONT.3153049",
      "street": "PCT RAÚL REGO",
      "house": "6",
      "postcode": "2725-647",
      "city": "MEM MARTINS",
      "lon": "-9.328715519056187",
      "lat": "38.79774733486435"
    },
    {
      "id": "pt.ine.add.PTCONT.3153050",
      "street": "PCT RAÚL REGO",
      "house": "6",
      "postcode": "2725-647",
      "city": "MEM MARTINS",
      "lon": "-9.328715519056187",
      "lat": "38.79774733486435"
    },
    {
      "id": "pt.ine.add.PTCONT.3153051",
      "street": "PCT RAÚL REGO",
      "house": "6",
      "postcode": "2725-647",
      "city": "MEM MARTINS",
      "lon": "-9.328715519056187",
      "lat": "38.79774733486435"
    },
    {
      "id": "pt.ine.add.PTCONT.3153052",
      "street": "PCT RAÚL REGO",
      "house": "6",
      "postcode": "2725-647",
      "city": "MEM MARTINS",
      "lon": "-9.328715519056187",
      "lat": "38.79774733486435"
    },
    {
      "id": "pt.ine.add.PTCONT.3153053",
      "street": "PCT RAÚL REGO",
      "house": "6",
      "postcode": "2725-647",
      "city": "MEM MARTINS",
      "lon": "-9.328715519056187",
      "lat": "38.79774733486435"
    },
    {
      "id": "pt.ine.add.PTCONT.3153054",
      "street": "PCT RAÚL REGO",
      "house": "6",
      "postcode": "2725-647",
      "city": "MEM MARTINS",
      "lon": "-9.328715519056187",
      "lat": "38.79774733486435"
    },
    {
      "id": "pt.ine.add.PTCONT.3153055",
      "street": "PCT RAÚL REGO",
      "house": "6",
      "postcode": "2725-647",
      "city": "MEM MARTINS",
      "lon": "-9.328715519056187",
      "lat": "38.79774733486435"
    },
    {
      "id": "pt.ine.add.PTCONT.3153056",
      "street": "PCT RAÚL REGO",
      "house": "6",
      "postcode": "2725-647",
      "city": "MEM MARTINS",
      "lon": "-9.328715519056187",
      "lat": "38.79774733486435"
    },
    {
      "id": "pt.ine.add.PTCONT.3154844",
      "street": "PCT RAÚL REGO",
      "house": "6",
      "postcode": "2725-647",
      "city": "MEM MARTINS",
      "lon": "-9.328715519056187",
      "lat": "38.79774733486435"
    },
    {
      "id": "pt.ine.add.PTCONT.3154848",
      "street": "PCT RAÚL REGO",
      "house": "6",
      "postcode": "2725-647",
      "city": "MEM MARTINS",
      "lon": "-9.328715519056187",
      "lat": "38.79774733486435"
    },
    {
      "id": "pt.ine.add.PTCONT.3154927",
      "street": "PCT RAÚL REGO",
      "house": "6",
      "postcode": "2725-647",
      "city": "MEM MARTINS",
      "lon": "-9.328715519056187",
      "lat": "38.79774733486435"
    },
    {
      "id": "pt.ine.add.PTCONT.3155074",
      "street": "PCT RAÚL REGO",
      "house": "6",
      "postcode": "2725-647",
      "city": "MEM MARTINS",
      "lon": "-9.328715519056187",
      "lat": "38.79774733486435"
    },
    {
      "id": "pt.ine.add.PTCONT.3155125",
      "street": "PCT RAÚL REGO",
      "house": "6",
      "postcode": "2725-647",
      "city": "MEM MARTINS",
      "lon": "-9.328715519056187",
      "lat": "38.79774733486435"
    },
    {
      "id": "pt.ine.add.PTCONT.3155181",
      "street": "PCT RAÚL REGO",
      "house": "6",
      "postcode": "2725-647",
      "city": "MEM MARTINS",
      "lon": "-9.328715519056187",
      "lat": "38.79774733486435"
    },
    {
      "id": "pt.ine.add.PTCONT.3155411",
      "street": "PCT RAÚL REGO",
      "house": "6",
      "postcode": "2725-647",
      "city": "MEM MARTINS",
      "lon": "-9.328715519056187",
      "lat": "38.79774733486435"
    },
    {
      "id": "pt.ine.add.PTCONT.3155482",
      "street": "PCT RAÚL REGO",
      "house": "6",
      "postcode": "2725-647",
      "city": "MEM MARTINS",
      "lon": "-9.328715519056187",
      "lat": "38.79774733486435"
    },
    {
      "id": "pt.ine.add.PTCONT.3155486",
      "street": "PCT RAÚL REGO",
      "house": "6",
      "postcode": "2725-647",
      "city": "MEM MARTINS",
      "lon": "-9.328715519056187",
      "lat": "38.79774733486435"
    },
    {
      "id": "pt.ine.add.PTCONT.3155487",
      "street": "PCT RAÚL REGO",
      "house": "6",
      "postcode": "2725-647",
      "city": "MEM MARTINS",
      "lon": "-9.328715519056187",
      "lat": "38.79774733486435"
    },
    {
      "id": "pt.ine.add.PTCONT.3155488",
      "street": "PCT RAÚL REGO",
      "house": "6",
      "postcode": "2725-647",
      "city": "MEM MARTINS",
      "lon": "-9.328715519056187",
      "lat": "38.79774733486435"
    },
    {
      "id": "pt.ine.add.PTCONT.3155495",
      "street": "PCT RAÚL REGO",
      "house": "6",
      "postcode": "2725-647",
      "city": "MEM MARTINS",
      "lon": "-9.328715519056187",
      "lat": "38.79774733486435"
    },
    {
      "id": "pt.ine.add.PTCONT.3157264",
      "street": "PCT RAÚL REGO",
      "house": "6",
      "postcode": "2725-647",
      "city": "MEM MARTINS",
      "lon": "-9.328715519056187",
      "lat": "38.79774733486435"
    },
    {
      "id": "pt.ine.add.PTCONT.3157619",
      "street": "PCT RAÚL REGO",
      "house": "6",
      "postcode": "2725-647",
      "city": "MEM MARTINS",
      "lon": "-9.328715519056187",
      "lat": "38.79774733486435"
    },
    {
      "id": "pt.ine.add.PTCONT.3157678",
      "street": "PCT RAÚL REGO",
      "house": "6",
      "postcode": "2725-647",
      "city": "MEM MARTINS",
      "lon": "-9.328715519056187",
      "lat": "38.79774733486435"
    },
    {
      "id": "pt.ine.add.PTCONT.3157679",
      "street": "PCT RAÚL REGO",
      "house": "6",
      "postcode": "2725-647",
      "city": "MEM MARTINS",
      "lon": "-9.328715519056187",
      "lat": "38.79774733486435"
    },
    {
      "id": "pt.ine.add.PTCONT.3433244",
      "street": "PCT RAUL REGO",
      "house": "1",
      "postcode": "2725-647",
      "city": "MEM MARTINS",
      "lon": "-9.328771025607017",
      "lat": "38.796936079219655"
    },
    {
      "id": "pt.ine.add.PTCONT.3433941",
      "street": "PCT RAUL REGO",
      "house": "1",
      "postcode": "2725-647",
      "city": "MEM MARTINS",
      "lon": "-9.328771025607017",
      "lat": "38.796936079219655"
    },
    {
      "id": "pt.ine.add.PTCONT.3450290",
      "street": "PCT RAÚL REGO",
      "house": "6",
      "postcode": "2725-647",
      "city": "MEM MARTINS",
      "lon": "-9.328715519056187",
      "lat": "38.79774733486435"
    },
    {
      "id": "pt.ine.add.PTCONT.3450297",
      "street": "PCT RAÚL REGO",
      "house": "6",
      "postcode": "2725-647",
      "city": "MEM MARTINS",
      "lon": "-9.328715519056187",
      "lat": "38.79774733486435"
    },
    {
      "id": "pt.ine.add.PTCONT.3450307",
      "street": "PCT RAÚL REGO",
      "house": "6",
      "postcode": "2725-647",
      "city": "MEM MARTINS",
      "lon": "-9.328715519056187",
      "lat": "38.79774733486435"
    }
  ]
}