{
  "data": {
    "distrito": "Faro",
    "concelho": "Olhão",
    "freguesia": "Quelfes",
    "OBJECTID": 470,
    "BGRI2021": "08100500504",
    "DT21": "08",
    "DTMN21": "0810",
    "DTMNFR21": "081005",
    "DTMNFRSEC21": "081005005",
    "SECNUM21": "005",
    "SSNUM21": "04",
    "SECSSNUM21": "00504",
    "OBJECTID_1": 70789,
    "DT": "08",
    "CC": "10",
    "fr": "05",
    "SEC": "005",
    "SS": "04"
  },
  "addresses": [
    {
      "id": "pt.ine.add.PTCONT.1529156",
      "street": "BR 8 OUTUBRO",
      "house": "",
      "postcode": "8700-244",
      "city": "",
      "lon": "-7.845252427518894",
      "lat": "37.03445326416265"
    },
    {
      "id": "pt.ine.add.PTCONT.1529157",
      "street": "BR 8 OUTUBRO",
      "house": "",
      "postcode": "8700-244",
      "city": "",
      "lon": "-7.845252427518894",
      "lat": "37.03445326416265"
    },
    {
      "id": "pt.ine.add.PTCONT.1529158",
      "street": "BR 8 OUTUBRO",
      "house": "",
      "postcode": "8700-244",
      "city": "",
      "lon": "-7.845252427518894",
      "lat": "37.03445326416265"
    },
    {
      "id": "pt.ine.add.PTCONT.1529159",
      "street": "BR 8 OUTUBRO",
      "house": "",
      "postcode": "8700-244",
      "city": "",
      "lon": "-7.845252427518894",
      "lat": "37.03445326416265"
    },
    {
      "id": "pt.ine.add.PTCONT.1529293",
      "street": "BR 8 OUTUBRO",
      "house": "",
      "postcode": "8700-244",
      "city": "",
      "lon": "-7.845252427518894",
      "lat": "37.03445326416265"
    },
    {
      "id": "pt.ine.add.PTCONT.1529294",
      "street": "BR 8 OUTUBRO",
      "house": "",
      "postcode": "8700-244",
      "city": "",
      "lon": "-7.845252427518894",
      "lat": "37.03445326416265"
    },
    {
      "id": "pt.ine.add.PTCONT.1529796",
      "street": "BR 8 DE OUTUBRO",
      "house": "",
      "postcode": "8700-244",
      "city": "",
      "lon": "-7.845252427518894",
      "lat": "37.03445326416265"
    },
    {
      "id": "pt.ine.add.PTCONT.1530094",
      "street": "R MARIA EDUARDA GONZALO",
      "house": "2",
      "postcode": "8700-244",
      "city": "",
      "lon": "-7.845252427518894",
      "lat": "37.03445326416265"
    },
    {
      "id": "pt.ine.add.PTCONT.1559823",
      "street": "BR 8 DE OUTUBRO",
      "house": "11",
      "postcode": "8700-244",
      "city": "",
      "lon": "-7.845554430756482",
      "lat": "37.03484145822871"
    },
    {
      "id": "pt.ine.add.PTCONT.1559824",
      "street": "BR 8 DE OUTUBRO",
      "house": "11",
      "postcode": "8700-244",
      "city": "",
      "lon": "-7.845554430756482",
      "lat": "37.03484145822871"
    },
    {
      "id": "pt.ine.add.PTCONT.1559825",
      "street": "BR 8 DE OUTUBRO",
      "house": "11",
      "postcode": "8700-244",
      "city": "",
      "lon": "-7.845554430756482",
      "lat": "37.03484145822871"
    },
    {
      "id": "pt.ine.add.PTCONT.1559826",
      "street": "BR 8 DE OUTUBRO",
      "house": "11",
      "postcode": "8700-244",
      "city": "",
      "lon": "-7.845554430756482",
      "lat": "37.03484145822871"
    },
    {
      "id": "pt.ine.add.PTCONT.1559827",
      "street": "BR 8 DE OUTUBRO",
      "house": "11",
      "postcode": "8700-244",
      "city": "",
      "lon": "-7.845554430756482",
      "lat": "37.03484145822871"
    },
    {
      "id": "pt.ine.add.PTCONT.1559828",
      "street": "BR 8 OUTUBRO C",
      "house": "C11",
      "postcode": "8700-244",
      "city": "",
      "lon": "-7.845554430756482",
      "lat": "37.03484145822871"
    },
    {
      "id": "pt.ine.add.PTCONT.1561899",
      "street": "BR 8 DE OUTUBRO",
      "house": "11",
      "postcode": "8700-244",
      "city": "",
      "lon": "-7.845554430756482",
      "lat": "37.03484145822871"
    },
    {
      "id": "pt.ine.add.PTCONT.1575413",
      "street": "BR 8 DE OUTUBRO",
      "house": "",
      "postcode": "8700-244",
      "city": "",
      "lon": "-7.845702852961431",
      "lat": "37.034229087501316"
    },
    {
      "id": "pt.ine.add.PTCONT.1575409",
      "street": "BR 8 DE OUTUBRO",
      "house": "",
      "postcode": "8700-244",
      "city": "",
      "lon": "-7.845702852961431",
      "lat": "37.034229087501316"
    },
    {
      "id": "pt.ine.add.PTCONT.1575410",
      "street": "BR 8 OUTUBRO B",
      "house": "B 4",
      "postcode": "8700-244",
      "city": "",
      "lon": "-7.845702852961431",
      "lat": "37.034229087501316"
    },
    {
      "id": "pt.ine.add.PTCONT.1575411",
      "street": "BR 8 DE OUTUBRO",
      "house": "",
      "postcode": "8700-244",
      "city": "",
      "lon": "-7.845702852961431",
      "lat": "37.034229087501316"
    },
    {
      "id": "pt.ine.add.PTCONT.1575412",
      "street": "BR 8 DE OUTUBRO",
      "house": "",
      "postcode": "8700-244",
      "city": "",
      "lon": "-7.845702852961431",
      "lat": "37.034229087501316"
    },
    {
      "id": "pt.ine.add.PTCONT.1575414",
      "street": "BR 8 DE OUTUBRO",
      "house": "",
      "postcode": "8700-244",
      "city": "",
      "lon": "-7.845702852961431",
      "lat": "37.034229087501316"
    },
    {
      "id": "pt.ine.add.PTCONT.1575415",
      "street": "BR 8 OUTUBRO B",
      "house": "B4",
      "postcode": "8700-244",
      "city": "",
      "lon": "-7.845702852961431",
      "lat": "37.034229087501316"
    },
    {
      "id": "pt.ine.add.PTCONT.1577012",
      "street": "BR 8 DE OUTUBRO",
      "house": "",
      "postcode": "8700-244",
      "city": "",
      "lon": "-7.845702852961431",
      "lat": "37.034229087501316"
    },
    {
      "id": "pt.ine.add.PTCONT.1585959",
      "street": "BR 8 DE OUTUBRO",
      "house": "10",
      "postcode": "8700-244",
      "city": "",
      "lon": "-7.8454650927486345",
      "lat": "37.03468805912054"
    },
    {
      "id": "pt.ine.add.PTCONT.1585960",
      "street": "BR 8 OUTUBRO C",
      "house": "C10",
      "postcode": "8700-244",
      "city": "",
      "lon": "-7.8454650927486345",
      "lat": "37.03468805912054"
    },
    {
      "id": "pt.ine.add.PTCONT.1586067",
      "street": "BR 8 DE OUTUBRO",
      "house": "10",
      "postcode": "8700-244",
      "city": "",
      "lon": "-7.8454650927486345",
      "lat": "37.03468805912054"
    },
    {
      "id": "pt.ine.add.PTCONT.1586068",
      "street": "BR 8 DE OUTUBRO",
      "house": "10",
      "postcode": "8700-244",
      "city": "",
      "lon": "-7.8454650927486345",
      "lat": "37.03468805912054"
    },
    {
      "id": "pt.ine.add.PTCONT.1588258",
      "street": "BR 8 OUTUBRO C",
      "house": "C10",
      "postcode": "8700-244",
      "city": "",
      "lon": "-7.8454650927486345",
      "lat": "37.03468805912054"
    },
    {
      "id": "pt.ine.add.PTCONT.1588259",
      "street": "BR 8 OUTUBRO",
      "house": "",
      "postcode": "8700-244",
      "city": "",
      "lon": "-7.8454650927486345",
      "lat": "37.03468805912054"
    },
    {
      "id": "pt.ine.add.PTCONT.1588266",
      "street": "BR 8 DE OUTUBRO",
      "house": "10",
      "postcode": "8700-244",
      "city": "",
      "lon": "-7.8454650927486345",
      "lat": "37.03468805912054"
    },
    {
      "id": "pt.ine.add.PTCONT.1588319",
      "street": "BR 8 DE OUTUBRO",
      "house": "10",
      "postcode": "8700-244",
      "city": "",
      "lon": "-7.8454650927486345",
      "lat": "37.03468805912054"
    },
    {
      "id": "pt.ine.add.PTCONT.1603816",
      "street": "BR 8 DE OUTUBRO",
      "house": "",
      "postcode": "8700-244",
      "city": "",
      "lon": "-7.845880884444514",
      "lat": "37.03470708781068"
    },
    {
      "id": "pt.ine.add.PTCONT.1603927",
      "street": "BR 8 DE OUTUBRO",
      "house": "",
      "postcode": "8700-244",
      "city": "",
      "lon": "-7.845880884444514",
      "lat": "37.03470708781068"
    },
    {
      "id": "pt.ine.add.PTCONT.1603928",
      "street": "BR 8 DE OUTUBRO",
      "house": "",
      "postcode": "8700-244",
      "city": "",
      "lon": "-7.845880884444514",
      "lat": "37.03470708781068"
    },
    {
      "id": "pt.ine.add.PTCONT.1603929",
      "street": "BR 8 DE OUTUBRO",
      "house": "",
      "postcode": "8700-244",
      "city": "",
      "lon": "-7.845880884444514",
      "lat": "37.03470708781068"
    },
    {
      "id": "pt.ine.add.PTCONT.1603930",
      "street": "BR 8 DE OUTUBRO",
      "house": "",
      "postcode": "8700-244",
      "city": "",
      "lon": "-7.845880884444514",
      "lat": "37.03470708781068"
    },
    {
      "id": "pt.ine.add.PTCONT.1603931",
      "street": "BR 8 OUTUBRO",
      "house": "4",
      "postcode": "8700-244",
      "city": "",
      "lon": "-7.845880884444514",
      "lat": "37.03470708781068"
    },
    {
      "id": "pt.ine.add.PTCONT.1603932",
      "street": "BR 8 DE OUTUBRO",
      "house": "",
      "postcode": "8700-244",
      "city": "",
      "lon": "-7.845880884444514",
      "lat": "37.03470708781068"
    },
    {
      "id": "pt.ine.add.PTCONT.1605164",
      "street": "BR 8 OUTUBRO B",
      "house": "B8",
      "postcode": "8700-244",
      "city": "",
      "lon": "-7.845880884444514",
      "lat": "37.03470708781068"
    },
    {
      "id": "pt.ine.add.PTCONT.1688224",
      "street": "BR 8 OUTUBRO C",
      "house": "C9",
      "postcode": "8700-244",
      "city": "",
      "lon": "-7.845375687107093",
      "lat": "37.03455268125765"
    },
    {
      "id": "pt.ine.add.PTCONT.1688225",
      "street": "BR 8 DE OUTUBRO",
      "house": "9",
      "postcode": "8700-244",
      "city": "",
      "lon": "-7.845375687107093",
      "lat": "37.03455268125765"
    },
    {
      "id": "pt.ine.add.PTCONT.1688226",
      "street": "BR 8 OUTUBRO",
      "house": "",
      "postcode": "8700-244",
      "city": "",
      "lon": "-7.845375687107093",
      "lat": "37.03455268125765"
    },
    {
      "id": "pt.ine.add.PTCONT.1688227",
      "street": "BR 8 DE OUTUBRO",
      "house": "9",
      "postcode": "8700-244",
      "city": "",
      "lon": "-7.845375687107093",
      "lat": "37.03455268125765"
    },
    {
      "id": "pt.ine.add.PTCONT.1688228",
      "street": "BR 8 OUTUBRO C",
      "house": "C 9",
      "postcode": "8700-244",
      "city": "",
      "lon": "-7.845375687107093",
      "lat": "37.03455268125765"
    },
    {
      "id": "pt.ine.add.PTCONT.1689032",
      "street": "BR 8 OUTUBRO C",
      "house": "C9",
      "postcode": "8700-244",
      "city": "",
      "lon": "-7.845375687107093",
      "lat": "37.03455268125765"
    },
    {
      "id": "pt.ine.add.PTCONT.1689033",
      "street": "BR 8 DE OUTUBRO",
      "house": "9",
      "postcode": "8700-244",
      "city": "",
      "lon": "-7.845375687107093",
      "lat": "37.03455268125765"
    },
    {
      "id": "pt.ine.add.PTCONT.1689040",
      "street": "BR 8 DE OUTUBRO",
      "house": "9",
      "postcode": "8700-244",
      "city": "",
      "lon": "-7.845375687107093",
      "lat": "37.03455268125765"
    },
    {
      "id": "pt.ine.add.PTCONT.1690950",
      "street": "BR 8 DE OUTUBRO",
      "house": "",
      "postcode": "8700-244",
      "city": "",
      "lon": "-7.845758608510021",
      "lat": "37.03434636216046"
    },
    {
      "id": "pt.ine.add.PTCONT.1690951",
      "street": "BR 8 DE OUTUBRO",
      "house": "",
      "postcode": "8700-244",
      "city": "",
      "lon": "-7.845758608510021",
      "lat": "37.03434636216046"
    },
    {
      "id": "pt.ine.add.PTCONT.1690952",
      "street": "BR 8 DE OUTUBRO",
      "house": "",
      "postcode": "8700-244",
      "city": "",
      "lon": "-7.845758608510021",
      "lat": "37.03434636216046"
    },
    {
      "id": "pt.ine.add.PTCONT.1690953",
      "street": "BR 8 DE OUTUBRO",
      "house": "",
      "postcode": "8700-244",
      "city": "",
      "lon": "-7.845758608510021",
      "lat": "37.03434636216046"
    },
    {
      "id": "pt.ine.add.PTCONT.1690954",
      "street": "BR 8 DE OUTUBRO",
      "house": "",
      "postcode": "8700-244",
      "city": "",
      "lon": "-7.845758608510021",
      "lat": "37.03434636216046"
    },
    {
      "id": "pt.ine.add.PTCONT.1690955",
      "street": "BR 8 DE OUTUBRO",
      "house": "",
      "postcode": "8700-244",
      "city": "",
      "lon": "-7.845758608510021",
      "lat": "37.03434636216046"
    },
    {
      "id": "pt.ine.add.PTCONT.1691905",
      "street": "BR 8 DE OUTUBRO",
      "house": "",
      "postcode": "8700-244",
      "city": "",
      "lon": "-7.845758608510021",
      "lat": "37.03434636216046"
    },
    {
      "id": "pt.ine.add.PTCONT.1732392",
      "street": "BR 8 DE OUTUBRO",
      "house": "",
      "postcode": "8700-244",
      "city": "",
      "lon": "-7.845847539434165",
      "lat": "37.03460788895136"
    },
    {
      "id": "pt.ine.add.PTCONT.1732393",
      "street": "BR 8 DE OUTUBRO",
      "house": "",
      "postcode": "8700-244",
      "city": "",
      "lon": "-7.845847539434165",
      "lat": "37.03460788895136"
    },
    {
      "id": "pt.ine.add.PTCONT.1732394",
      "street": "BR 8 DE OUTUBRO",
      "house": "",
      "postcode": "8700-244",
      "city": "",
      "lon": "-7.845847539434165",
      "lat": "37.03460788895136"
    },
    {
      "id": "pt.ine.add.PTCONT.1732395",
      "street": "BR 8 DE OUTUBRO",
      "house": "",
      "postcode": "8700-244",
      "city": "",
      "lon": "-7.845847539434165",
      "lat": "37.03460788895136"
    },
    {
      "id": "pt.ine.add.PTCONT.1732396",
      "street": "BR 8 DE OUTUBRO",
      "house": "",
      "postcode": "8700-244",
      "city": "",
      "lon": "-7.845847539434165",
      "lat": "37.03460788895136"
    },
    {
      "id": "pt.ine.add.PTCONT.1732397",
      "street": "BR 8 OUTUBRO B",
      "house": "B 7",
      "postcode": "8700-244",
      "city": "",
      "lon": "-7.845847539434165",
      "lat": "37.03460788895136"
    },
    {
      "id": "pt.ine.add.PTCONT.1733519",
      "street": "BR 8 DE OUTUBRO",
      "house": "",
      "postcode": "8700-244",
      "city": "",
      "lon": "-7.845847539434165",
      "lat": "37.03460788895136"
    },
    {
      "id": "pt.ine.add.PTCONT.1734785",
      "street": "BR 8 DE OUTUBRO",
      "house": "",
      "postcode": "8700-244",
      "city": "",
      "lon": "-7.845847539434165",
      "lat": "37.03460788895136"
    },
    {
      "id": "pt.ine.add.PTCONT.1736603",
      "street": "BR 8 DE OUTUBRO",
      "house": "",
      "postcode": "8700-244",
      "city": "",
      "lon": "-7.845793311138191",
      "lat": "37.03408513471872"
    },
    {
      "id": "pt.ine.add.PTCONT.1761198",
      "street": "BR 8 DE OUTUBRO",
      "house": "",
      "postcode": "8700-244",
      "city": "",
      "lon": "-7.845803056923953",
      "lat": "37.034481630894305"
    },
    {
      "id": "pt.ine.add.PTCONT.1761199",
      "street": "BR 8 DE OUTUBRO",
      "house": "",
      "postcode": "8700-244",
      "city": "",
      "lon": "-7.845803056923953",
      "lat": "37.034481630894305"
    },
    {
      "id": "pt.ine.add.PTCONT.1761202",
      "street": "BR 8 DE OUTUBRO",
      "house": "",
      "postcode": "8700-244",
      "city": "",
      "lon": "-7.845803056923953",
      "lat": "37.034481630894305"
    },
    {
      "id": "pt.ine.add.PTCONT.1761203",
      "street": "BR 8 DE OUTUBRO",
      "house": "",
      "postcode": "8700-244",
      "city": "",
      "lon": "-7.845803056923953",
      "lat": "37.034481630894305"
    },
    {
      "id": "pt.ine.add.PTCONT.1761204",
      "street": "BR 8 DE OUTUBRO",
      "house": "",
      "postcode": "8700-244",
      "city": "",
      "lon": "-7.845803056923953",
      "lat": "37.034481630894305"
    },
    {
      "id": "pt.ine.add.PTCONT.1761205",
      "street": "BR 8 DE OUTUBRO",
      "house": "",
      "postcode": "8700-244",
      "city": "",
      "lon": "-7.845803056923953",
      "lat": "37.034481630894305"
    },
    {
      "id": "pt.ine.add.PTCONT.1761206",
      "street": "BR 8 DE OUTUBRO",
      "house": "",
      "postcode": "8700-244",
      "city": "",
      "lon": "-7.845803056923953",
      "lat": "37.034481630894305"
    },
    {
      "id": "pt.ine.add.PTCONT.1761207",
      "street": "BR 8 DE OUTUBRO",
      "house": "",
      "postcode": "8700-244",
      "city": "",
      "lon": "-7.845803056923953",
      "lat": "37.034481630894305"
    },
    {
      "id": "pt.ine.add.PTCONT.1826746",
      "street": "R DAMASO DA ENCARNAÇÃO",
      "house": "",
      "postcode": "8700-249",
      "city": "OLHÃO",
      "lon": "-7.846477794516282",
      "lat": "37.03438414456838"
    },
    {
      "id": "pt.ine.add.PTCONT.1846006",
      "street": "BR 8 DE OUTUBRO",
      "house": "",
      "postcode": "8700-244",
      "city": "",
      "lon": "-7.845758608510021",
      "lat": "37.03434636216046"
    },
    {
      "id": "pt.ine.add.PTCONT.1847613",
      "street": "BR 8 OUTUBRO C",
      "house": "C11",
      "postcode": "8700-244",
      "city": "",
      "lon": "-7.845554430756482",
      "lat": "37.03484145822871"
    }
  ]
}