{
  "data": {
    "distrito": "Faro",
    "concelho": "Albufeira",
    "freguesia": "Ferreiras",
    "OBJECTID": 21,
    "BGRI2021": "08010400104",
    "DT21": "08",
    "DTMN21": "0801",
    "DTMNFR21": "080104",
    "DTMNFRSEC21": "080104001",
    "SECNUM21": "001",
    "SSNUM21": "04",
    "SECSSNUM21": "00104",
    "OBJECTID_1": 64821,
    "DT": "08",
    "CC": "01",
    "fr": "04",
    "SEC": "001",
    "SS": "04"
  },
  "addresses": [
    {
      "id": "pt.ine.add.PTCONT.1475381",
      "street": "R CACADORES",
      "house": "E",
      "postcode": "8200-568",
      "city": "FERREIRAS",
      "lon": "-8.253196348697282",
      "lat": "37.13008379852031"
    },
    {
      "id": "pt.ine.add.PTCONT.1475385",
      "street": "AV 25 DE ABRIL",
      "house": "",
      "postcode": "8200-561",
      "city": "FERREIRAS",
      "lon": "-8.250594079390277",
      "lat": "37.12835636660878"
    },
    {
      "id": "pt.ine.add.PTCONT.1478538",
      "street": "AV MALHADA VELHA SOLAR DAS LAGOAS I",
      "house": "D",
      "postcode": "8200-553",
      "city": "FERREIRAS",
      "lon": "-8.251236055486084",
      "lat": "37.1286981323315"
    },
    {
      "id": "pt.ine.add.PTCONT.1489696",
      "street": "AV MALHADA VELHA",
      "house": "0",
      "postcode": "8200-553",
      "city": "FERREIRAS",
      "lon": "-8.250832201255724",
      "lat": "37.12951850068035"
    },
    {
      "id": "pt.ine.add.PTCONT.1489757",
      "street": "AV MALHADA VELHA SOLAR DAS LAGOAS",
      "house": "B",
      "postcode": "8200-553",
      "city": "FERREIRAS",
      "lon": "-8.251292210659848",
      "lat": "37.12862599138014"
    },
    {
      "id": "pt.ine.add.PTCONT.1495706",
      "street": "AV MALHADA VELHA SOLAR DAS LAGOAS I",
      "house": "A",
      "postcode": "8200-553",
      "city": "FERREIRAS",
      "lon": "-8.251370970733364",
      "lat": "37.128616902213864"
    },
    {
      "id": "pt.ine.add.PTCONT.1515700",
      "street": "CAM PINHEIROS",
      "house": "",
      "postcode": "8200-568",
      "city": "FERREIRAS",
      "lon": "-8.250787661322372",
      "lat": "37.129824906027395"
    },
    {
      "id": "pt.ine.add.PTCONT.1522851",
      "street": "CAM PINHEIROS",
      "house": "",
      "postcode": "8200-568",
      "city": "FERREIRAS",
      "lon": "-8.250855224920809",
      "lat": "37.12985187080284"
    },
    {
      "id": "pt.ine.add.PTCONT.1524795",
      "street": "AV MALHADA VELHA",
      "house": "10",
      "postcode": "8200-553",
      "city": "FERREIRAS",
      "lon": "-8.25270128703164",
      "lat": "37.130147373323965"
    },
    {
      "id": "pt.ine.add.PTCONT.1524796",
      "street": "AV MALHADA VELHA",
      "house": "9",
      "postcode": "8200-553",
      "city": "FERREIRAS",
      "lon": "-8.25270128703164",
      "lat": "37.130147373323965"
    },
    {
      "id": "pt.ine.add.PTCONT.1524797",
      "street": "AV MALHADA VELHA",
      "house": "12",
      "postcode": "8200-553",
      "city": "FERREIRAS",
      "lon": "-8.25270128703164",
      "lat": "37.130147373323965"
    },
    {
      "id": "pt.ine.add.PTCONT.1526759",
      "street": "AV MALHADA VELHA",
      "house": "11",
      "postcode": "8200-553",
      "city": "FERREIRAS",
      "lon": "-8.25270128703164",
      "lat": "37.130147373323965"
    },
    {
      "id": "pt.ine.add.PTCONT.1531460",
      "street": "AV MALHADA VELHA",
      "house": "337 C",
      "postcode": "8200-553",
      "city": "FERREIRAS",
      "lon": "-8.251585319852731",
      "lat": "37.12895909184853"
    },
    {
      "id": "pt.ine.add.PTCONT.1539500",
      "street": "URB LAGOAS",
      "house": "",
      "postcode": "8200-568",
      "city": "FERREIRAS",
      "lon": "-8.250212171743444",
      "lat": "37.128816286248416"
    },
    {
      "id": "pt.ine.add.PTCONT.1553950",
      "street": "CAM PINHEIROS",
      "house": "",
      "postcode": "8200-568",
      "city": "FERREIRAS",
      "lon": "-8.251587202089185",
      "lat": "37.13016651323847"
    },
    {
      "id": "pt.ine.add.PTCONT.1560899",
      "street": "AV MALHADA VELHA",
      "house": "321 C",
      "postcode": "8200-553",
      "city": "FERREIRAS",
      "lon": "-8.252082405880714",
      "lat": "37.130193049148964"
    },
    {
      "id": "pt.ine.add.PTCONT.1561835",
      "street": "AV MALHADA VELHA SOLAR DAS LAGOAS I",
      "house": "G",
      "postcode": "8200-553",
      "city": "FERREIRAS",
      "lon": "-8.251157533232194",
      "lat": "37.128860401756306"
    },
    {
      "id": "pt.ine.add.PTCONT.1565636",
      "street": "R CACADORES",
      "house": "H",
      "postcode": "8200-568",
      "city": "FERREIRAS",
      "lon": "-8.25308412506328",
      "lat": "37.130282145796585"
    },
    {
      "id": "pt.ine.add.PTCONT.1571377",
      "street": "R CACADORES",
      "house": "",
      "postcode": "8200-568",
      "city": "FERREIRAS",
      "lon": "-8.253162673128225",
      "lat": "37.130137896351336"
    },
    {
      "id": "pt.ine.add.PTCONT.1575215",
      "street": "AV MALHADA VELHA SOLAR DAS LAGOAS I",
      "house": "L",
      "postcode": "8200-553",
      "city": "FERREIRAS",
      "lon": "-8.251000557605506",
      "lat": "37.12922999347891"
    },
    {
      "id": "pt.ine.add.PTCONT.1608667",
      "street": "AV 25 DE ABRIL",
      "house": "",
      "postcode": "8200-561",
      "city": "FERREIRAS",
      "lon": "-8.250965385776526",
      "lat": "37.128319955559995"
    },
    {
      "id": "pt.ine.add.PTCONT.1608671",
      "street": "R LAGOAS",
      "house": "",
      "postcode": "8200-568",
      "city": "FERREIRAS",
      "lon": "-8.250415026268042",
      "lat": "37.12900530876653"
    },
    {
      "id": "pt.ine.add.PTCONT.1614949",
      "street": "AV MALHADA VELHA",
      "house": "336 B",
      "postcode": "8200-553",
      "city": "FERREIRAS",
      "lon": "-8.251652854854132",
      "lat": "37.12896803495768"
    },
    {
      "id": "pt.ine.add.PTCONT.1618292",
      "street": "AV MALHADA VELHA SOLAR DAS LAGOAS I",
      "house": "F",
      "postcode": "8200-553",
      "city": "FERREIRAS",
      "lon": "-8.251157421269545",
      "lat": "37.12878831688708"
    },
    {
      "id": "pt.ine.add.PTCONT.1620433",
      "street": "R CACADORES",
      "house": "E",
      "postcode": "8200-568",
      "city": "FERREIRAS",
      "lon": "-8.253274896345065",
      "lat": "37.129939548996596"
    },
    {
      "id": "pt.ine.add.PTCONT.1643631",
      "street": "AV MALHADA VELHA",
      "house": "",
      "postcode": "8200-553",
      "city": "FERREIRAS",
      "lon": "-8.251450291987636",
      "lat": "37.12896823733979"
    },
    {
      "id": "pt.ine.add.PTCONT.1649561",
      "street": "R CACADORES",
      "house": "A",
      "postcode": "8200-568",
      "city": "FERREIRAS",
      "lon": "-8.25334217582614",
      "lat": "37.12978630022563"
    },
    {
      "id": "pt.ine.add.PTCONT.1653545",
      "street": "AV MALHADA VELHA",
      "house": "4",
      "postcode": "8200-553",
      "city": "FERREIRAS",
      "lon": "-8.252824793492213",
      "lat": "37.129967036252914"
    },
    {
      "id": "pt.ine.add.PTCONT.1653546",
      "street": "AV MALHADA VELHA",
      "house": "3",
      "postcode": "8200-553",
      "city": "FERREIRAS",
      "lon": "-8.252824793492213",
      "lat": "37.129967036252914"
    },
    {
      "id": "pt.ine.add.PTCONT.1654793",
      "street": "AV MALHADA VELHA",
      "house": "1",
      "postcode": "8200-553",
      "city": "FERREIRAS",
      "lon": "-8.252824793492213",
      "lat": "37.129967036252914"
    },
    {
      "id": "pt.ine.add.PTCONT.1655456",
      "street": "AV 25 DE ABRIL",
      "house": "",
      "postcode": "8200-561",
      "city": "FERREIRAS",
      "lon": "-8.250774287274222",
      "lat": "37.128455304737145"
    },
    {
      "id": "pt.ine.add.PTCONT.1656819",
      "street": "R CACADORES",
      "house": "D",
      "postcode": "8200-568",
      "city": "FERREIRAS",
      "lon": "-8.253229995735163",
      "lat": "37.13001167946701"
    },
    {
      "id": "pt.ine.add.PTCONT.1662715",
      "street": "AV MALHADA VELHA",
      "house": "335 A",
      "postcode": "8200-553",
      "city": "FERREIRAS",
      "lon": "-8.251731671492111",
      "lat": "37.1289949879847"
    },
    {
      "id": "pt.ine.add.PTCONT.1676879",
      "street": "URB LAGOAS",
      "house": "",
      "postcode": "8200-568",
      "city": "FERREIRAS",
      "lon": "-8.25021200514482",
      "lat": "37.12870815893978"
    },
    {
      "id": "pt.ine.add.PTCONT.1678539",
      "street": "AV MALHADA VELHA SOLAR DAS LAGOAS I",
      "house": "I",
      "postcode": "8200-553",
      "city": "FERREIRAS",
      "lon": "-8.251056573559472",
      "lat": "37.12906774656207"
    },
    {
      "id": "pt.ine.add.PTCONT.1682247",
      "street": "R CACADORES",
      "house": "M",
      "postcode": "8200-568",
      "city": "FERREIRAS",
      "lon": "-8.25290447797205",
      "lat": "37.13054363545235"
    },
    {
      "id": "pt.ine.add.PTCONT.1695545",
      "street": "AV MALHADA VELHA SOLAR DAS LAOOAS I",
      "house": "E",
      "postcode": "8200-553",
      "city": "FERREIRAS",
      "lon": "-8.251314801627236",
      "lat": "37.128680032593685"
    },
    {
      "id": "pt.ine.add.PTCONT.1701267",
      "street": "R CACADORES",
      "house": "B",
      "postcode": "8200-568",
      "city": "FERREIRAS",
      "lon": "-8.2532973038694",
      "lat": "37.129876451935814"
    },
    {
      "id": "pt.ine.add.PTCONT.1709520",
      "street": "R CACADORES",
      "house": "I",
      "postcode": "8200-568",
      "city": "FERREIRAS",
      "lon": "-8.253027984591261",
      "lat": "37.1303632981814"
    },
    {
      "id": "pt.ine.add.PTCONT.1709529",
      "street": "R LAGOAS",
      "house": "",
      "postcode": "8200-568",
      "city": "FERREIRAS",
      "lon": "-8.250370290316313",
      "lat": "37.12918556547014"
    },
    {
      "id": "pt.ine.add.PTCONT.1718280",
      "street": "CAM PINHEIROS",
      "house": "",
      "postcode": "8200-568",
      "city": "FERREIRAS",
      "lon": "-8.250686322984443",
      "lat": "37.12978896409527"
    },
    {
      "id": "pt.ine.add.PTCONT.1718281",
      "street": "URB LAGOAS",
      "house": "",
      "postcode": "8200-568",
      "city": "FERREIRAS",
      "lon": "-8.250256657863908",
      "lat": "37.12847383862456"
    },
    {
      "id": "pt.ine.add.PTCONT.1718285",
      "street": "R LAGOAS",
      "house": "",
      "postcode": "8200-568",
      "city": "FERREIRAS",
      "lon": "-8.250561363522898",
      "lat": "37.129032195739455"
    },
    {
      "id": "pt.ine.add.PTCONT.1723888",
      "street": "AV MALHADA VELHA",
      "house": "A",
      "postcode": "8200-553",
      "city": "FERREIRAS",
      "lon": "-8.25309438295724",
      "lat": "37.12965139196738"
    },
    {
      "id": "pt.ine.add.PTCONT.1726907",
      "street": "AV MALHADA VELHA",
      "house": "CP 333 A",
      "postcode": "8200-553",
      "city": "FERREIRAS",
      "lon": "-8.251821685389633",
      "lat": "37.128985887257926"
    },
    {
      "id": "pt.ine.add.PTCONT.1729788",
      "street": "R CACADORES",
      "house": "P",
      "postcode": "8200-568",
      "city": "FERREIRAS",
      "lon": "-8.252848436492744",
      "lat": "37.130687861986345"
    },
    {
      "id": "pt.ine.add.PTCONT.1735215",
      "street": "AV MALHADA VELHA",
      "house": "",
      "postcode": "8200-553",
      "city": "FERREIRAS",
      "lon": "-8.252768667161762",
      "lat": "37.1300571991256"
    },
    {
      "id": "pt.ine.add.PTCONT.1735216",
      "street": "AV MALHADA VELHA",
      "house": "",
      "postcode": "8200-553",
      "city": "FERREIRAS",
      "lon": "-8.252768667161762",
      "lat": "37.1300571991256"
    },
    {
      "id": "pt.ine.add.PTCONT.1735217",
      "street": "AV MALHADA VELHA",
      "house": "",
      "postcode": "8200-553",
      "city": "FERREIRAS",
      "lon": "-8.252768667161762",
      "lat": "37.1300571991256"
    },
    {
      "id": "pt.ine.add.PTCONT.1735219",
      "street": "AV MALHADA VELHA",
      "house": "",
      "postcode": "8200-553",
      "city": "FERREIRAS",
      "lon": "-8.252768667161762",
      "lat": "37.1300571991256"
    },
    {
      "id": "pt.ine.add.PTCONT.1741392",
      "street": "R DOS CAÃ‡ADORES",
      "house": "Q",
      "postcode": "8200-568",
      "city": "FERREIRAS",
      "lon": "-8.252803535037497",
      "lat": "37.13075999228757"
    },
    {
      "id": "pt.ine.add.PTCONT.1741556",
      "street": "R CACADORES",
      "house": "0",
      "postcode": "8200-568",
      "city": "FERREIRAS",
      "lon": "-8.252870872989062",
      "lat": "37.13064278622377"
    },
    {
      "id": "pt.ine.add.PTCONT.1744548",
      "street": "AV MALHADA VELHA SOLAR DAS LAGOAS I",
      "house": "P",
      "postcode": "8200-553",
      "city": "FERREIRAS",
      "lon": "-8.250809847606307",
      "lat": "37.129617639712755"
    },
    {
      "id": "pt.ine.add.PTCONT.1756809",
      "street": "R CACADORES",
      "house": "G",
      "postcode": "8200-568",
      "city": "FERREIRAS",
      "lon": "-8.253117772295035",
      "lat": "37.130210026777185"
    },
    {
      "id": "pt.ine.add.PTCONT.1764028",
      "street": "AV MALHADA VELHA SOLAR DAS LAGOAS I",
      "house": "N",
      "postcode": "8200-553",
      "city": "FERREIRAS",
      "lon": "-8.250888343453626",
      "lat": "37.12943734932079"
    },
    {
      "id": "pt.ine.add.PTCONT.1765275",
      "street": "AV MALHADA VELHA",
      "house": "",
      "postcode": "8200-553",
      "city": "FERREIRAS",
      "lon": "-8.253015764182152",
      "lat": "37.12975058834557"
    },
    {
      "id": "pt.ine.add.PTCONT.1778070",
      "street": "R CACADORES",
      "house": "J",
      "postcode": "8200-568",
      "city": "FERREIRAS",
      "lon": "-8.253005562485514",
      "lat": "37.13041738458118"
    },
    {
      "id": "pt.ine.add.PTCONT.1783578",
      "street": "AV MALHADA VELHA",
      "house": "331 A",
      "postcode": "8200-553",
      "city": "FERREIRAS",
      "lon": "-8.252013276743483",
      "lat": "37.1291659076887"
    },
    {
      "id": "pt.ine.add.PTCONT.1786743",
      "street": "AV MALHADA VELHA SOLAR DAS LAGOAS I",
      "house": "H",
      "postcode": "8200-553",
      "city": "FERREIRAS",
      "lon": "-8.251112687205653",
      "lat": "37.128968573874204"
    },
    {
      "id": "pt.ine.add.PTCONT.1786909",
      "street": "R CACADORES",
      "house": "N",
      "postcode": "8200-568",
      "city": "FERREIRAS",
      "lon": "-8.25288205572549",
      "lat": "37.13059772182736"
    },
    {
      "id": "pt.ine.add.PTCONT.1786917",
      "street": "R LAGOAS",
      "house": "",
      "postcode": "8200-568",
      "city": "FERREIRAS",
      "lon": "-8.252206252772968",
      "lat": "37.130228967273396"
    },
    {
      "id": "pt.ine.add.PTCONT.1789076",
      "street": "AV MALHADA VELHA",
      "house": "",
      "postcode": "8200-553",
      "city": "FERREIRAS",
      "lon": "-8.252948441449174",
      "lat": "37.12987680511403"
    },
    {
      "id": "pt.ine.add.PTCONT.1792842",
      "street": "AV MALHADA VELHA SOLAR DAS LAGOAS",
      "house": "J",
      "postcode": "8200-553",
      "city": "FERREIRAS",
      "lon": "-8.25103422033382",
      "lat": "37.12916688564361"
    },
    {
      "id": "pt.ine.add.PTCONT.1796407",
      "street": "AV MALHADA VELHA SOLAR DAS LAGOAS I",
      "house": "M",
      "postcode": "8200-553",
      "city": "FERREIRAS",
      "lon": "-8.250899471330595",
      "lat": "37.12935624266884"
    },
    {
      "id": "pt.ine.add.PTCONT.1801554",
      "street": "AV MALHADA VELHA",
      "house": "14",
      "postcode": "8200-553",
      "city": "FERREIRAS",
      "lon": "-8.252633920912912",
      "lat": "37.13024655808899"
    },
    {
      "id": "pt.ine.add.PTCONT.1801555",
      "street": "AV MALHADA VELHA CONDOMINIO D LEONOR",
      "house": "",
      "postcode": "8200-553",
      "city": "FERREIRAS",
      "lon": "-8.252633920912912",
      "lat": "37.13024655808899"
    },
    {
      "id": "pt.ine.add.PTCONT.1801556",
      "street": "AV MALHADA VELHA CONDOMINIO D LEONOR",
      "house": "",
      "postcode": "8200-553",
      "city": "FERREIRAS",
      "lon": "-8.252633920912912",
      "lat": "37.13024655808899"
    },
    {
      "id": "pt.ine.add.PTCONT.1805492",
      "street": "CAM PINHEIROS",
      "house": "",
      "postcode": "8200-568",
      "city": "FERREIRAS",
      "lon": "-8.250911520972714",
      "lat": "37.12986983611592"
    },
    {
      "id": "pt.ine.add.PTCONT.1835347",
      "street": "R CACADORES",
      "house": "L",
      "postcode": "8200-568",
      "city": "FERREIRAS",
      "lon": "-8.252971929267233",
      "lat": "37.13049851417202"
    },
    {
      "id": "pt.ine.add.PTCONT.1835994",
      "street": "AV MALHADA VELHA SOLAR DAS LAGOAS I",
      "house": "E",
      "postcode": "8200-553",
      "city": "FERREIRAS",
      "lon": "-8.251247392974431",
      "lat": "37.12875218477014"
    },
    {
      "id": "pt.ine.add.PTCONT.1840221",
      "street": "AV MALHADA VELHA",
      "house": "2",
      "postcode": "8200-553",
      "city": "FERREIRAS",
      "lon": "-8.252824793492213",
      "lat": "37.129967036252914"
    },
    {
      "id": "pt.ine.add.PTCONT.1843004",
      "street": "AV MALHADA VELHA",
      "house": "13",
      "postcode": "8200-553",
      "city": "FERREIRAS",
      "lon": "-8.252633920912912",
      "lat": "37.13024655808899"
    }
  ]
}