{
  "data": {
    "ilha": "Ilha da Madeira (Madeira)",
    "concelho": "Câmara de Lobos",
    "freguesia": "Jardim da Serra",
    "OBJECTID": 61,
    "BGRI2021": "31020500211",
    "DT21": "31",
    "DTMN21": "3102",
    "DTMNFR21": "310205",
    "DTMNFRSEC21": "310205002",
    "SECNUM21": "002",
    "SSNUM21": "11",
    "SECSSNUM21": "00211",
    "OBJECTID_1": 203516,
    "DT": "31",
    "CC": "02",
    "fr": "05",
    "SEC": "002",
    "SS": "11",
    "BGRI2021_1": "31020500211"
  },
  "addresses": [
    {
      "id": "pt.ine.add.MAD.2277",
      "street": "ESTR CORRIDA",
      "house": "75",
      "postcode": "9325-137",
      "city": "JARDIM DA SERRA",
      "lon": "-16.99004763990418",
      "lat": "32.70157546024385"
    },
    {
      "id": "pt.ine.add.MAD.2278",
      "street": "ESTR CORRIDA",
      "house": "77",
      "postcode": "9325-137",
      "city": "JARDIM DA SERRA",
      "lon": "-16.99010260789622",
      "lat": "32.701168754028465"
    },
    {
      "id": "pt.ine.add.MAD.2279",
      "street": "ESTR CORRIDA",
      "house": "71",
      "postcode": "9325-137",
      "city": "JARDIM DA SERRA",
      "lon": "-16.990214491121595",
      "lat": "32.70092347784376"
    },
    {
      "id": "pt.ine.add.MAD.2280",
      "street": "ENT N 1 DA ESTRADA DA CORRIDA",
      "house": "1",
      "postcode": "9325-137",
      "city": "JARDIM DA SERRA",
      "lon": "-16.99062192013168",
      "lat": "32.70053823169808"
    },
    {
      "id": "pt.ine.add.MAD.2281",
      "street": "ENT N 7 DA ESTRADA DA CORRIDA",
      "house": "10",
      "postcode": "9325-137",
      "city": "JARDIM DA SERRA",
      "lon": "-16.99161713490049",
      "lat": "32.70068476044511"
    },
    {
      "id": "pt.ine.add.MAD.2282",
      "street": "ENT N 7 DA ESTRADA DA CORRIDA",
      "house": "11",
      "postcode": "9325-137",
      "city": "JARDIM DA SERRA",
      "lon": "-16.991916241186082",
      "lat": "32.70118504620167"
    },
    {
      "id": "pt.ine.add.MAD.2283",
      "street": "ENT N 7 DA ESTRADA DA CORRIDA",
      "house": "I",
      "postcode": "9325-137",
      "city": "JARDIM DA SERRA",
      "lon": "-16.991077549152592",
      "lat": "32.69896177325174"
    },
    {
      "id": "pt.ine.add.MAD.3088",
      "street": "ENT N 6 DA ESTRADA DA CORRIDA",
      "house": "3",
      "postcode": "9325-137",
      "city": "JARDIM DA SERRA",
      "lon": "-16.991925678450265",
      "lat": "32.699209839376515"
    },
    {
      "id": "pt.ine.add.MAD.3089",
      "street": "ESTR CORRIDA",
      "house": "47",
      "postcode": "9325-137",
      "city": "JARDIM DA SERRA",
      "lon": "-16.99161070930073",
      "lat": "32.698475323611966"
    },
    {
      "id": "pt.ine.add.MAD.3090",
      "street": "ENT N 5 DA ESTRADA DA CORRIDA",
      "house": "1",
      "postcode": "9325-137",
      "city": "JARDIM DA SERRA",
      "lon": "-16.99170907293098",
      "lat": "32.698581983482946"
    },
    {
      "id": "pt.ine.add.MAD.3091",
      "street": "ENT N 5 DA ESTRADA DA CORRIDA",
      "house": "3",
      "postcode": "9325-137",
      "city": "JARDIM DA SERRA",
      "lon": "-16.991933180031943",
      "lat": "32.69858744188877"
    },
    {
      "id": "pt.ine.add.MAD.3092",
      "street": "ESTR DA CORRIDA - ENTRADA 4",
      "house": "2",
      "postcode": "9325-137",
      "city": "JARDIM DA SERRA",
      "lon": "-16.99204866144946",
      "lat": "32.69850444047936"
    },
    {
      "id": "pt.ine.add.MAD.4701",
      "street": "TV LOMBO",
      "house": "4",
      "postcode": "9325-229",
      "city": "JARDIM DA SERRA",
      "lon": "-16.995898389415657",
      "lat": "32.69703632952685"
    },
    {
      "id": "pt.ine.add.MAD.4703",
      "street": "VR CAMINHO NOVO",
      "house": "11",
      "postcode": "9325-227",
      "city": "JARDIM DA SERRA",
      "lon": "-16.99501304043067",
      "lat": "32.697032382302986"
    },
    {
      "id": "pt.ine.add.MAD.4704",
      "street": "VR CAMINHO NOVO",
      "house": "5",
      "postcode": "9325-227",
      "city": "JARDIM DA SERRA",
      "lon": "-16.994981885815747",
      "lat": "32.69659097042402"
    },
    {
      "id": "pt.ine.add.MAD.5487",
      "street": "VR CORREGO",
      "house": "4",
      "postcode": "9325-229",
      "city": "JARDIM DA SERRA",
      "lon": "-16.995276636147395",
      "lat": "32.69593694686661"
    },
    {
      "id": "pt.ine.add.MAD.5488",
      "street": "VR LOMBO DA ACHADA",
      "house": "4",
      "postcode": "9325-192",
      "city": "JARDIM DA SERRA",
      "lon": "-16.995831029716253",
      "lat": "32.69640610533376"
    },
    {
      "id": "pt.ine.add.MAD.5489",
      "street": "LG ACHADA CCI",
      "house": "CCI113",
      "postcode": "9325-131",
      "city": "JARDIM DA SERRA",
      "lon": "-16.995969835682356",
      "lat": "32.69641291436654"
    },
    {
      "id": "pt.ine.add.MAD.5490",
      "street": "VR LOMBO DA ACHADA",
      "house": "3",
      "postcode": "9325-192",
      "city": "JARDIM DA SERRA",
      "lon": "-16.995957567994218",
      "lat": "32.69634096148595"
    },
    {
      "id": "pt.ine.add.MAD.5491",
      "street": "VR CORREGO",
      "house": "23",
      "postcode": "9325-229",
      "city": "JARDIM DA SERRA",
      "lon": "-16.995794829157155",
      "lat": "32.69621729260843"
    },
    {
      "id": "pt.ine.add.MAD.5492",
      "street": "VR CORREGO",
      "house": "13",
      "postcode": "9325-229",
      "city": "JARDIM DA SERRA",
      "lon": "-16.996144263658216",
      "lat": "32.6961035079591"
    },
    {
      "id": "pt.ine.add.MAD.5493",
      "street": "CM ACHADA",
      "house": "7",
      "postcode": "9325-225",
      "city": "JARDIM DA SERRA",
      "lon": "-16.995892039493786",
      "lat": "32.69531389316903"
    },
    {
      "id": "pt.ine.add.MAD.6279",
      "street": "VR BARROS",
      "house": "13",
      "postcode": "9325-225",
      "city": "JARDIM DA SERRA",
      "lon": "-16.996405211670368",
      "lat": "32.69536885335947"
    },
    {
      "id": "pt.ine.add.MAD.7034",
      "street": "VR BARROS",
      "house": "9",
      "postcode": "9325-225",
      "city": "JARDIM DA SERRA",
      "lon": "-16.996556104271246",
      "lat": "32.69496061740407"
    },
    {
      "id": "pt.ine.add.MAD.7035",
      "street": "VR LUCAS",
      "house": "6",
      "postcode": "9325-226",
      "city": "JARDIM DA SERRA",
      "lon": "-16.997042930731013",
      "lat": "32.69479053152362"
    },
    {
      "id": "pt.ine.add.MAD.7036",
      "street": "1 IMPASSE DA VEREDA DO LUCAS",
      "house": "14",
      "postcode": "9325-226",
      "city": "JARDIM DA SERRA",
      "lon": "-16.996612805570464",
      "lat": "32.69559101096051"
    },
    {
      "id": "pt.ine.add.MAD.7037",
      "street": "VR ABERTA",
      "house": "56",
      "postcode": "9325-192",
      "city": "JARDIM DA SERRA",
      "lon": "-16.996960228392798",
      "lat": "32.69538707094541"
    },
    {
      "id": "pt.ine.add.MAD.7038",
      "street": "VR RIBEIRA CABRAL",
      "house": "",
      "postcode": "9325-214",
      "city": "JARDIM DA SERRA",
      "lon": "-16.997060803621128",
      "lat": "32.69559289507458"
    },
    {
      "id": "pt.ine.add.MAD.7039",
      "street": "VR ABERTA",
      "house": "43",
      "postcode": "9325-192",
      "city": "JARDIM DA SERRA",
      "lon": "-16.997825671766524",
      "lat": "32.69449848867543"
    },
    {
      "id": "pt.ine.add.MAD.7040",
      "street": "VR ABERTA",
      "house": "29",
      "postcode": "9325-192",
      "city": "JARDIM DA SERRA",
      "lon": "-16.99770198019528",
      "lat": "32.693733885236036"
    },
    {
      "id": "pt.ine.add.MAD.7041",
      "street": "VR ABERTA",
      "house": "25",
      "postcode": "9325-192",
      "city": "JARDIM DA SERRA",
      "lon": "-16.99780598483666",
      "lat": "32.693614987489525"
    },
    {
      "id": "pt.ine.add.MAD.7042",
      "street": "VR ABERTA",
      "house": "21",
      "postcode": "9325-192",
      "city": "JARDIM DA SERRA",
      "lon": "-16.99795163105668",
      "lat": "32.69345033357755"
    },
    {
      "id": "pt.ine.add.MAD.7043",
      "street": "2 IMPASSE DA VEREDA DO LUCAS",
      "house": "3",
      "postcode": "9325-226",
      "city": "JARDIM DA SERRA",
      "lon": "-16.997498774397602",
      "lat": "32.6946660299464"
    },
    {
      "id": "pt.ine.add.MAD.7824",
      "street": "VR ABREUS",
      "house": "10",
      "postcode": "9325-256",
      "city": "JARDIM DA SERRA",
      "lon": "-16.9974929822933",
      "lat": "32.69344862206924"
    },
    {
      "id": "pt.ine.add.MAD.7823",
      "street": "VR LOMBINHO",
      "house": "7",
      "postcode": "9325-240",
      "city": "JARDIM DA SERRA",
      "lon": "-16.997489149625228",
      "lat": "32.693755312808996"
    },
    {
      "id": "pt.ine.add.MAD.7825",
      "street": "VR ABERTA",
      "house": "24",
      "postcode": "9325-192",
      "city": "JARDIM DA SERRA",
      "lon": "-16.997540649996225",
      "lat": "32.693673325727325"
    },
    {
      "id": "pt.ine.add.MAD.8640",
      "street": "VR LOMBO DO CHOTE",
      "house": "9",
      "postcode": "9325-242",
      "city": "JARDIM DA SERRA",
      "lon": "-16.99784261943022",
      "lat": "32.69286586666448"
    },
    {
      "id": "pt.ine.add.MAD.8641",
      "street": "VR LOMBO DO CHOTE",
      "house": "3",
      "postcode": "9325-242",
      "city": "JARDIM DA SERRA",
      "lon": "-16.9978472545303",
      "lat": "32.692595237202156"
    },
    {
      "id": "pt.ine.add.MAD.8642",
      "street": "VR ABREUS",
      "house": "13",
      "postcode": "9325-256",
      "city": "JARDIM DA SERRA",
      "lon": "-16.99747930799056",
      "lat": "32.69331356208978"
    },
    {
      "id": "pt.ine.add.MAD.8643",
      "street": "ENT N 2 DA ESTRADA DO CHOTE",
      "house": "1",
      "postcode": "9325-140",
      "city": "JARDIM DA SERRA",
      "lon": "-16.99694120984343",
      "lat": "32.69309666959199"
    },
    {
      "id": "pt.ine.add.MAD.8644",
      "street": "ESTR CHOTE",
      "house": "20",
      "postcode": "9325-140",
      "city": "JARDIM DA SERRA",
      "lon": "-16.99720957393095",
      "lat": "32.69269558057487"
    },
    {
      "id": "pt.ine.add.MAD.8645",
      "street": "VR LOMBO DO CHOTE",
      "house": "2",
      "postcode": "9325-242",
      "city": "JARDIM DA SERRA",
      "lon": "-16.99772756788385",
      "lat": "32.69248892178732"
    },
    {
      "id": "pt.ine.add.MAD.8646",
      "street": "VR LOMBO DO CHOTE",
      "house": "",
      "postcode": "9325-242",
      "city": "JARDIM DA SERRA",
      "lon": "-16.997761545689517",
      "lat": "32.693056547266764"
    },
    {
      "id": "pt.ine.add.MAD.55566",
      "street": "LG ACHADA",
      "house": "",
      "postcode": "9325-131",
      "city": "JARDIM DA SERRA",
      "lon": "-16.996267767789682",
      "lat": "32.696381115861065"
    },
    {
      "id": "pt.ine.add.MAD.55569",
      "street": "VR ABERTA",
      "house": "17",
      "postcode": "9325-192",
      "city": "JARDIM DA SERRA",
      "lon": "-16.99781907183145",
      "lat": "32.693245019677356"
    },
    {
      "id": "pt.ine.add.MAD.55571",
      "street": "ENT 2 DA ESTRADA DO CHOTE",
      "house": "2",
      "postcode": "9325-140",
      "city": "JARDIM DA SERRA",
      "lon": "-16.997109585611845",
      "lat": "32.69299478430777"
    },
    {
      "id": "pt.ine.add.MAD.59805",
      "street": "1 IMPASSE DA VEREDA DO CORREGO",
      "house": "5",
      "postcode": "9325-229",
      "city": "JARDIM DA SERRA",
      "lon": "-16.99519125736508",
      "lat": "32.697372250381505"
    },
    {
      "id": "pt.ine.add.MAD.59808",
      "street": "CAM LOMBO CHOTE",
      "house": "10",
      "postcode": "9325-242",
      "city": "JARDIM DA SERRA",
      "lon": "-16.99754289204973",
      "lat": "32.6928165305622"
    },
    {
      "id": "pt.ine.add.MAD.59809",
      "street": "VR LOMBO DO CHOTE",
      "house": "10",
      "postcode": "9325-242",
      "city": "JARDIM DA SERRA",
      "lon": "-16.99766036945877",
      "lat": "32.69282367761112"
    },
    {
      "id": "pt.ine.add.MAD.61877",
      "street": "ESTR CHOTE",
      "house": "18",
      "postcode": "9325-140",
      "city": "JARDIM DA SERRA",
      "lon": "-16.997062321036974",
      "lat": "32.692788111055364"
    },
    {
      "id": "pt.ine.add.MAD.64348",
      "street": "ENT N 7 DA ESTRADA DA CORRIDA",
      "house": "7",
      "postcode": "9325-137",
      "city": "JARDIM DA SERRA",
      "lon": "-16.991463900937102",
      "lat": "32.700028842067375"
    },
    {
      "id": "pt.ine.add.MAD.64512",
      "street": "ENT N 6 DA ESTRADA DA CORRIDA",
      "house": "3",
      "postcode": "9325-137",
      "city": "JARDIM DA SERRA",
      "lon": "-16.99199871182379",
      "lat": "32.69913653088301"
    },
    {
      "id": "pt.ine.add.MAD.64515",
      "street": "ESTR EIRA DAS MOCAS",
      "house": "18",
      "postcode": "9325-141",
      "city": "JARDIM DA SERRA",
      "lon": "-17.000197796979048",
      "lat": "32.69469515320948"
    },
    {
      "id": "pt.ine.add.MAD.66621",
      "street": "ENT N 1 DA ESTRADA DA CORRIDA",
      "house": "3",
      "postcode": "9325-137",
      "city": "JARDIM DA SERRA",
      "lon": "-16.9908281112303",
      "lat": "32.70069729136867"
    },
    {
      "id": "pt.ine.add.MAD.66623",
      "street": "ESTR EIRA DAS MOCAS",
      "house": "16",
      "postcode": "9325-141",
      "city": "JARDIM DA SERRA",
      "lon": "-16.999184747594686",
      "lat": "32.69374632779831"
    },
    {
      "id": "pt.ine.add.MAD.66624",
      "street": "LG CHOTE",
      "house": "6",
      "postcode": "9325-132",
      "city": "JARDIM DA SERRA",
      "lon": "-16.99792772506514",
      "lat": "32.6923775105945"
    },
    {
      "id": "pt.ine.add.MAD.66625",
      "street": "ESTR CHOTE",
      "house": "14",
      "postcode": "9325-140",
      "city": "JARDIM DA SERRA",
      "lon": "-16.996927134872987",
      "lat": "32.692943578861446"
    },
    {
      "id": "pt.ine.add.MAD.69533",
      "street": "ESTR CORRIDA",
      "house": "61",
      "postcode": "9325-137",
      "city": "JARDIM DA SERRA",
      "lon": "-16.990456029388735",
      "lat": "32.69979232756265"
    },
    {
      "id": "pt.ine.add.MAD.69718",
      "street": "VR BOTO",
      "house": "2",
      "postcode": "9325-226",
      "city": "JARDIM DA SERRA",
      "lon": "-16.996737354281457",
      "lat": "32.69495773128702"
    },
    {
      "id": "pt.ine.add.MAD.69719",
      "street": "VR ABERTA",
      "house": "41",
      "postcode": "9325-192",
      "city": "JARDIM DA SERRA",
      "lon": "-16.99795401400321",
      "lat": "32.69451448080773"
    },
    {
      "id": "pt.ine.add.MAD.72210",
      "street": "1 IMPASSE DA VEREDA DO LUCAS",
      "house": "6",
      "postcode": "9325-226",
      "city": "JARDIM DA SERRA",
      "lon": "-16.996730507438617",
      "lat": "32.69512919219886"
    },
    {
      "id": "pt.ine.add.MAD.77198",
      "street": "ENT N 8 DA ESTRADA DA CORRIDA",
      "house": "",
      "postcode": "9325-137",
      "city": "JARDIM DA SERRA",
      "lon": "-16.990990550000365",
      "lat": "32.699846970486576"
    },
    {
      "id": "pt.ine.add.MAD.77199",
      "street": "ESTR CORRIDA",
      "house": "49",
      "postcode": "9325-137",
      "city": "JARDIM DA SERRA",
      "lon": "-16.991549740375547",
      "lat": "32.698611569947055"
    },
    {
      "id": "pt.ine.add.MAD.77200",
      "street": "CM ACHADA",
      "house": "43",
      "postcode": "9325-225",
      "city": "JARDIM DA SERRA",
      "lon": "-16.993712910243087",
      "lat": "32.696602135546684"
    },
    {
      "id": "pt.ine.add.MAD.85129",
      "street": "ESTR CORRIDA",
      "house": "81",
      "postcode": "9325-137",
      "city": "JARDIM DA SERRA",
      "lon": "-16.98983298699446",
      "lat": "32.701515737422824"
    },
    {
      "id": "pt.ine.add.MAD.85130",
      "street": "VR MAROUCO",
      "house": "1",
      "postcode": "9325-246",
      "city": "JARDIM DA SERRA",
      "lon": "-16.994820492494373",
      "lat": "32.697486371848434"
    },
    {
      "id": "pt.ine.add.MAD.85131",
      "street": "VR VELHINHO",
      "house": "2",
      "postcode": "9325-255",
      "city": "JARDIM DA SERRA",
      "lon": "-16.995038205080856",
      "lat": "32.69672535217149"
    },
    {
      "id": "pt.ine.add.MAD.93833",
      "street": "ENT N 1 DA ESTRADA DA CORRIDA",
      "house": "2",
      "postcode": "9325-137",
      "city": "JARDIM DA SERRA",
      "lon": "-16.99065731123502",
      "lat": "32.70069098475747"
    },
    {
      "id": "pt.ine.add.MAD.93834",
      "street": "VR DEPOSITO",
      "house": "5",
      "postcode": "9325-231",
      "city": "JARDIM DA SERRA",
      "lon": "-16.995281168997057",
      "lat": "32.697578245608135"
    },
    {
      "id": "pt.ine.add.MAD.93835",
      "street": "CM ACHADA",
      "house": "23A",
      "postcode": "9325-225",
      "city": "JARDIM DA SERRA",
      "lon": "-16.994993780534937",
      "lat": "32.69616691061885"
    },
    {
      "id": "pt.ine.add.MAD.97169",
      "street": "VR LUCAS",
      "house": "3",
      "postcode": "9325-226",
      "city": "JARDIM DA SERRA",
      "lon": "-16.99717691433687",
      "lat": "32.694580971609724"
    },
    {
      "id": "pt.ine.add.MAD.98107",
      "street": "CM ACHADA",
      "house": "21",
      "postcode": "9325-225",
      "city": "JARDIM DA SERRA",
      "lon": "-16.995097992169377",
      "lat": "32.69605703024455"
    },
    {
      "id": "pt.ine.add.MAD.98990",
      "street": "ENT N 7 DA ESTRADA DA CORRIDA",
      "house": "3",
      "postcode": "9325-137",
      "city": "JARDIM DA SERRA",
      "lon": "-16.991176112994324",
      "lat": "32.69907744888479"
    },
    {
      "id": "pt.ine.add.MAD.100519",
      "street": "VR LOMBO DO CHOTE",
      "house": "1",
      "postcode": "9325-242",
      "city": "JARDIM DA SERRA",
      "lon": "-16.997855304574173",
      "lat": "32.6924778681765"
    },
    {
      "id": "pt.ine.add.MAD.101731",
      "street": "2 IMPASSE DA VEREDA DO LUCAS",
      "house": "5",
      "postcode": "9325-226",
      "city": "JARDIM DA SERRA",
      "lon": "-16.99761524988038",
      "lat": "32.6946281003484"
    },
    {
      "id": "pt.ine.add.MAD.102568",
      "street": "ENT N 3 DA ESTRADA DA CORRIDA",
      "house": "3",
      "postcode": "9325-137",
      "city": "JARDIM DA SERRA",
      "lon": "-16.992050352632724",
      "lat": "32.69762059796038"
    },
    {
      "id": "pt.ine.add.MAD.102775",
      "street": "VR LOMBO DO CHOTE",
      "house": "18",
      "postcode": "9325-242",
      "city": "JARDIM DA SERRA",
      "lon": "-16.997938960534178",
      "lat": "32.69336035026789"
    },
    {
      "id": "pt.ine.add.MAD.102992",
      "street": "VR CORREGO",
      "house": "15",
      "postcode": "9325-229",
      "city": "JARDIM DA SERRA",
      "lon": "-16.996414224204603",
      "lat": "32.69625252481209"
    },
    {
      "id": "pt.ine.add.MAD.106423",
      "street": "ESTR CORRIDA",
      "house": "23",
      "postcode": "9325-137",
      "city": "JARDIM DA SERRA",
      "lon": "-16.990908354317565",
      "lat": "32.699027589644444"
    },
    {
      "id": "pt.ine.add.MAD.106988",
      "street": "VR CORREGO",
      "house": "3",
      "postcode": "9325-229",
      "city": "JARDIM DA SERRA",
      "lon": "-16.99560595063333",
      "lat": "32.69587759501683"
    },
    {
      "id": "pt.ine.add.MAD.107164",
      "street": "VR CORREGO",
      "house": "19",
      "postcode": "9325-229",
      "city": "JARDIM DA SERRA",
      "lon": "-16.996115489660493",
      "lat": "32.69624826235014"
    },
    {
      "id": "pt.ine.add.MAD.107585",
      "street": "VR DEPÓSITO",
      "house": "8",
      "postcode": "9325-231",
      "city": "JARDIM DA SERRA",
      "lon": "-16.994916020895364",
      "lat": "32.69794479657213"
    },
    {
      "id": "pt.ine.add.MAD.108260",
      "street": "ESTR CORRIDA",
      "house": "85",
      "postcode": "9325-137",
      "city": "JARDIM DA SERRA",
      "lon": "-16.98943341141214",
      "lat": "32.7017745971167"
    },
    {
      "id": "pt.ine.add.MAD.108261",
      "street": "ESTR CORRIDA",
      "house": "73",
      "postcode": "9325-137",
      "city": "JARDIM DA SERRA",
      "lon": "-16.990371173456392",
      "lat": "32.70125467613958"
    },
    {
      "id": "pt.ine.add.MAD.108262",
      "street": "ESTR CORRIDA",
      "house": "67",
      "postcode": "9325-137",
      "city": "JARDIM DA SERRA",
      "lon": "-16.990281321656333",
      "lat": "32.7005706944066"
    },
    {
      "id": "pt.ine.add.MAD.108263",
      "street": "ENT N 9 DA ESTRADA DA CORRIDA",
      "house": "4",
      "postcode": "9325-137",
      "city": "JARDIM DA SERRA",
      "lon": "-16.990763586045748",
      "lat": "32.70019327839861"
    },
    {
      "id": "pt.ine.add.MAD.108264",
      "street": "ENT N 9 DA ESTRADA DA CORRIDA",
      "house": "3",
      "postcode": "9325-137",
      "city": "JARDIM DA SERRA",
      "lon": "-16.990744864102506",
      "lat": "32.70031081651429"
    },
    {
      "id": "pt.ine.add.MAD.108314",
      "street": "ESTR CORRIDA",
      "house": "43",
      "postcode": "9325-137",
      "city": "JARDIM DA SERRA",
      "lon": "-16.991682540552986",
      "lat": "32.698347923232724"
    },
    {
      "id": "pt.ine.add.MAD.108315",
      "street": "ESTR CORRIDA",
      "house": "39",
      "postcode": "9325-137",
      "city": "JARDIM DA SERRA",
      "lon": "-16.991689797588347",
      "lat": "32.698194492987845"
    },
    {
      "id": "pt.ine.add.MAD.108316",
      "street": "ENT N 4 DA ESTRADA DA CORRIDA",
      "house": "1",
      "postcode": "9325-137",
      "city": "JARDIM DA SERRA",
      "lon": "-16.991838867811786",
      "lat": "32.698183106442684"
    },
    {
      "id": "pt.ine.add.MAD.108317",
      "street": "ESTR CORRIDA",
      "house": "29",
      "postcode": "9325-137",
      "city": "JARDIM DA SERRA",
      "lon": "-16.99173474168142",
      "lat": "32.69733701888484"
    },
    {
      "id": "pt.ine.add.MAD.108400",
      "street": "VR MAROUCO",
      "house": "3",
      "postcode": "9325-246",
      "city": "JARDIM DA SERRA",
      "lon": "-16.99470441324014",
      "lat": "32.69754232968345"
    },
    {
      "id": "pt.ine.add.MAD.108401",
      "street": "VR VELHINHO",
      "house": "7",
      "postcode": "9325-255",
      "city": "JARDIM DA SERRA",
      "lon": "-16.99547514574846",
      "lat": "32.69670938072122"
    },
    {
      "id": "pt.ine.add.MAD.108593",
      "street": "VR LOMBINHO",
      "house": "1",
      "postcode": "9325-240",
      "city": "JARDIM DA SERRA",
      "lon": "-16.996966328699752",
      "lat": "32.69374560312102"
    },
    {
      "id": "pt.ine.add.MAD.108663",
      "street": "VR LOMBO DO CHOTE",
      "house": "11",
      "postcode": "9325-242",
      "city": "JARDIM DA SERRA",
      "lon": "-16.997845030003393",
      "lat": "32.69297405050092"
    },
    {
      "id": "pt.ine.add.MAD.108726",
      "street": "ESTR EIRA MOCAS",
      "house": "5",
      "postcode": "9325-141",
      "city": "JARDIM DA SERRA",
      "lon": "-16.997952463065474",
      "lat": "32.69253043129182"
    },
    {
      "id": "pt.ine.add.MAD.108727",
      "street": "ESTR EIRA DAS MOCAS",
      "house": "2",
      "postcode": "9325-141",
      "city": "JARDIM DA SERRA",
      "lon": "-16.998038357500615",
      "lat": "32.69255611824906"
    },
    {
      "id": "pt.ine.add.MAD.108728",
      "street": "ESTR EIRA DAS MOCAS",
      "house": "4",
      "postcode": "9325-141",
      "city": "JARDIM DA SERRA",
      "lon": "-16.99793475610736",
      "lat": "32.69269304678667"
    },
    {
      "id": "pt.ine.add.MAD.108729",
      "street": "ESTR EIRA MOCAS",
      "house": "",
      "postcode": "9325-141",
      "city": "JARDIM DA SERRA",
      "lon": "-16.99830648927155",
      "lat": "32.69310197525301"
    },
    {
      "id": "pt.ine.add.MAD.108730",
      "street": "ESTR EIRA MOCAS",
      "house": "",
      "postcode": "9325-141",
      "city": "JARDIM DA SERRA",
      "lon": "-16.998770763452715",
      "lat": "32.693356112649454"
    },
    {
      "id": "pt.ine.add.MAD.108731",
      "street": "ESTR EIRA DAS MOCAS",
      "house": "14",
      "postcode": "9325-141",
      "city": "JARDIM DA SERRA",
      "lon": "-16.998867722434756",
      "lat": "32.693399659677034"
    },
    {
      "id": "pt.ine.add.MAD.108732",
      "street": "ESTR CHOTE",
      "house": "10",
      "postcode": "9325-140",
      "city": "JARDIM DA SERRA",
      "lon": "-16.996886075230446",
      "lat": "32.69349436258042"
    },
    {
      "id": "pt.ine.add.MAD.108733",
      "street": "ENT N 2 DA ESTRADA DO CHOTE",
      "house": "3",
      "postcode": "9325-140",
      "city": "JARDIM DA SERRA",
      "lon": "-16.997200500734706",
      "lat": "32.693245854906785"
    },
    {
      "id": "pt.ine.add.MAD.111788",
      "street": "ESTR CORRIDA",
      "house": "33",
      "postcode": "9325-137",
      "city": "JARDIM DA SERRA",
      "lon": "-16.99168824138436",
      "lat": "32.697644387496304"
    },
    {
      "id": "pt.ine.add.MAD.112009",
      "street": "ESTR CORRIDA",
      "house": "37",
      "postcode": "9325-137",
      "city": "JARDIM DA SERRA",
      "lon": "-16.991771489447864",
      "lat": "32.698030861817045"
    },
    {
      "id": "pt.ine.add.MAD.112181",
      "street": "LG ACHADA CCI",
      "house": "CCI118",
      "postcode": "9325-131",
      "city": "JARDIM DA SERRA",
      "lon": "-16.994933131997982",
      "lat": "32.69775513539295"
    },
    {
      "id": "pt.ine.add.MAD.112333",
      "street": "ESTR CORRIDA",
      "house": "91",
      "postcode": "9325-137",
      "city": "JARDIM DA SERRA",
      "lon": "-16.989188971388277",
      "lat": "32.701814549657385"
    },
    {
      "id": "pt.ine.add.MAD.112495",
      "street": "VR MAROUCO",
      "house": "15",
      "postcode": "9325-246",
      "city": "JARDIM DA SERRA",
      "lon": "-16.99426158706912",
      "lat": "32.69825281835414"
    },
    {
      "id": "pt.ine.add.MAD.112670",
      "street": "ESTR CORRIDA",
      "house": "Y7",
      "postcode": "9325-137",
      "city": "JARDIM DA SERRA",
      "lon": "-16.989371436652785",
      "lat": "32.70186576577305"
    },
    {
      "id": "pt.ine.add.MAD.112677",
      "street": "CM ACHADA",
      "house": "3",
      "postcode": "9325-225",
      "city": "JARDIM DA SERRA",
      "lon": "-16.996223782875973",
      "lat": "32.69488474171816"
    },
    {
      "id": "pt.ine.add.MAD.112829",
      "street": "VR ABERTA",
      "house": "14",
      "postcode": "9325-192",
      "city": "JARDIM DA SERRA",
      "lon": "-16.998025673157482",
      "lat": "32.692944116720646"
    },
    {
      "id": "pt.ine.add.MAD.113167",
      "street": "ENT N 8 DA ESTRADA DA CORRIDA",
      "house": "2",
      "postcode": "9325-137",
      "city": "JARDIM DA SERRA",
      "lon": "-16.990753374671733",
      "lat": "32.69973349562387"
    },
    {
      "id": "pt.ine.add.MAD.113258",
      "street": "ENT N 6 DA ESTRADA DA CORRIDA",
      "house": "1",
      "postcode": "9325-137",
      "city": "JARDIM DA SERRA",
      "lon": "-16.991768593826652",
      "lat": "32.69886061231743"
    },
    {
      "id": "pt.ine.add.MAD.113268",
      "street": "ESTR EIRA DAS MOCAS",
      "house": "8",
      "postcode": "9325-141",
      "city": "JARDIM DA SERRA",
      "lon": "-16.998236291510608",
      "lat": "32.69282351982013"
    },
    {
      "id": "pt.ine.add.MAD.113269",
      "street": "ESTR CHOTE",
      "house": "16",
      "postcode": "9325-140",
      "city": "JARDIM DA SERRA",
      "lon": "-16.996989899242944",
      "lat": "32.69288846818165"
    },
    {
      "id": "pt.ine.add.MAD.113634",
      "street": "ESTR CORRIDA",
      "house": "63",
      "postcode": "9325-137",
      "city": "JARDIM DA SERRA",
      "lon": "-16.990417984192455",
      "lat": "32.70000035768706"
    },
    {
      "id": "pt.ine.add.MAD.113635",
      "street": "ENT N 7 DA ESTRADA DA CORRIDA",
      "house": "8",
      "postcode": "9325-137",
      "city": "JARDIM DA SERRA",
      "lon": "-16.99127738515375",
      "lat": "32.700275304624064"
    },
    {
      "id": "pt.ine.add.MAD.113810",
      "street": "VR VELHINHO",
      "house": "6",
      "postcode": "9325-255",
      "city": "JARDIM DA SERRA",
      "lon": "-16.995261504809342",
      "lat": "32.69669474348399"
    },
    {
      "id": "pt.ine.add.MAD.114088",
      "street": "ESTR CORRIDA",
      "house": "59",
      "postcode": "9325-137",
      "city": "JARDIM DA SERRA",
      "lon": "-16.99051700071219",
      "lat": "32.6996560816884"
    },
    {
      "id": "pt.ine.add.MAD.114306",
      "street": "ESTR VEREDA DO LOMBO DO CHOTE",
      "house": "8",
      "postcode": "9325-140",
      "city": "JARDIM DA SERRA",
      "lon": "-16.99861380347233",
      "lat": "32.69588379905124"
    },
    {
      "id": "pt.ine.add.MAD.114499",
      "street": "CAM LOMBO CHOTE",
      "house": "10",
      "postcode": "9325-242",
      "city": "JARDIM DA SERRA",
      "lon": "-16.998603141609877",
      "lat": "32.6958839689938"
    },
    {
      "id": "pt.ine.add.MAD.114718",
      "street": "ENT N 2 DA ESTRADA DO CHOTE",
      "house": "4",
      "postcode": "9325-140",
      "city": "JARDIM DA SERRA",
      "lon": "-16.997262060183363",
      "lat": "32.693136652155594"
    },
    {
      "id": "pt.ine.add.MAD.114734",
      "street": "VR VELHINHO",
      "house": "3",
      "postcode": "9325-255",
      "city": "JARDIM DA SERRA",
      "lon": "-16.99519572713",
      "lat": "32.69661462347845"
    },
    {
      "id": "pt.ine.add.MAD.115056",
      "street": "VR ABREUS",
      "house": "2",
      "postcode": "9325-256",
      "city": "JARDIM DA SERRA",
      "lon": "-16.99708039353795",
      "lat": "32.693599490176126"
    },
    {
      "id": "pt.ine.add.MAD.117315",
      "street": "ESTR CHOTE",
      "house": "",
      "postcode": "9325-140",
      "city": "JARDIM DA SERRA",
      "lon": "-16.99861380347233",
      "lat": "32.69588379905124"
    },
    {
      "id": "pt.ine.add.MAD.119503",
      "street": "VR CORREGO",
      "house": "12",
      "postcode": "9325-229",
      "city": "JARDIM DA SERRA",
      "lon": "-16.995394893303228",
      "lat": "32.696458139278185"
    },
    {
      "id": "pt.ine.add.MAD.119612",
      "street": "VR MAROUCO",
      "house": "11",
      "postcode": "9325-246",
      "city": "JARDIM DA SERRA",
      "lon": "-16.99455370896158",
      "lat": "32.69795957907745"
    },
    {
      "id": "pt.ine.add.MAD.124389",
      "street": "ENT N 7 DA ESTRADA DA CORRIDA",
      "house": "5",
      "postcode": "9325-137",
      "city": "JARDIM DA SERRA",
      "lon": "-16.991868716180715",
      "lat": "32.69952639271461"
    },
    {
      "id": "pt.ine.add.MAD.124397",
      "street": "CM ACHADA",
      "house": "51",
      "postcode": "9325-225",
      "city": "JARDIM DA SERRA",
      "lon": "-16.99299190386277",
      "lat": "32.696793968296284"
    },
    {
      "id": "pt.ine.add.MAD.124449",
      "street": "VR RIBEIRA CABRAL",
      "house": "",
      "postcode": "9325-214",
      "city": "JARDIM DA SERRA",
      "lon": "-16.99716440950095",
      "lat": "32.69545596713699"
    },
    {
      "id": "pt.ine.add.MAD.125148",
      "street": "ESTR CORRIDA",
      "house": "69",
      "postcode": "9325-137",
      "city": "JARDIM DA SERRA",
      "lon": "-16.99022155047041",
      "lat": "32.7007610322876"
    },
    {
      "id": "pt.ine.add.MAD.125316",
      "street": "ENT N 7 DA ESTRADA DA CORRIDA",
      "house": "2",
      "postcode": "9325-137",
      "city": "JARDIM DA SERRA",
      "lon": "-16.991313521131787",
      "lat": "32.69902115549646"
    },
    {
      "id": "pt.ine.add.MAD.125343",
      "street": "VR LUCAS",
      "house": "5",
      "postcode": "9325-226",
      "city": "JARDIM DA SERRA",
      "lon": "-16.997274476480094",
      "lat": "32.69465156580203"
    },
    {
      "id": "pt.ine.add.MAD.125545",
      "street": "VR CORREGO",
      "house": "27",
      "postcode": "9325-229",
      "city": "JARDIM DA SERRA",
      "lon": "-16.996009673325844",
      "lat": "32.69628602092833"
    },
    {
      "id": "pt.ine.add.MAD.125959",
      "street": "VR BOTO",
      "house": "1",
      "postcode": "9325-226",
      "city": "JARDIM DA SERRA",
      "lon": "-16.9968198372858",
      "lat": "32.6948301585088"
    },
    {
      "id": "pt.ine.add.MAD.126475",
      "street": "1 IMPASSE DA VEREDA DO LUCAS",
      "house": "7",
      "postcode": "9325-226",
      "city": "JARDIM DA SERRA",
      "lon": "-16.996838530864423",
      "lat": "32.69519060161282"
    },
    {
      "id": "pt.ine.add.MAD.127018",
      "street": "VR LOMBINHO",
      "house": "1",
      "postcode": "9325-240",
      "city": "JARDIM DA SERRA",
      "lon": "-16.996966328699752",
      "lat": "32.69374560312102"
    },
    {
      "id": "pt.ine.add.MAD.127059",
      "street": "VR LUCAS",
      "house": "7 A",
      "postcode": "9325-226",
      "city": "JARDIM DA SERRA",
      "lon": "-16.99723403874837",
      "lat": "32.6947514136145"
    },
    {
      "id": "pt.ine.add.MAD.127172",
      "street": "VR LOMBINHO",
      "house": "3",
      "postcode": "9325-240",
      "city": "JARDIM DA SERRA",
      "lon": "-16.997126654605",
      "lat": "32.69376108676631"
    },
    {
      "id": "pt.ine.add.MAD.128169",
      "street": "ESTR EIRA DAS MOCAS",
      "house": "26",
      "postcode": "9325-141",
      "city": "JARDIM DA SERRA",
      "lon": "-17.00054017901905",
      "lat": "32.693309858737344"
    },
    {
      "id": "pt.ine.add.MAD.129647",
      "street": "VR LUCAS",
      "house": "10",
      "postcode": "9325-226",
      "city": "JARDIM DA SERRA",
      "lon": "-16.997217133595253",
      "lat": "32.69495009030236"
    },
    {
      "id": "pt.ine.add.MAD.129747",
      "street": "ENT N 3 DA ESTRADA DA CORRIDA",
      "house": "2",
      "postcode": "9325-137",
      "city": "JARDIM DA SERRA",
      "lon": "-16.991973914906357",
      "lat": "32.69754064558251"
    }
  ]
}