{
  "data": {
    "distrito": "Braga",
    "concelho": "Vila Nova de Famalicão",
    "freguesia": "Riba de Ave",
    "OBJECTID": 1441,
    "BGRI2021": "03123400105",
    "DT21": "03",
    "DTMN21": "0312",
    "DTMNFR21": "031234",
    "DTMNFRSEC21": "031234001",
    "SECNUM21": "001",
    "SSNUM21": "05",
    "SECSSNUM21": "00105",
    "OBJECTID_1": 30470,
    "DT": "03",
    "CC": "12",
    "fr": "34",
    "SEC": "001",
    "SS": "05"
  },
  "addresses": [
    {
      "id": "pt.ine.add.PTCONT.481800",
      "street": "R 25 DE ABRIL",
      "house": "BL 1",
      "postcode": "4765-264",
      "city": "RIBA DE AVE",
      "lon": "-8.386190312221384",
      "lat": "41.39339974897142"
    },
    {
      "id": "pt.ine.add.PTCONT.481801",
      "street": "R 25 DE ABRIL",
      "house": "BL 1",
      "postcode": "4765-264",
      "city": "RIBA DE AVE",
      "lon": "-8.386190312221384",
      "lat": "41.39339974897142"
    },
    {
      "id": "pt.ine.add.PTCONT.481802",
      "street": "R 25 DE ABRIL",
      "house": "BL 1",
      "postcode": "4765-264",
      "city": "RIBA DE AVE",
      "lon": "-8.386190312221384",
      "lat": "41.39339974897142"
    },
    {
      "id": "pt.ine.add.PTCONT.481803",
      "street": "R 25 DE ABRIL",
      "house": "BL 1",
      "postcode": "4765-264",
      "city": "RIBA DE AVE",
      "lon": "-8.386190312221384",
      "lat": "41.39339974897142"
    },
    {
      "id": "pt.ine.add.PTCONT.481804",
      "street": "R 25 DE ABRIL",
      "house": "BL 1",
      "postcode": "4765-264",
      "city": "RIBA DE AVE",
      "lon": "-8.386190312221384",
      "lat": "41.39339974897142"
    },
    {
      "id": "pt.ine.add.PTCONT.481805",
      "street": "R 25 DE ABRIL",
      "house": "BL 1",
      "postcode": "4765-264",
      "city": "RIBA DE AVE",
      "lon": "-8.386190312221384",
      "lat": "41.39339974897142"
    },
    {
      "id": "pt.ine.add.PTCONT.481806",
      "street": "R 25 ABRIL",
      "house": "",
      "postcode": "4765-264",
      "city": "RIBA DE AVE",
      "lon": "-8.386190312221384",
      "lat": "41.39339974897142"
    },
    {
      "id": "pt.ine.add.PTCONT.481807",
      "street": "R 25 DE ABRIL",
      "house": "BL 1",
      "postcode": "4765-264",
      "city": "RIBA DE AVE",
      "lon": "-8.386190312221384",
      "lat": "41.39339974897142"
    },
    {
      "id": "pt.ine.add.PTCONT.481808",
      "street": "R 25 DE ABRIL",
      "house": "BL 1",
      "postcode": "4765-264",
      "city": "RIBA DE AVE",
      "lon": "-8.386190312221384",
      "lat": "41.39339974897142"
    },
    {
      "id": "pt.ine.add.PTCONT.490742",
      "street": "R 25 DE ABRIL",
      "house": "",
      "postcode": "4765-264",
      "city": "RIBA DE AVE",
      "lon": "-8.38541405413084",
      "lat": "41.39364456185628"
    },
    {
      "id": "pt.ine.add.PTCONT.490743",
      "street": "R 25 DE ABRIL",
      "house": "",
      "postcode": "4765-264",
      "city": "RIBA DE AVE",
      "lon": "-8.38541405413084",
      "lat": "41.39364456185628"
    },
    {
      "id": "pt.ine.add.PTCONT.490744",
      "street": "R 25 DE ABRIL",
      "house": "",
      "postcode": "4765-264",
      "city": "RIBA DE AVE",
      "lon": "-8.38541405413084",
      "lat": "41.39364456185628"
    },
    {
      "id": "pt.ine.add.PTCONT.490745",
      "street": "R 25 DE ABRIL",
      "house": "",
      "postcode": "4765-264",
      "city": "RIBA DE AVE",
      "lon": "-8.38541405413084",
      "lat": "41.39364456185628"
    },
    {
      "id": "pt.ine.add.PTCONT.526633",
      "street": "R 25 DE ABRIL",
      "house": "BL 2",
      "postcode": "4765-264",
      "city": "RIBA DE AVE",
      "lon": "-8.38640532658863",
      "lat": "41.39334525182222"
    },
    {
      "id": "pt.ine.add.PTCONT.526634",
      "street": "R 25 DE ABRIL",
      "house": "BL 2",
      "postcode": "4765-264",
      "city": "RIBA DE AVE",
      "lon": "-8.38640532658863",
      "lat": "41.39334525182222"
    },
    {
      "id": "pt.ine.add.PTCONT.526635",
      "street": "R 25 DE ABRIL",
      "house": "BL 2",
      "postcode": "4765-264",
      "city": "RIBA DE AVE",
      "lon": "-8.38640532658863",
      "lat": "41.39334525182222"
    },
    {
      "id": "pt.ine.add.PTCONT.526636",
      "street": "R 25 DE ABRIL",
      "house": "BL 2",
      "postcode": "4765-264",
      "city": "RIBA DE AVE",
      "lon": "-8.38640532658863",
      "lat": "41.39334525182222"
    },
    {
      "id": "pt.ine.add.PTCONT.526637",
      "street": "R 25 DE ABRIL",
      "house": "BL 2",
      "postcode": "4765-264",
      "city": "RIBA DE AVE",
      "lon": "-8.38640532658863",
      "lat": "41.39334525182222"
    },
    {
      "id": "pt.ine.add.PTCONT.526638",
      "street": "R 25 DE ABRIL",
      "house": "BL 2",
      "postcode": "4765-264",
      "city": "RIBA DE AVE",
      "lon": "-8.38640532658863",
      "lat": "41.39334525182222"
    },
    {
      "id": "pt.ine.add.PTCONT.526639",
      "street": "R 25 DE ABRIL",
      "house": "BL 2",
      "postcode": "4765-264",
      "city": "RIBA DE AVE",
      "lon": "-8.38640532658863",
      "lat": "41.39334525182222"
    },
    {
      "id": "pt.ine.add.PTCONT.526640",
      "street": "R 25 DE ABRIL",
      "house": "BL 2",
      "postcode": "4765-264",
      "city": "RIBA DE AVE",
      "lon": "-8.38640532658863",
      "lat": "41.39334525182222"
    },
    {
      "id": "pt.ine.add.PTCONT.526641",
      "street": "R 25 ABRIL",
      "house": "",
      "postcode": "4765-264",
      "city": "RIBA DE AVE",
      "lon": "-8.38640532658863",
      "lat": "41.39334525182222"
    },
    {
      "id": "pt.ine.add.PTCONT.526642",
      "street": "R 25 DE ABRIL",
      "house": "BL 2",
      "postcode": "4765-264",
      "city": "RIBA DE AVE",
      "lon": "-8.38640532658863",
      "lat": "41.39334525182222"
    },
    {
      "id": "pt.ine.add.PTCONT.526643",
      "street": "R 25 DE ABRIL",
      "house": "BL 2",
      "postcode": "4765-264",
      "city": "RIBA DE AVE",
      "lon": "-8.38640532658863",
      "lat": "41.39334525182222"
    },
    {
      "id": "pt.ine.add.PTCONT.526644",
      "street": "R 25 DE ABRIL",
      "house": "BL 2",
      "postcode": "4765-264",
      "city": "RIBA DE AVE",
      "lon": "-8.38640532658863",
      "lat": "41.39334525182222"
    },
    {
      "id": "pt.ine.add.PTCONT.526986",
      "street": "R 25 DE ABRIL",
      "house": "BL 2",
      "postcode": "4765-264",
      "city": "RIBA DE AVE",
      "lon": "-8.38640532658863",
      "lat": "41.39334525182222"
    },
    {
      "id": "pt.ine.add.PTCONT.527256",
      "street": "R 25 ABRIL",
      "house": "1",
      "postcode": "4765-264",
      "city": "RIBA DE AVE",
      "lon": "-8.38640532658863",
      "lat": "41.39334525182222"
    },
    {
      "id": "pt.ine.add.PTCONT.562158",
      "street": "R 25 DE ABRIL",
      "house": "",
      "postcode": "4765-264",
      "city": "RIBA DE AVE",
      "lon": "-8.386811790598296",
      "lat": "41.39332634835185"
    },
    {
      "id": "pt.ine.add.PTCONT.562159",
      "street": "R 25 DE ABRIL",
      "house": "",
      "postcode": "4765-264",
      "city": "RIBA DE AVE",
      "lon": "-8.386811790598296",
      "lat": "41.39332634835185"
    },
    {
      "id": "pt.ine.add.PTCONT.562160",
      "street": "R 25 DE ABRIL",
      "house": "",
      "postcode": "4765-264",
      "city": "RIBA DE AVE",
      "lon": "-8.386811790598296",
      "lat": "41.39332634835185"
    },
    {
      "id": "pt.ine.add.PTCONT.562162",
      "street": "R 25 DE ABRIL",
      "house": "",
      "postcode": "4765-264",
      "city": "RIBA DE AVE",
      "lon": "-8.386811790598296",
      "lat": "41.39332634835185"
    },
    {
      "id": "pt.ine.add.PTCONT.562163",
      "street": "R 25 DE ABRIL",
      "house": "",
      "postcode": "4765-264",
      "city": "RIBA DE AVE",
      "lon": "-8.386811790598296",
      "lat": "41.39332634835185"
    },
    {
      "id": "pt.ine.add.PTCONT.562164",
      "street": "R 25 DE ABRIL",
      "house": "",
      "postcode": "4765-264",
      "city": "RIBA DE AVE",
      "lon": "-8.386811790598296",
      "lat": "41.39332634835185"
    },
    {
      "id": "pt.ine.add.PTCONT.562165",
      "street": "R 25 DE ABRIL",
      "house": "",
      "postcode": "4765-264",
      "city": "RIBA DE AVE",
      "lon": "-8.386811790598296",
      "lat": "41.39332634835185"
    },
    {
      "id": "pt.ine.add.PTCONT.562166",
      "street": "R 25 DE ABRIL",
      "house": "",
      "postcode": "4765-264",
      "city": "RIBA DE AVE",
      "lon": "-8.386811790598296",
      "lat": "41.39332634835185"
    },
    {
      "id": "pt.ine.add.PTCONT.562167",
      "street": "R 25 DE ABRIL",
      "house": "",
      "postcode": "4765-264",
      "city": "RIBA DE AVE",
      "lon": "-8.386811790598296",
      "lat": "41.39332634835185"
    },
    {
      "id": "pt.ine.add.PTCONT.562168",
      "street": "R 25 DE ABRIL",
      "house": "",
      "postcode": "4765-264",
      "city": "RIBA DE AVE",
      "lon": "-8.386811790598296",
      "lat": "41.39332634835185"
    },
    {
      "id": "pt.ine.add.PTCONT.562169",
      "street": "R 25 DE ABRIL",
      "house": "",
      "postcode": "4765-264",
      "city": "RIBA DE AVE",
      "lon": "-8.386811790598296",
      "lat": "41.39332634835185"
    },
    {
      "id": "pt.ine.add.PTCONT.562170",
      "street": "R 25 DE ABRIL",
      "house": "",
      "postcode": "4765-264",
      "city": "RIBA DE AVE",
      "lon": "-8.386811790598296",
      "lat": "41.39332634835185"
    },
    {
      "id": "pt.ine.add.PTCONT.562171",
      "street": "R 25-ABR",
      "house": "",
      "postcode": "4765-264",
      "city": "RIBA DE AVE",
      "lon": "-8.386811790598296",
      "lat": "41.39332634835185"
    },
    {
      "id": "pt.ine.add.PTCONT.562418",
      "street": "R 25 DE ABRIL",
      "house": "",
      "postcode": "4765-264",
      "city": "RIBA DE AVE",
      "lon": "-8.386811790598296",
      "lat": "41.39332634835185"
    },
    {
      "id": "pt.ine.add.PTCONT.562577",
      "street": "R 25 DE ABRIL",
      "house": "",
      "postcode": "4765-264",
      "city": "RIBA DE AVE",
      "lon": "-8.386811790598296",
      "lat": "41.39332634835185"
    },
    {
      "id": "pt.ine.add.PTCONT.562578",
      "street": "R 25 DE ABRIL",
      "house": "",
      "postcode": "4765-264",
      "city": "RIBA DE AVE",
      "lon": "-8.386811790598296",
      "lat": "41.39332634835185"
    },
    {
      "id": "pt.ine.add.PTCONT.562579",
      "street": "R 25 DE ABRIL",
      "house": "",
      "postcode": "4765-264",
      "city": "RIBA DE AVE",
      "lon": "-8.386811790598296",
      "lat": "41.39332634835185"
    },
    {
      "id": "pt.ine.add.PTCONT.627858",
      "street": "R 25 DE ABRIL",
      "house": "",
      "postcode": "4765-264",
      "city": "RIBA DE AVE",
      "lon": "-8.387433478125752",
      "lat": "41.3933069679588"
    },
    {
      "id": "pt.ine.add.PTCONT.627859",
      "street": "R 25 DE ABRIL",
      "house": "BL 5",
      "postcode": "4765-264",
      "city": "RIBA DE AVE",
      "lon": "-8.387433478125752",
      "lat": "41.3933069679588"
    },
    {
      "id": "pt.ine.add.PTCONT.627860",
      "street": "R 25 DE ABRIL",
      "house": "BL 5",
      "postcode": "4765-264",
      "city": "RIBA DE AVE",
      "lon": "-8.387433478125752",
      "lat": "41.3933069679588"
    },
    {
      "id": "pt.ine.add.PTCONT.629666",
      "street": "R 25 DE ABRIL",
      "house": "BL 5",
      "postcode": "4765-264",
      "city": "RIBA DE AVE",
      "lon": "-8.387433478125752",
      "lat": "41.3933069679588"
    },
    {
      "id": "pt.ine.add.PTCONT.786738",
      "street": "R 25 ABRIL",
      "house": "413",
      "postcode": "4765-264",
      "city": "RIBA DE AVE",
      "lon": "-8.38570053268942",
      "lat": "41.39351787724832"
    },
    {
      "id": "pt.ine.add.PTCONT.786933",
      "street": "R 25 DE ABRIL",
      "house": "408",
      "postcode": "4765-264",
      "city": "RIBA DE AVE",
      "lon": "-8.38570053268942",
      "lat": "41.39351787724832"
    },
    {
      "id": "pt.ine.add.PTCONT.808161",
      "street": "R 25 ABRIL",
      "house": "391",
      "postcode": "4765-264",
      "city": "RIBA DE AVE",
      "lon": "-8.38589163404804",
      "lat": "41.393463433549705"
    },
    {
      "id": "pt.ine.add.PTCONT.808162",
      "street": "R 25 DE ABRIL",
      "house": "389",
      "postcode": "4765-264",
      "city": "RIBA DE AVE",
      "lon": "-8.38589163404804",
      "lat": "41.393463433549705"
    },
    {
      "id": "pt.ine.add.PTCONT.808163",
      "street": "R 25 DE ABRIL",
      "house": "BL 4",
      "postcode": "4765-264",
      "city": "RIBA DE AVE",
      "lon": "-8.387194375675032",
      "lat": "41.39331650018355"
    },
    {
      "id": "pt.ine.add.PTCONT.808165",
      "street": "R 25 DE ABRIL",
      "house": "BL 4",
      "postcode": "4765-264",
      "city": "RIBA DE AVE",
      "lon": "-8.387194375675032",
      "lat": "41.39331650018355"
    },
    {
      "id": "pt.ine.add.PTCONT.808166",
      "street": "R 25 DE ABRIL",
      "house": "BL 4",
      "postcode": "4765-264",
      "city": "RIBA DE AVE",
      "lon": "-8.387194375675032",
      "lat": "41.39331650018355"
    },
    {
      "id": "pt.ine.add.PTCONT.808167",
      "street": "R 25 DE ABRIL",
      "house": "BL 4",
      "postcode": "4765-264",
      "city": "RIBA DE AVE",
      "lon": "-8.387194375675032",
      "lat": "41.39331650018355"
    },
    {
      "id": "pt.ine.add.PTCONT.808168",
      "street": "R 25 DE ABRIL",
      "house": "BL 4",
      "postcode": "4765-264",
      "city": "RIBA DE AVE",
      "lon": "-8.387194375675032",
      "lat": "41.39331650018355"
    },
    {
      "id": "pt.ine.add.PTCONT.808169",
      "street": "R 25 DE ABRIL",
      "house": "BL 4",
      "postcode": "4765-264",
      "city": "RIBA DE AVE",
      "lon": "-8.387194375675032",
      "lat": "41.39331650018355"
    },
    {
      "id": "pt.ine.add.PTCONT.808170",
      "street": "R 25 DE ABRIL",
      "house": "BL 4",
      "postcode": "4765-264",
      "city": "RIBA DE AVE",
      "lon": "-8.387194375675032",
      "lat": "41.39331650018355"
    },
    {
      "id": "pt.ine.add.PTCONT.808171",
      "street": "R 25 DE ABRIL",
      "house": "BL 4",
      "postcode": "4765-264",
      "city": "RIBA DE AVE",
      "lon": "-8.387194375675032",
      "lat": "41.39331650018355"
    },
    {
      "id": "pt.ine.add.PTCONT.808172",
      "street": "R 25 DE ABRIL",
      "house": "BL 4",
      "postcode": "4765-264",
      "city": "RIBA DE AVE",
      "lon": "-8.387194375675032",
      "lat": "41.39331650018355"
    },
    {
      "id": "pt.ine.add.PTCONT.808173",
      "street": "R 25 DE ABRIL",
      "house": "BL 4",
      "postcode": "4765-264",
      "city": "RIBA DE AVE",
      "lon": "-8.387194375675032",
      "lat": "41.39331650018355"
    },
    {
      "id": "pt.ine.add.PTCONT.808174",
      "street": "R 25 DE ABRIL",
      "house": "BL 4",
      "postcode": "4765-264",
      "city": "RIBA DE AVE",
      "lon": "-8.387194375675032",
      "lat": "41.39331650018355"
    },
    {
      "id": "pt.ine.add.PTCONT.808175",
      "street": "R 25 DE ABRIL",
      "house": "BL 4",
      "postcode": "4765-264",
      "city": "RIBA DE AVE",
      "lon": "-8.387194375675032",
      "lat": "41.39331650018355"
    },
    {
      "id": "pt.ine.add.PTCONT.808176",
      "street": "R 25 DE ABRIL",
      "house": "BL 4",
      "postcode": "4765-264",
      "city": "RIBA DE AVE",
      "lon": "-8.387194375675032",
      "lat": "41.39331650018355"
    },
    {
      "id": "pt.ine.add.PTCONT.808178",
      "street": "R 25 DE ABRIL",
      "house": "BL 4",
      "postcode": "4765-264",
      "city": "RIBA DE AVE",
      "lon": "-8.387194375675032",
      "lat": "41.39331650018355"
    },
    {
      "id": "pt.ine.add.PTCONT.808179",
      "street": "R 25 DE ABRIL",
      "house": "BL 4",
      "postcode": "4765-264",
      "city": "RIBA DE AVE",
      "lon": "-8.387194375675032",
      "lat": "41.39331650018355"
    },
    {
      "id": "pt.ine.add.PTCONT.808180",
      "street": "R 25 DE ABRIL",
      "house": "BL 4",
      "postcode": "4765-264",
      "city": "RIBA DE AVE",
      "lon": "-8.387194375675032",
      "lat": "41.39331650018355"
    },
    {
      "id": "pt.ine.add.PTCONT.808632",
      "street": "R 25 ABRIL",
      "house": "",
      "postcode": "4765-264",
      "city": "RIBA DE AVE",
      "lon": "-8.387194375675032",
      "lat": "41.39331650018355"
    },
    {
      "id": "pt.ine.add.PTCONT.808659",
      "street": "R 25 DE ABRIL",
      "house": "BL 4",
      "postcode": "4765-264",
      "city": "RIBA DE AVE",
      "lon": "-8.387194375675032",
      "lat": "41.39331650018355"
    },
    {
      "id": "pt.ine.add.PTCONT.837929",
      "street": "R SOUTO RESIDÊNCIA PAROQUIAL",
      "house": "",
      "postcode": "4765-245",
      "city": "RIBA DE AVE",
      "lon": "-8.385319964759388",
      "lat": "41.394049948432915"
    },
    {
      "id": "pt.ine.add.PTCONT.837930",
      "street": "R SOUTO RESIDÊNCIA PAROQUIAL",
      "house": "",
      "postcode": "4765-245",
      "city": "RIBA DE AVE",
      "lon": "-8.385319964759388",
      "lat": "41.394049948432915"
    },
    {
      "id": "pt.ine.add.PTCONT.843200",
      "street": "R 25 DE ABRIL",
      "house": "BL 4",
      "postcode": "4765-264",
      "city": "RIBA DE AVE",
      "lon": "-8.387194375675032",
      "lat": "41.39331650018355"
    },
    {
      "id": "pt.ine.add.PTCONT.847622",
      "street": "R 25 DE ABRIL",
      "house": "",
      "postcode": "4765-264",
      "city": "RIBA DE AVE",
      "lon": "-8.386811790598296",
      "lat": "41.39332634835185"
    }
  ]
}