{
  "data": {
    "distrito": "Faro",
    "concelho": "Vila do Bispo",
    "freguesia": "Budens",
    "OBJECTID": 174,
    "BGRI2021": "08150200309",
    "DT21": "08",
    "DTMN21": "0815",
    "DTMNFR21": "081502",
    "DTMNFRSEC21": "081502003",
    "SECNUM21": "003",
    "SSNUM21": "09",
    "SECSSNUM21": "00309",
    "OBJECTID_1": 74331,
    "DT": "08",
    "CC": "15",
    "fr": "02",
    "SEC": "003",
    "SS": "09"
  },
  "addresses": [
    {
      "id": "pt.ine.add.PTCONT.1468553",
      "street": "URB BEACH VILLAS CASA TRAFALGAR",
      "house": "",
      "postcode": "8650-191",
      "city": "BUDENS",
      "lon": "-8.82850130519688",
      "lat": "37.06719409890772"
    },
    {
      "id": "pt.ine.add.PTCONT.1471509",
      "street": "URB BEACH VILLAS",
      "house": "",
      "postcode": "8650-191",
      "city": "BUDENS",
      "lon": "-8.828133658563376",
      "lat": "37.0688001293768"
    },
    {
      "id": "pt.ine.add.PTCONT.1480522",
      "street": "URB BEACH VILLAS",
      "house": "12",
      "postcode": "8650-191",
      "city": "BUDENS",
      "lon": "-8.828179681955556",
      "lat": "37.0676825530912"
    },
    {
      "id": "pt.ine.add.PTCONT.1494761",
      "street": "URB BEACH VILLAS",
      "house": "M11",
      "postcode": "8650-191",
      "city": "BUDENS",
      "lon": "-8.828459045295016",
      "lat": "37.06749169441683"
    },
    {
      "id": "pt.ine.add.PTCONT.1506552",
      "street": "URB BEACH VILLAS",
      "house": "13",
      "postcode": "8650-191",
      "city": "BUDENS",
      "lon": "-8.827934771445547",
      "lat": "37.06671986034837"
    },
    {
      "id": "pt.ine.add.PTCONT.1506553",
      "street": "URB BEACH VILLAS",
      "house": "14",
      "postcode": "8650-191",
      "city": "BUDENS",
      "lon": "-8.827934771445547",
      "lat": "37.06671986034837"
    },
    {
      "id": "pt.ine.add.PTCONT.1506554",
      "street": "URB BEACH VILLAS",
      "house": "15",
      "postcode": "8650-191",
      "city": "BUDENS",
      "lon": "-8.827934771445547",
      "lat": "37.06671986034837"
    },
    {
      "id": "pt.ine.add.PTCONT.1506555",
      "street": "URB BEACH VILLAS",
      "house": "16",
      "postcode": "8650-191",
      "city": "BUDENS",
      "lon": "-8.827934771445547",
      "lat": "37.06671986034837"
    },
    {
      "id": "pt.ine.add.PTCONT.1506556",
      "street": "URB BEACH VILLAS",
      "house": "9",
      "postcode": "8650-191",
      "city": "BUDENS",
      "lon": "-8.827934771445547",
      "lat": "37.06671986034837"
    },
    {
      "id": "pt.ine.add.PTCONT.1506557",
      "street": "URB BEACH VILLAS",
      "house": "10",
      "postcode": "8650-191",
      "city": "BUDENS",
      "lon": "-8.827934771445547",
      "lat": "37.06671986034837"
    },
    {
      "id": "pt.ine.add.PTCONT.1506558",
      "street": "URB BEACH VILLAS",
      "house": "11",
      "postcode": "8650-191",
      "city": "BUDENS",
      "lon": "-8.827934771445547",
      "lat": "37.06671986034837"
    },
    {
      "id": "pt.ine.add.PTCONT.1506559",
      "street": "URB BEACH VILLAS",
      "house": "12",
      "postcode": "8650-191",
      "city": "BUDENS",
      "lon": "-8.827934771445547",
      "lat": "37.06671986034837"
    },
    {
      "id": "pt.ine.add.PTCONT.1506560",
      "street": "URB BEACH VILLAS",
      "house": "5",
      "postcode": "8650-191",
      "city": "BUDENS",
      "lon": "-8.827934771445547",
      "lat": "37.06671986034837"
    },
    {
      "id": "pt.ine.add.PTCONT.1506561",
      "street": "URB BEACH VILLAS",
      "house": "6",
      "postcode": "8650-191",
      "city": "BUDENS",
      "lon": "-8.827934771445547",
      "lat": "37.06671986034837"
    },
    {
      "id": "pt.ine.add.PTCONT.1506562",
      "street": "URB BEACH VILLAS",
      "house": "8",
      "postcode": "8650-191",
      "city": "BUDENS",
      "lon": "-8.827934771445547",
      "lat": "37.06671986034837"
    },
    {
      "id": "pt.ine.add.PTCONT.1506563",
      "street": "URB BEACH VILLAS",
      "house": "2",
      "postcode": "8650-191",
      "city": "BUDENS",
      "lon": "-8.827934771445547",
      "lat": "37.06671986034837"
    },
    {
      "id": "pt.ine.add.PTCONT.1506565",
      "street": "URB BEACH VILLAS",
      "house": "3",
      "postcode": "8650-191",
      "city": "BUDENS",
      "lon": "-8.827934771445547",
      "lat": "37.06671986034837"
    },
    {
      "id": "pt.ine.add.PTCONT.1506566",
      "street": "URB BEACH VILLAS",
      "house": "4",
      "postcode": "8650-191",
      "city": "BUDENS",
      "lon": "-8.827934771445547",
      "lat": "37.06671986034837"
    },
    {
      "id": "pt.ine.add.PTCONT.1506567",
      "street": "URB BEACH VILLAS",
      "house": "17",
      "postcode": "8650-191",
      "city": "BUDENS",
      "lon": "-8.827934771445547",
      "lat": "37.06671986034837"
    },
    {
      "id": "pt.ine.add.PTCONT.1506568",
      "street": "URB BEACH VILLAS",
      "house": "1",
      "postcode": "8650-191",
      "city": "BUDENS",
      "lon": "-8.827934771445547",
      "lat": "37.06671986034837"
    },
    {
      "id": "pt.ine.add.PTCONT.1522003",
      "street": "URB BEACH VILLAS",
      "house": "M15",
      "postcode": "8650-191",
      "city": "BUDENS",
      "lon": "-8.828232693274694",
      "lat": "37.06733083144886"
    },
    {
      "id": "pt.ine.add.PTCONT.1529746",
      "street": "URB BEACH VILLAS",
      "house": "M6",
      "postcode": "8650-191",
      "city": "BUDENS",
      "lon": "-8.828231070149718",
      "lat": "37.06838507386325"
    },
    {
      "id": "pt.ine.add.PTCONT.1555953",
      "street": "URB BEACH VILLAS",
      "house": "10",
      "postcode": "8650-191",
      "city": "BUDENS",
      "lon": "-8.828770739030492",
      "lat": "37.067147466323746"
    },
    {
      "id": "pt.ine.add.PTCONT.1570595",
      "street": "URB BEACH VILLAS VILA SAJOVI",
      "house": "M1",
      "postcode": "8650-191",
      "city": "BUDENS",
      "lon": "-8.829257011246796",
      "lat": "37.06745097168763"
    },
    {
      "id": "pt.ine.add.PTCONT.1622646",
      "street": "URB BEACH VILLAS",
      "house": "3",
      "postcode": "8650-191",
      "city": "BUDENS",
      "lon": "-8.827825952325128",
      "lat": "37.06711696146694"
    },
    {
      "id": "pt.ine.add.PTCONT.1622647",
      "street": "URB BEACH VILLAS",
      "house": "3",
      "postcode": "8650-191",
      "city": "BUDENS",
      "lon": "-8.827825952325128",
      "lat": "37.06711696146694"
    },
    {
      "id": "pt.ine.add.PTCONT.1622648",
      "street": "URB BEACH VILLAS",
      "house": "3",
      "postcode": "8650-191",
      "city": "BUDENS",
      "lon": "-8.827825952325128",
      "lat": "37.06711696146694"
    },
    {
      "id": "pt.ine.add.PTCONT.1622649",
      "street": "URB BEACH VILLAS",
      "house": "3",
      "postcode": "8650-191",
      "city": "BUDENS",
      "lon": "-8.827825952325128",
      "lat": "37.06711696146694"
    },
    {
      "id": "pt.ine.add.PTCONT.1622650",
      "street": "URB BEACH VILLAS",
      "house": "3",
      "postcode": "8650-191",
      "city": "BUDENS",
      "lon": "-8.827825952325128",
      "lat": "37.06711696146694"
    },
    {
      "id": "pt.ine.add.PTCONT.1622697",
      "street": "URB BEACH VILLAS",
      "house": "3",
      "postcode": "8650-191",
      "city": "BUDENS",
      "lon": "-8.827825952325128",
      "lat": "37.06711696146694"
    },
    {
      "id": "pt.ine.add.PTCONT.1622698",
      "street": "URB BEACH VILLAS",
      "house": "3",
      "postcode": "8650-191",
      "city": "BUDENS",
      "lon": "-8.827825952325128",
      "lat": "37.06711696146694"
    },
    {
      "id": "pt.ine.add.PTCONT.1622699",
      "street": "URB BEACH VILLAS",
      "house": "3",
      "postcode": "8650-191",
      "city": "BUDENS",
      "lon": "-8.827825952325128",
      "lat": "37.06711696146694"
    },
    {
      "id": "pt.ine.add.PTCONT.1622700",
      "street": "URB BEACH VILLAS",
      "house": "3",
      "postcode": "8650-191",
      "city": "BUDENS",
      "lon": "-8.827825952325128",
      "lat": "37.06711696146694"
    },
    {
      "id": "pt.ine.add.PTCONT.1622701",
      "street": "URB BEACH VILLAS",
      "house": "3",
      "postcode": "8650-191",
      "city": "BUDENS",
      "lon": "-8.827825952325128",
      "lat": "37.06711696146694"
    },
    {
      "id": "pt.ine.add.PTCONT.1622702",
      "street": "URB BEACH VILLAS",
      "house": "3",
      "postcode": "8650-191",
      "city": "BUDENS",
      "lon": "-8.827825952325128",
      "lat": "37.06711696146694"
    },
    {
      "id": "pt.ine.add.PTCONT.1622703",
      "street": "URB BEACH VILLAS",
      "house": "3",
      "postcode": "8650-191",
      "city": "BUDENS",
      "lon": "-8.827825952325128",
      "lat": "37.06711696146694"
    },
    {
      "id": "pt.ine.add.PTCONT.1622704",
      "street": "URB BEACH VILLAS",
      "house": "3",
      "postcode": "8650-191",
      "city": "BUDENS",
      "lon": "-8.827825952325128",
      "lat": "37.06711696146694"
    },
    {
      "id": "pt.ine.add.PTCONT.1622705",
      "street": "URB BEACH VILLAS",
      "house": "3",
      "postcode": "8650-191",
      "city": "BUDENS",
      "lon": "-8.827825952325128",
      "lat": "37.06711696146694"
    },
    {
      "id": "pt.ine.add.PTCONT.1622706",
      "street": "URB BEACH VILLAS",
      "house": "3",
      "postcode": "8650-191",
      "city": "BUDENS",
      "lon": "-8.827825952325128",
      "lat": "37.06711696146694"
    },
    {
      "id": "pt.ine.add.PTCONT.1622707",
      "street": "URB BEACH VILLAS",
      "house": "3",
      "postcode": "8650-191",
      "city": "BUDENS",
      "lon": "-8.827825952325128",
      "lat": "37.06711696146694"
    },
    {
      "id": "pt.ine.add.PTCONT.1622708",
      "street": "URB BEACH VILLAS",
      "house": "40",
      "postcode": "8650-191",
      "city": "BUDENS",
      "lon": "-8.827825952325128",
      "lat": "37.06711696146694"
    },
    {
      "id": "pt.ine.add.PTCONT.1622709",
      "street": "URB BEACH VILLAS",
      "house": "3",
      "postcode": "8650-191",
      "city": "BUDENS",
      "lon": "-8.827825952325128",
      "lat": "37.06711696146694"
    },
    {
      "id": "pt.ine.add.PTCONT.1622974",
      "street": "URB BEACH VILLAS",
      "house": "3",
      "postcode": "8650-191",
      "city": "BUDENS",
      "lon": "-8.827825952325128",
      "lat": "37.06711696146694"
    },
    {
      "id": "pt.ine.add.PTCONT.1629784",
      "street": "URB BEACH VILLAS",
      "house": "29",
      "postcode": "8650-191",
      "city": "BUDENS",
      "lon": "-8.828161449871502",
      "lat": "37.06691676415595"
    },
    {
      "id": "pt.ine.add.PTCONT.1629785",
      "street": "URB BEACH VILLAS",
      "house": "30",
      "postcode": "8650-191",
      "city": "BUDENS",
      "lon": "-8.828161449871502",
      "lat": "37.06691676415595"
    },
    {
      "id": "pt.ine.add.PTCONT.1629786",
      "street": "URB BEACH VILLAS",
      "house": "31",
      "postcode": "8650-191",
      "city": "BUDENS",
      "lon": "-8.828161449871502",
      "lat": "37.06691676415595"
    },
    {
      "id": "pt.ine.add.PTCONT.1629787",
      "street": "URB BEACH VILLAS",
      "house": "32",
      "postcode": "8650-191",
      "city": "BUDENS",
      "lon": "-8.828161449871502",
      "lat": "37.06691676415595"
    },
    {
      "id": "pt.ine.add.PTCONT.1629788",
      "street": "URB BEACH VILLAS",
      "house": "25",
      "postcode": "8650-191",
      "city": "BUDENS",
      "lon": "-8.828161449871502",
      "lat": "37.06691676415595"
    },
    {
      "id": "pt.ine.add.PTCONT.1629789",
      "street": "URB BEACH VILLAS",
      "house": "26",
      "postcode": "8650-191",
      "city": "BUDENS",
      "lon": "-8.828161449871502",
      "lat": "37.06691676415595"
    },
    {
      "id": "pt.ine.add.PTCONT.1629912",
      "street": "URB BEACH VILLAS",
      "house": "27",
      "postcode": "8650-191",
      "city": "BUDENS",
      "lon": "-8.828161449871502",
      "lat": "37.06691676415595"
    },
    {
      "id": "pt.ine.add.PTCONT.1629913",
      "street": "URB BEACH VILLAS",
      "house": "28",
      "postcode": "8650-191",
      "city": "BUDENS",
      "lon": "-8.828161449871502",
      "lat": "37.06691676415595"
    },
    {
      "id": "pt.ine.add.PTCONT.1629914",
      "street": "URB BEACH VILLAS",
      "house": "21",
      "postcode": "8650-191",
      "city": "BUDENS",
      "lon": "-8.828161449871502",
      "lat": "37.06691676415595"
    },
    {
      "id": "pt.ine.add.PTCONT.1629915",
      "street": "URB BEACH VILLAS",
      "house": "22",
      "postcode": "8650-191",
      "city": "BUDENS",
      "lon": "-8.828161449871502",
      "lat": "37.06691676415595"
    },
    {
      "id": "pt.ine.add.PTCONT.1629916",
      "street": "URB BEACH VILLAS",
      "house": "24",
      "postcode": "8650-191",
      "city": "BUDENS",
      "lon": "-8.828161449871502",
      "lat": "37.06691676415595"
    },
    {
      "id": "pt.ine.add.PTCONT.1629917",
      "street": "URB BEACH VILLAS",
      "house": "17",
      "postcode": "8650-191",
      "city": "BUDENS",
      "lon": "-8.828161449871502",
      "lat": "37.06691676415595"
    },
    {
      "id": "pt.ine.add.PTCONT.1629918",
      "street": "URB BEACH VILLAS",
      "house": "19",
      "postcode": "8650-191",
      "city": "BUDENS",
      "lon": "-8.828161449871502",
      "lat": "37.06691676415595"
    },
    {
      "id": "pt.ine.add.PTCONT.1629919",
      "street": "URB BEACH VILLAS",
      "house": "20",
      "postcode": "8650-191",
      "city": "BUDENS",
      "lon": "-8.828161449871502",
      "lat": "37.06691676415595"
    },
    {
      "id": "pt.ine.add.PTCONT.1631265",
      "street": "URB BEACH VILLAS",
      "house": "23",
      "postcode": "8650-191",
      "city": "BUDENS",
      "lon": "-8.828161449871502",
      "lat": "37.06691676415595"
    },
    {
      "id": "pt.ine.add.PTCONT.1651859",
      "street": "URB BEACH VILLAS",
      "house": "M7",
      "postcode": "8650-191",
      "city": "BUDENS",
      "lon": "-8.82804124202798",
      "lat": "37.06853035476969"
    },
    {
      "id": "pt.ine.add.PTCONT.1680500",
      "street": "URB BEACH VILLAS",
      "house": "M4",
      "postcode": "8650-191",
      "city": "BUDENS",
      "lon": "-8.828766983754695",
      "lat": "37.06796744728729"
    },
    {
      "id": "pt.ine.add.PTCONT.1758795",
      "street": "URB BEACH VILLAS VILA OCEANIS",
      "house": "M13",
      "postcode": "8650-191",
      "city": "BUDENS",
      "lon": "-8.828273166918708",
      "lat": "37.06806945835501"
    },
    {
      "id": "pt.ine.add.PTCONT.1774088",
      "street": "URB BEACH VILLAS M",
      "house": "M8",
      "postcode": "8650-191",
      "city": "BUDENS",
      "lon": "-8.827738811099772",
      "lat": "37.068658273784365"
    },
    {
      "id": "pt.ine.add.PTCONT.1820873",
      "street": "URB BEACH VILLAS NINHO D O FALC√ÉO",
      "house": "M2",
      "postcode": "8650-191",
      "city": "BUDENS",
      "lon": "-8.829213683724054",
      "lat": "37.06763143672055"
    },
    {
      "id": "pt.ine.add.PTCONT.1835125",
      "street": "URB BEACH VILLAS CASA CARAVELA",
      "house": "M3",
      "postcode": "8650-191",
      "city": "BUDENS",
      "lon": "-8.82897888480341",
      "lat": "37.067776983038776"
    },
    {
      "id": "pt.ine.add.PTCONT.1840175",
      "street": "URB BEACH VILLAS",
      "house": "18",
      "postcode": "8650-191",
      "city": "BUDENS",
      "lon": "-8.828161449871502",
      "lat": "37.06691676415595"
    },
    {
      "id": "pt.ine.add.PTCONT.1840318",
      "street": "URB BEACH VILLAS",
      "house": "3",
      "postcode": "8650-191",
      "city": "BUDENS",
      "lon": "-8.827825952325128",
      "lat": "37.06711696146694"
    },
    {
      "id": "pt.ine.add.PTCONT.1842232",
      "street": "URB BEACH VILLAS",
      "house": "M 5",
      "postcode": "8650-191",
      "city": "BUDENS",
      "lon": "-8.828655781241622",
      "lat": "37.06810325748346"
    },
    {
      "id": "pt.ine.add.PTCONT.1848858",
      "street": "URB BEACH VILLAS",
      "house": "7",
      "postcode": "8650-191",
      "city": "BUDENS",
      "lon": "-8.827934771445547",
      "lat": "37.06671986034837"
    }
  ]
}