{
  "data": {
    "distrito": "Castelo Branco",
    "concelho": "Castelo Branco",
    "freguesia": "Castelo Branco",
    "OBJECTID": 987,
    "BGRI2021": "05020502106",
    "DT21": "05",
    "DTMN21": "0502",
    "DTMNFR21": "050205",
    "DTMNFRSEC21": "050205021",
    "SECNUM21": "021",
    "SSNUM21": "06",
    "SECSSNUM21": "02106",
    "OBJECTID_1": 41033,
    "DT": "05",
    "CC": "02",
    "fr": "05",
    "SEC": "021",
    "SS": "06"
  },
  "addresses": [
    {
      "id": "pt.ine.add.PTCONT.952668",
      "street": "URB ENCOSTA CASTELO",
      "house": "20",
      "postcode": "6000-776",
      "city": "CASTELO BRANCO",
      "lon": "-7.500406095080835",
      "lat": "39.8246889956199"
    },
    {
      "id": "pt.ine.add.PTCONT.952992",
      "street": "URB ENCOSTA CASTELO",
      "house": "28",
      "postcode": "6000-776",
      "city": "CASTELO BRANCO",
      "lon": "-7.498870971216117",
      "lat": "39.82396010413916"
    },
    {
      "id": "pt.ine.add.PTCONT.954123",
      "street": "R CRUZ GENS",
      "house": "26",
      "postcode": "6000-776",
      "city": "CASTELO BRANCO",
      "lon": "-7.5037789157803845",
      "lat": "39.82884126356599"
    },
    {
      "id": "pt.ine.add.PTCONT.954981",
      "street": "R CRUZ GENS",
      "house": "26",
      "postcode": "6000-776",
      "city": "CASTELO BRANCO",
      "lon": "-7.5037789157803845",
      "lat": "39.82884126356599"
    },
    {
      "id": "pt.ine.add.PTCONT.955308",
      "street": "R PEDRO ALVITO",
      "house": "",
      "postcode": "6000-776",
      "city": "CASTELO BRANCO",
      "lon": "-7.499450493243748",
      "lat": "39.82444961479536"
    },
    {
      "id": "pt.ine.add.PTCONT.955307",
      "street": "R PEDRO ALVITO",
      "house": "",
      "postcode": "6000-776",
      "city": "CASTELO BRANCO",
      "lon": "-7.499450493243748",
      "lat": "39.82444961479536"
    },
    {
      "id": "pt.ine.add.PTCONT.955309",
      "street": "R PEDRO ALVITO",
      "house": "",
      "postcode": "6000-776",
      "city": "CASTELO BRANCO",
      "lon": "-7.499450493243748",
      "lat": "39.82444961479536"
    },
    {
      "id": "pt.ine.add.PTCONT.955310",
      "street": "R PEDRO ALVITO",
      "house": "",
      "postcode": "6000-776",
      "city": "CASTELO BRANCO",
      "lon": "-7.499450493243748",
      "lat": "39.82444961479536"
    },
    {
      "id": "pt.ine.add.PTCONT.955311",
      "street": "R PEDRO ALVITO",
      "house": "",
      "postcode": "6000-776",
      "city": "CASTELO BRANCO",
      "lon": "-7.499450493243748",
      "lat": "39.82444961479536"
    },
    {
      "id": "pt.ine.add.PTCONT.956139",
      "street": "R PEDRO ALVITO",
      "house": "",
      "postcode": "6000-776",
      "city": "CASTELO BRANCO",
      "lon": "-7.499450493243748",
      "lat": "39.82444961479536"
    },
    {
      "id": "pt.ine.add.PTCONT.958563",
      "street": "R CRUZ SAN GENS",
      "house": "12",
      "postcode": "6000-776",
      "city": "CASTELO BRANCO",
      "lon": "-7.502574082564961",
      "lat": "39.82902385550617"
    },
    {
      "id": "pt.ine.add.PTCONT.958564",
      "street": "ESTR ISABALDEIRAS",
      "house": "7",
      "postcode": "6000-454",
      "city": "CASTELO BRANCO",
      "lon": "-7.501535606824016",
      "lat": "39.8276222200756"
    },
    {
      "id": "pt.ine.add.PTCONT.960482",
      "street": "R PISCINA",
      "house": "",
      "postcode": "6000-776",
      "city": "CASTELO BRANCO",
      "lon": "-7.502117998756174",
      "lat": "39.82652661195005"
    },
    {
      "id": "pt.ine.add.PTCONT.963770",
      "street": "R PEDRO ALVITO",
      "house": "",
      "postcode": "6000-776",
      "city": "CASTELO BRANCO",
      "lon": "-7.499674395631204",
      "lat": "39.82423468449547"
    },
    {
      "id": "pt.ine.add.PTCONT.964167",
      "street": "R BAIXO",
      "house": "",
      "postcode": "6000-775",
      "city": "CASTELO BRANCO",
      "lon": "-7.502302544546484",
      "lat": "39.82933760224247"
    },
    {
      "id": "pt.ine.add.PTCONT.966347",
      "street": "R BAIXO",
      "house": "",
      "postcode": "6000-775",
      "city": "CASTELO BRANCO",
      "lon": "-7.502536735058363",
      "lat": "39.82927583077298"
    },
    {
      "id": "pt.ine.add.PTCONT.966348",
      "street": "R BAIXO",
      "house": "",
      "postcode": "6000-775",
      "city": "CASTELO BRANCO",
      "lon": "-7.502536735058363",
      "lat": "39.82927583077298"
    },
    {
      "id": "pt.ine.add.PTCONT.968515",
      "street": "R PEDRO ALVITO",
      "house": "",
      "postcode": "6000-776",
      "city": "CASTELO BRANCO",
      "lon": "-7.500128752270506",
      "lat": "39.82436325344023"
    },
    {
      "id": "pt.ine.add.PTCONT.975823",
      "street": "R BAIXO",
      "house": "",
      "postcode": "6000-775",
      "city": "CASTELO BRANCO",
      "lon": "-7.502722720704335",
      "lat": "39.829375911502595"
    },
    {
      "id": "pt.ine.add.PTCONT.977805",
      "street": "ENCOSTA SUL CASTELO",
      "house": "47",
      "postcode": "6000-776",
      "city": "CASTELO BRANCO",
      "lon": "-7.500464742448061",
      "lat": "39.824662296311885"
    },
    {
      "id": "pt.ine.add.PTCONT.985693",
      "street": "ESTR ISABALDEIRAS",
      "house": "6",
      "postcode": "6000-454",
      "city": "CASTELO BRANCO",
      "lon": "-7.505760952748475",
      "lat": "39.82760500323883"
    },
    {
      "id": "pt.ine.add.PTCONT.986482",
      "street": "R BAIXO",
      "house": "",
      "postcode": "6000-775",
      "city": "CASTELO BRANCO",
      "lon": "-7.503026830645918",
      "lat": "39.82933253166294"
    },
    {
      "id": "pt.ine.add.PTCONT.986483",
      "street": "R BAIXO",
      "house": "6",
      "postcode": "6000-775",
      "city": "CASTELO BRANCO",
      "lon": "-7.502118866702196",
      "lat": "39.828985355145086"
    },
    {
      "id": "pt.ine.add.PTCONT.991825",
      "street": "URB ENCOSTA DO CASTELO",
      "house": "",
      "postcode": "6000-024",
      "city": "CASTELO BRANCO",
      "lon": "-7.5000596649262965",
      "lat": "39.82425480002672"
    },
    {
      "id": "pt.ine.add.PTCONT.1003795",
      "street": "R PEDRO ALVITO",
      "house": "",
      "postcode": "6000-776",
      "city": "CASTELO BRANCO",
      "lon": "-7.499648637542032",
      "lat": "39.82449572866489"
    },
    {
      "id": "pt.ine.add.PTCONT.1003796",
      "street": "R PEDRO ALVITO",
      "house": "",
      "postcode": "6000-776",
      "city": "CASTELO BRANCO",
      "lon": "-7.499648637542032",
      "lat": "39.82449572866489"
    },
    {
      "id": "pt.ine.add.PTCONT.1003797",
      "street": "R PEDRO ALVITO",
      "house": "",
      "postcode": "6000-776",
      "city": "CASTELO BRANCO",
      "lon": "-7.499648637542032",
      "lat": "39.82449572866489"
    },
    {
      "id": "pt.ine.add.PTCONT.1003798",
      "street": "R PEDRO ALVITO",
      "house": "",
      "postcode": "6000-776",
      "city": "CASTELO BRANCO",
      "lon": "-7.499648637542032",
      "lat": "39.82449572866489"
    },
    {
      "id": "pt.ine.add.PTCONT.1003799",
      "street": "R PEDRO ALVITO",
      "house": "",
      "postcode": "6000-776",
      "city": "CASTELO BRANCO",
      "lon": "-7.499648637542032",
      "lat": "39.82449572866489"
    },
    {
      "id": "pt.ine.add.PTCONT.1003800",
      "street": "R PEDRO ALVITO",
      "house": "",
      "postcode": "6000-776",
      "city": "CASTELO BRANCO",
      "lon": "-7.499648637542032",
      "lat": "39.82449572866489"
    },
    {
      "id": "pt.ine.add.PTCONT.1005187",
      "street": "R PEDRO ALVITO",
      "house": "",
      "postcode": "6000-776",
      "city": "CASTELO BRANCO",
      "lon": "-7.5005471625194025",
      "lat": "39.82459069472605"
    },
    {
      "id": "pt.ine.add.PTCONT.1005846",
      "street": "URB ENCOSTA CASTELO",
      "house": "36",
      "postcode": "6000-776",
      "city": "CASTELO BRANCO",
      "lon": "-7.499371712796602",
      "lat": "39.824124955094135"
    },
    {
      "id": "pt.ine.add.PTCONT.1007087",
      "street": "ESTR ISABALDEIRAS",
      "house": "4",
      "postcode": "6000-454",
      "city": "CASTELO BRANCO",
      "lon": "-7.505979153830631",
      "lat": "39.82766729832816"
    },
    {
      "id": "pt.ine.add.PTCONT.1015060",
      "street": "R PISCINA",
      "house": "",
      "postcode": "6000-776",
      "city": "CASTELO BRANCO",
      "lon": "-7.49876775794262",
      "lat": "39.82375239329526"
    },
    {
      "id": "pt.ine.add.PTCONT.1017372",
      "street": "R CRUZ SAN GENS",
      "house": "10",
      "postcode": "6000-776",
      "city": "CASTELO BRANCO",
      "lon": "-7.5023871921196195",
      "lat": "39.82902283964497"
    },
    {
      "id": "pt.ine.add.PTCONT.1021213",
      "street": "QTA VAQUEIRINHA",
      "house": "",
      "postcode": "6000-454",
      "city": "CASTELO BRANCO",
      "lon": "-7.504848384316234",
      "lat": "39.826847645997894"
    },
    {
      "id": "pt.ine.add.PTCONT.1021665",
      "street": "R PISCINA",
      "house": "",
      "postcode": "6000-776",
      "city": "CASTELO BRANCO",
      "lon": "-7.498825742653115",
      "lat": "39.8237977421733"
    },
    {
      "id": "pt.ine.add.PTCONT.1021689",
      "street": "QTA VAQUEIRINHA",
      "house": "",
      "postcode": "6000-454",
      "city": "CASTELO BRANCO",
      "lon": "-7.503411457132749",
      "lat": "39.825587970431414"
    },
    {
      "id": "pt.ine.add.PTCONT.1025052",
      "street": "ESTR GRANJA CENTAURO",
      "house": "",
      "postcode": "6000-776",
      "city": "CASTELO BRANCO",
      "lon": "-7.503039749764058",
      "lat": "39.82663969780032"
    },
    {
      "id": "pt.ine.add.PTCONT.1025362",
      "street": "R PEDRO ALVITO",
      "house": "",
      "postcode": "6000-776",
      "city": "CASTELO BRANCO",
      "lon": "-7.499965564907664",
      "lat": "39.82432633753183"
    },
    {
      "id": "pt.ine.add.PTCONT.1028071",
      "street": "R PEDRO ALVITO",
      "house": "",
      "postcode": "6000-776",
      "city": "CASTELO BRANCO",
      "lon": "-7.499042773949089",
      "lat": "39.824330304455884"
    },
    {
      "id": "pt.ine.add.PTCONT.1028137",
      "street": "R PEDRO ALVITO",
      "house": "",
      "postcode": "6000-776",
      "city": "CASTELO BRANCO",
      "lon": "-7.499042773949089",
      "lat": "39.824330304455884"
    },
    {
      "id": "pt.ine.add.PTCONT.1028138",
      "street": "R PEDRO ALVITO",
      "house": "",
      "postcode": "6000-776",
      "city": "CASTELO BRANCO",
      "lon": "-7.499042773949089",
      "lat": "39.824330304455884"
    },
    {
      "id": "pt.ine.add.PTCONT.1028139",
      "street": "R PEDRO ALVITO",
      "house": "",
      "postcode": "6000-776",
      "city": "CASTELO BRANCO",
      "lon": "-7.499042773949089",
      "lat": "39.824330304455884"
    },
    {
      "id": "pt.ine.add.PTCONT.1028140",
      "street": "R PEDRO ALVITO",
      "house": "",
      "postcode": "6000-776",
      "city": "CASTELO BRANCO",
      "lon": "-7.499042773949089",
      "lat": "39.824330304455884"
    },
    {
      "id": "pt.ine.add.PTCONT.1030779",
      "street": "R BAIXO",
      "house": "",
      "postcode": "6000-775",
      "city": "CASTELO BRANCO",
      "lon": "-7.501929998296194",
      "lat": "39.829200480572155"
    },
    {
      "id": "pt.ine.add.PTCONT.1035663",
      "street": "R CRUZ SAN GENS",
      "house": "18",
      "postcode": "6000-776",
      "city": "CASTELO BRANCO",
      "lon": "-7.503111557179491",
      "lat": "39.829008762591016"
    },
    {
      "id": "pt.ine.add.PTCONT.1036582",
      "street": "R PEDRO ALVITO",
      "house": "",
      "postcode": "6000-776",
      "city": "CASTELO BRANCO",
      "lon": "-7.5005363910994625",
      "lat": "39.824491565901226"
    },
    {
      "id": "pt.ine.add.PTCONT.1041179",
      "street": "R PEDRO ALVITO",
      "house": "",
      "postcode": "6000-776",
      "city": "CASTELO BRANCO",
      "lon": "-7.499240834866382",
      "lat": "39.82438542493803"
    },
    {
      "id": "pt.ine.add.PTCONT.1041180",
      "street": "R PEDRO ALVITO",
      "house": "",
      "postcode": "6000-776",
      "city": "CASTELO BRANCO",
      "lon": "-7.499240834866382",
      "lat": "39.82438542493803"
    },
    {
      "id": "pt.ine.add.PTCONT.1041181",
      "street": "R PEDRO ALVITO",
      "house": "",
      "postcode": "6000-776",
      "city": "CASTELO BRANCO",
      "lon": "-7.499240834866382",
      "lat": "39.82438542493803"
    },
    {
      "id": "pt.ine.add.PTCONT.1041182",
      "street": "ENCOSTA SUL CASTELO",
      "house": "26",
      "postcode": "6000-776",
      "city": "CASTELO BRANCO",
      "lon": "-7.499240834866382",
      "lat": "39.82438542493803"
    },
    {
      "id": "pt.ine.add.PTCONT.1041183",
      "street": "R PEDRO ALVITO",
      "house": "",
      "postcode": "6000-776",
      "city": "CASTELO BRANCO",
      "lon": "-7.499240834866382",
      "lat": "39.82438542493803"
    },
    {
      "id": "pt.ine.add.PTCONT.1041197",
      "street": "R PEDRO ALVITO",
      "house": "",
      "postcode": "6000-776",
      "city": "CASTELO BRANCO",
      "lon": "-7.499240834866382",
      "lat": "39.82438542493803"
    },
    {
      "id": "pt.ine.add.PTCONT.1043353",
      "street": "R CRUZ SAN GENS",
      "house": "42",
      "postcode": "6000-776",
      "city": "CASTELO BRANCO",
      "lon": "-7.50265091715216",
      "lat": "39.82828575098121"
    },
    {
      "id": "pt.ine.add.PTCONT.1046808",
      "street": "R BAIXO",
      "house": "2",
      "postcode": "6000-775",
      "city": "CASTELO BRANCO",
      "lon": "-7.501813933402381",
      "lat": "39.82911879178839"
    },
    {
      "id": "pt.ine.add.PTCONT.1050891",
      "street": "R BAIXO",
      "house": "4",
      "postcode": "6000-775",
      "city": "CASTELO BRANCO",
      "lon": "-7.501896687170026",
      "lat": "39.82901116565943"
    },
    {
      "id": "pt.ine.add.PTCONT.1053550",
      "street": "R PEDRO ALVITO",
      "house": "",
      "postcode": "6000-780",
      "city": "CASTELO BRANCO",
      "lon": "-7.500278194387488",
      "lat": "39.82462525345885"
    },
    {
      "id": "pt.ine.add.PTCONT.1053553",
      "street": "R CRUZ SAN GENS",
      "house": "38",
      "postcode": "6000-776",
      "city": "CASTELO BRANCO",
      "lon": "-7.5028480870711345",
      "lat": "39.82843993050031"
    },
    {
      "id": "pt.ine.add.PTCONT.1065070",
      "street": "R PEDRO ALVITO",
      "house": "29",
      "postcode": "6000-776",
      "city": "CASTELO BRANCO",
      "lon": "-7.498871468042842",
      "lat": "39.823906068617724"
    },
    {
      "id": "pt.ine.add.PTCONT.1066610",
      "street": "R FUNDO",
      "house": "6",
      "postcode": "6000-775",
      "city": "CASTELO BRANCO",
      "lon": "-7.502034629990712",
      "lat": "39.82925508795248"
    },
    {
      "id": "pt.ine.add.PTCONT.1066611",
      "street": "R CRUZ SAN GENS",
      "house": "1",
      "postcode": "6000-776",
      "city": "CASTELO BRANCO",
      "lon": "-7.500638857795118",
      "lat": "39.82732913120448"
    },
    {
      "id": "pt.ine.add.PTCONT.1068582",
      "street": "R PEDRO ALVITO",
      "house": "",
      "postcode": "6000-776",
      "city": "CASTELO BRANCO",
      "lon": "-7.500127099432279",
      "lat": "39.82454337187263"
    },
    {
      "id": "pt.ine.add.PTCONT.1071895",
      "street": "R BAIXO",
      "house": "8",
      "postcode": "6000-775",
      "city": "CASTELO BRANCO",
      "lon": "-7.502212147101965",
      "lat": "39.829003875165384"
    },
    {
      "id": "pt.ine.add.PTCONT.1072972",
      "street": "ESTR ISABALDEIRAS",
      "house": "",
      "postcode": "6000-454",
      "city": "CASTELO BRANCO",
      "lon": "-7.50587431778566",
      "lat": "39.827635079616094"
    },
    {
      "id": "pt.ine.add.PTCONT.1077473",
      "street": "ENCOSTA CASTELO",
      "house": "46",
      "postcode": "6000-776",
      "city": "CASTELO BRANCO",
      "lon": "-7.500535069675568",
      "lat": "39.82463566065574"
    },
    {
      "id": "pt.ine.add.PTCONT.1081661",
      "street": "URB ENCOSTA SUL DO CASTELO",
      "house": "",
      "postcode": "6000-024",
      "city": "CASTELO BRANCO",
      "lon": "-7.499535395665749",
      "lat": "39.82410783630634"
    },
    {
      "id": "pt.ine.add.PTCONT.1088178",
      "street": "R PEDRO ALVITO",
      "house": "30",
      "postcode": "6000-776",
      "city": "CASTELO BRANCO",
      "lon": "-7.49886036790486",
      "lat": "39.823842963327046"
    },
    {
      "id": "pt.ine.add.PTCONT.1088832",
      "street": "R PEDRO ALVITO",
      "house": "",
      "postcode": "6000-776",
      "city": "CASTELO BRANCO",
      "lon": "-7.500547575456839",
      "lat": "39.824545665115195"
    },
    {
      "id": "pt.ine.add.PTCONT.1092578",
      "street": "R PEDRO ALVITO",
      "house": "",
      "postcode": "6000-776",
      "city": "CASTELO BRANCO",
      "lon": "-7.500338328813932",
      "lat": "39.82443644762124"
    },
    {
      "id": "pt.ine.add.PTCONT.1093458",
      "street": "R CRUZ SAN GENS",
      "house": "40",
      "postcode": "6000-776",
      "city": "CASTELO BRANCO",
      "lon": "-7.502732022345807",
      "lat": "39.82835824262586"
    },
    {
      "id": "pt.ine.add.PTCONT.1095537",
      "street": "ESTR ISABALDEIRAS",
      "house": "",
      "postcode": "6000-454",
      "city": "CASTELO BRANCO",
      "lon": "-7.50614879995614",
      "lat": "39.82771028576107"
    },
    {
      "id": "pt.ine.add.PTCONT.1096682",
      "street": "R GRANJA ANTIGAS INSTALACÃ•ES CENTAURO",
      "house": "",
      "postcode": "6000-169",
      "city": "CASTELO BRANCO",
      "lon": "-7.5018265941393665",
      "lat": "39.82518307747976"
    },
    {
      "id": "pt.ine.add.PTCONT.1097928",
      "street": "ENCOSTA CASTELO",
      "house": "23",
      "postcode": "6000-776",
      "city": "CASTELO BRANCO",
      "lon": "-7.499940551881013",
      "lat": "39.824506328479885"
    }
  ]
}