{
  "data": {
    "ilha": "Ilha de Porto Santo (Madeira)",
    "concelho": "Porto Santo",
    "freguesia": "Porto Santo",
    "OBJECTID": 1,
    "BGRI2021": "32010100603",
    "DT21": "32",
    "DTMN21": "3201",
    "DTMNFR21": "320101",
    "DTMNFRSEC21": "320101006",
    "SECNUM21": "006",
    "SSNUM21": "03",
    "SECSSNUM21": "00603",
    "OBJECTID_1": 205671,
    "DT": "32",
    "CC": "01",
    "fr": "01",
    "SEC": "006",
    "SS": "03",
    "BGRI2021_1": "32010100603"
  },
  "addresses": [
    {
      "id": "pt.ine.add.MAD.47552",
      "street": "ER 120",
      "house": "A2",
      "postcode": "9400-243",
      "city": "PORTO SANTO",
      "lon": "-16.34217358577193",
      "lat": "33.072705749228994"
    },
    {
      "id": "pt.ine.add.MAD.47553",
      "street": "ER 120",
      "house": "A1",
      "postcode": "9400-243",
      "city": "PORTO SANTO",
      "lon": "-16.341925186588377",
      "lat": "33.072573133979446"
    },
    {
      "id": "pt.ine.add.MAD.47554",
      "street": "ER 120",
      "house": "B1",
      "postcode": "9400-243",
      "city": "PORTO SANTO",
      "lon": "-16.341860238107095",
      "lat": "33.072528736664744"
    },
    {
      "id": "pt.ine.add.MAD.47555",
      "street": "R PICO DA JULIANA",
      "house": "",
      "postcode": "9400-191",
      "city": "PORTO SANTO",
      "lon": "-16.338413418849854",
      "lat": "33.06986902228075"
    },
    {
      "id": "pt.ine.add.MAD.47556",
      "street": "R PICO DA JULIANA",
      "house": "",
      "postcode": "9400-191",
      "city": "PORTO SANTO",
      "lon": "-16.338413418849854",
      "lat": "33.06986902228075"
    },
    {
      "id": "pt.ine.add.MAD.47557",
      "street": "R PICO DA JULIANA",
      "house": "",
      "postcode": "9400-191",
      "city": "PORTO SANTO",
      "lon": "-16.338413418849854",
      "lat": "33.06986902228075"
    },
    {
      "id": "pt.ine.add.MAD.47558",
      "street": "R PICO DA JULIANA",
      "house": "7",
      "postcode": "9400-191",
      "city": "PORTO SANTO",
      "lon": "-16.33875355479082",
      "lat": "33.06969400454837"
    },
    {
      "id": "pt.ine.add.MAD.47559",
      "street": "R PICO DA JULIANA",
      "house": "3",
      "postcode": "9400-191",
      "city": "PORTO SANTO",
      "lon": "-16.338953226114565",
      "lat": "33.06943932089148"
    },
    {
      "id": "pt.ine.add.MAD.47560",
      "street": "R DRAGOEIRO",
      "house": "6",
      "postcode": "9400-190",
      "city": "PORTO SANTO",
      "lon": "-16.338594402166454",
      "lat": "33.069794925256716"
    },
    {
      "id": "pt.ine.add.MAD.47561",
      "street": "R DRAGOEIRO",
      "house": "6",
      "postcode": "9400-190",
      "city": "PORTO SANTO",
      "lon": "-16.338594402166454",
      "lat": "33.069794925256716"
    },
    {
      "id": "pt.ine.add.MAD.47562",
      "street": "R DRAGOEIRO",
      "house": "8",
      "postcode": "9400-190",
      "city": "PORTO SANTO",
      "lon": "-16.33852011260892",
      "lat": "33.06984081914601"
    },
    {
      "id": "pt.ine.add.MAD.47563",
      "street": "R DRAGOEIRO",
      "house": "8",
      "postcode": "9400-190",
      "city": "PORTO SANTO",
      "lon": "-16.33852011260892",
      "lat": "33.06984081914601"
    },
    {
      "id": "pt.ine.add.MAD.47564",
      "street": "R DRAGOEIRO",
      "house": "",
      "postcode": "9400-190",
      "city": "PORTO SANTO",
      "lon": "-16.338328828393134",
      "lat": "33.06994208445028"
    },
    {
      "id": "pt.ine.add.MAD.47565",
      "street": "R DRAGOEIRO",
      "house": "",
      "postcode": "9400-190",
      "city": "PORTO SANTO",
      "lon": "-16.338013933533833",
      "lat": "33.070369369850106"
    },
    {
      "id": "pt.ine.add.MAD.47566",
      "street": "R DRAGOEIRO",
      "house": "",
      "postcode": "9400-190",
      "city": "PORTO SANTO",
      "lon": "-16.33863199584532",
      "lat": "33.07015529258993"
    },
    {
      "id": "pt.ine.add.MAD.47567",
      "street": "R DRAGOEIRO",
      "house": "",
      "postcode": "9400-190",
      "city": "PORTO SANTO",
      "lon": "-16.338538333634272",
      "lat": "33.07033668356923"
    },
    {
      "id": "pt.ine.add.MAD.47568",
      "street": "R PICO FACHO",
      "house": "21",
      "postcode": "9400-045",
      "city": "PORTO SANTO",
      "lon": "-16.34035272189371",
      "lat": "33.07130931211261"
    },
    {
      "id": "pt.ine.add.MAD.47569",
      "street": "R PICO DO FACHO",
      "house": "",
      "postcode": "9400-045",
      "city": "PORTO SANTO",
      "lon": "-16.340318539176813",
      "lat": "33.071174390536136"
    },
    {
      "id": "pt.ine.add.MAD.47570",
      "street": "R PICO DO FACHO",
      "house": "13",
      "postcode": "9400-045",
      "city": "PORTO SANTO",
      "lon": "-16.340174380478413",
      "lat": "33.070851246408154"
    },
    {
      "id": "pt.ine.add.MAD.47571",
      "street": "R DRAGOEIRO",
      "house": "",
      "postcode": "9400-190",
      "city": "PORTO SANTO",
      "lon": "-16.33864046319192",
      "lat": "33.070714396585764"
    },
    {
      "id": "pt.ine.add.MAD.47572",
      "street": "R DRAGOEIRO",
      "house": "",
      "postcode": "9400-190",
      "city": "PORTO SANTO",
      "lon": "-16.338713660769763",
      "lat": "33.07059636016744"
    },
    {
      "id": "pt.ine.add.MAD.47573",
      "street": "R DRAGOEIRO",
      "house": "16",
      "postcode": "9400-190",
      "city": "PORTO SANTO",
      "lon": "-16.338851120644893",
      "lat": "33.070477633689265"
    },
    {
      "id": "pt.ine.add.MAD.47574",
      "street": "R DRAGOEIRO",
      "house": "14",
      "postcode": "9400-190",
      "city": "PORTO SANTO",
      "lon": "-16.338945738552002",
      "lat": "33.070359367129285"
    },
    {
      "id": "pt.ine.add.MAD.47575",
      "street": "R DRAGOEIRO",
      "house": "",
      "postcode": "9400-190",
      "city": "PORTO SANTO",
      "lon": "-16.338997378062096",
      "lat": "33.070232542775294"
    },
    {
      "id": "pt.ine.add.MAD.47576",
      "street": "R DRAGOEIRO",
      "house": "",
      "postcode": "9400-190",
      "city": "PORTO SANTO",
      "lon": "-16.339070028329196",
      "lat": "33.070078434939695"
    },
    {
      "id": "pt.ine.add.MAD.47577",
      "street": "R DRAGOEIRO",
      "house": "",
      "postcode": "9400-190",
      "city": "PORTO SANTO",
      "lon": "-16.339215328127626",
      "lat": "33.06977021914972"
    },
    {
      "id": "pt.ine.add.MAD.47578",
      "street": "R DRAGOEIRO",
      "house": "",
      "postcode": "9400-190",
      "city": "PORTO SANTO",
      "lon": "-16.339266830302623",
      "lat": "33.06963437688579"
    },
    {
      "id": "pt.ine.add.MAD.47579",
      "street": "R PICO DA GANDAIA",
      "house": "",
      "postcode": "9400-045",
      "city": "PORTO SANTO",
      "lon": "-16.339344808524118",
      "lat": "33.06983196329456"
    },
    {
      "id": "pt.ine.add.MAD.47580",
      "street": "R PICO DA GANDAIA",
      "house": "",
      "postcode": "9400-045",
      "city": "PORTO SANTO",
      "lon": "-16.339344808524118",
      "lat": "33.06983196329456"
    },
    {
      "id": "pt.ine.add.MAD.47581",
      "street": "R PICO DA GANDAIA",
      "house": "",
      "postcode": "9400-045",
      "city": "PORTO SANTO",
      "lon": "-16.339188935341625",
      "lat": "33.070149312062824"
    },
    {
      "id": "pt.ine.add.MAD.47582",
      "street": "R PICO GANDAIA",
      "house": "21",
      "postcode": "9400-010",
      "city": "PORTO SANTO",
      "lon": "-16.338645379823124",
      "lat": "33.07103903759168"
    },
    {
      "id": "pt.ine.add.MAD.47583",
      "street": "R PICO DA GANDAIA",
      "house": "",
      "postcode": "9400-045",
      "city": "PORTO SANTO",
      "lon": "-16.339600986186586",
      "lat": "33.070478598816685"
    },
    {
      "id": "pt.ine.add.MAD.47584",
      "street": "R PICO DA GANDAIA",
      "house": "",
      "postcode": "9400-045",
      "city": "PORTO SANTO",
      "lon": "-16.339645741261343",
      "lat": "33.07060438776268"
    },
    {
      "id": "pt.ine.add.MAD.47585",
      "street": "R PICO DA GANDAIA",
      "house": "",
      "postcode": "9400-045",
      "city": "PORTO SANTO",
      "lon": "-16.33967882928266",
      "lat": "33.070667167150255"
    },
    {
      "id": "pt.ine.add.MAD.47586",
      "street": "R PICO GANDAIA",
      "house": "7",
      "postcode": "9400-045",
      "city": "PORTO SANTO",
      "lon": "-16.33978948754275",
      "lat": "33.0709004791696"
    },
    {
      "id": "pt.ine.add.MAD.48311",
      "street": "ER 120",
      "house": "",
      "postcode": "9400-243",
      "city": "PORTO SANTO",
      "lon": "-16.338142497345878",
      "lat": "33.066832434023055"
    },
    {
      "id": "pt.ine.add.MAD.48312",
      "street": "ESTR MANUEL FRANCISCO COELHO",
      "house": "A",
      "postcode": "9400-045",
      "city": "PORTO SANTO",
      "lon": "-16.338607200258224",
      "lat": "33.067810547385875"
    },
    {
      "id": "pt.ine.add.MAD.48313",
      "street": "ESTR MANUEL FRANCISCO COELHO",
      "house": "C",
      "postcode": "9400-045",
      "city": "PORTO SANTO",
      "lon": "-16.338661706634454",
      "lat": "33.06787309716013"
    },
    {
      "id": "pt.ine.add.MAD.48314",
      "street": "ESTR MANUEL FRANCISCO COELHO",
      "house": "D",
      "postcode": "9400-045",
      "city": "PORTO SANTO",
      "lon": "-16.338768261349898",
      "lat": "33.06783587605773"
    },
    {
      "id": "pt.ine.add.MAD.48315",
      "street": "ESTR MANUEL FRANCISCO COELHO",
      "house": "",
      "postcode": "9400-045",
      "city": "PORTO SANTO",
      "lon": "-16.338599494333018",
      "lat": "33.06800905418632"
    },
    {
      "id": "pt.ine.add.MAD.48316",
      "street": "ESTR MANUEL FRANCISCO COELHO",
      "house": "",
      "postcode": "9400-045",
      "city": "PORTO SANTO",
      "lon": "-16.338748889684666",
      "lat": "33.0679713731821"
    },
    {
      "id": "pt.ine.add.MAD.48317",
      "street": "ESTR MANUEL FRANCISCO COELHO",
      "house": "",
      "postcode": "9400-045",
      "city": "PORTO SANTO",
      "lon": "-16.33873033737349",
      "lat": "33.06816097715832"
    },
    {
      "id": "pt.ine.add.MAD.48318",
      "street": "ESTR MANUEL FRANCISCO COELHO",
      "house": "",
      "postcode": "9400-045",
      "city": "PORTO SANTO",
      "lon": "-16.338828367518126",
      "lat": "33.068268155930724"
    },
    {
      "id": "pt.ine.add.MAD.48319",
      "street": "ESTR MANUEL FRANCISCO COELHO",
      "house": "",
      "postcode": "9400-045",
      "city": "PORTO SANTO",
      "lon": "-16.338819432881543",
      "lat": "33.0683855024415"
    },
    {
      "id": "pt.ine.add.MAD.48320",
      "street": "ESTR MANUEL FRANCISCO COELHO",
      "house": "5111",
      "postcode": "9400-045",
      "city": "PORTO SANTO",
      "lon": "-16.338867600289728",
      "lat": "33.06873673696842"
    },
    {
      "id": "pt.ine.add.MAD.48321",
      "street": "ESTR MANUEL FRANCISCO COELHO",
      "house": "",
      "postcode": "9400-045",
      "city": "PORTO SANTO",
      "lon": "-16.338613832810495",
      "lat": "33.068955924164946"
    },
    {
      "id": "pt.ine.add.MAD.48322",
      "street": "ESTR MANUEL FRANCISCO COELHO",
      "house": "",
      "postcode": "9400-045",
      "city": "PORTO SANTO",
      "lon": "-16.33881760035598",
      "lat": "33.06897177497576"
    },
    {
      "id": "pt.ine.add.MAD.48323",
      "street": "ESTR MANUEL FRANCISCO COELHO",
      "house": "",
      "postcode": "9400-045",
      "city": "PORTO SANTO",
      "lon": "-16.33900035729518",
      "lat": "33.069014908903306"
    },
    {
      "id": "pt.ine.add.MAD.48324",
      "street": "R PICO JULIANA",
      "house": "4",
      "postcode": "9400-191",
      "city": "PORTO SANTO",
      "lon": "-16.33866213636353",
      "lat": "33.0693161765608"
    },
    {
      "id": "pt.ine.add.MAD.48325",
      "street": "R PICO DA JULIANA",
      "house": "",
      "postcode": "9400-191",
      "city": "PORTO SANTO",
      "lon": "-16.338399704568232",
      "lat": "33.06967074546617"
    },
    {
      "id": "pt.ine.add.MAD.48326",
      "street": "R PICO FACHO",
      "house": "11",
      "postcode": "9400-045",
      "city": "PORTO SANTO",
      "lon": "-16.340041616856382",
      "lat": "33.07057307596755"
    },
    {
      "id": "pt.ine.add.MAD.48327",
      "street": "R PICO FACHO",
      "house": "7",
      "postcode": "9400-045",
      "city": "PORTO SANTO",
      "lon": "-16.33988674983647",
      "lat": "33.07025004653298"
    },
    {
      "id": "pt.ine.add.MAD.48328",
      "street": "R PICO DO FACHO",
      "house": "",
      "postcode": "9400-045",
      "city": "PORTO SANTO",
      "lon": "-16.33983073749079",
      "lat": "33.07008830155053"
    },
    {
      "id": "pt.ine.add.MAD.48329",
      "street": "R PICO DO FACHO",
      "house": "",
      "postcode": "9400-045",
      "city": "PORTO SANTO",
      "lon": "-16.339645927889126",
      "lat": "33.06990990186463"
    },
    {
      "id": "pt.ine.add.MAD.48330",
      "street": "R DRAGOAL",
      "house": "",
      "postcode": "9400-045",
      "city": "PORTO SANTO",
      "lon": "-16.340302222212156",
      "lat": "33.070804775893684"
    },
    {
      "id": "pt.ine.add.MAD.48331",
      "street": "R PICO DA GANDAIA",
      "house": "6",
      "postcode": "9400-045",
      "city": "PORTO SANTO",
      "lon": "-16.339392790468544",
      "lat": "33.070877683384566"
    },
    {
      "id": "pt.ine.add.MAD.48332",
      "street": "R PICO GANDAIA",
      "house": "2",
      "postcode": "9400-045",
      "city": "PORTO SANTO",
      "lon": "-16.339421368896566",
      "lat": "33.070642875340845"
    },
    {
      "id": "pt.ine.add.MAD.48333",
      "street": "R DRAGOAL",
      "house": "7",
      "postcode": "9400-045",
      "city": "PORTO SANTO",
      "lon": "-16.339173799308668",
      "lat": "33.0705643611372"
    },
    {
      "id": "pt.ine.add.MAD.48334",
      "street": "R PICO DA GANDAIA",
      "house": "",
      "postcode": "9400-045",
      "city": "PORTO SANTO",
      "lon": "-16.339081503993985",
      "lat": "33.070835930537015"
    },
    {
      "id": "pt.ine.add.MAD.48335",
      "street": "R PICO DA GANDAIA",
      "house": "",
      "postcode": "9400-045",
      "city": "PORTO SANTO",
      "lon": "-16.339081503993985",
      "lat": "33.070835930537015"
    },
    {
      "id": "pt.ine.add.MAD.48336",
      "street": "R DRAGOAL",
      "house": "N 15",
      "postcode": "9400-045",
      "city": "PORTO SANTO",
      "lon": "-16.339094400358046",
      "lat": "33.07098010037384"
    },
    {
      "id": "pt.ine.add.MAD.48337",
      "street": "R DRAGOAL",
      "house": "",
      "postcode": "9400-045",
      "city": "PORTO SANTO",
      "lon": "-16.338819069618584",
      "lat": "33.07119050031301"
    },
    {
      "id": "pt.ine.add.MAD.48338",
      "street": "R DRAGOEIRO",
      "house": "",
      "postcode": "9400-190",
      "city": "PORTO SANTO",
      "lon": "-16.338494886812793",
      "lat": "33.07100457613858"
    },
    {
      "id": "pt.ine.add.MAD.48339",
      "street": "R PICO GANDAIA",
      "house": "7",
      "postcode": "9400-045",
      "city": "PORTO SANTO",
      "lon": "-16.33978948754275",
      "lat": "33.0709004791696"
    },
    {
      "id": "pt.ine.add.MAD.48340",
      "street": "R PICO GANDAIA",
      "house": "7",
      "postcode": "9400-045",
      "city": "PORTO SANTO",
      "lon": "-16.33978948754275",
      "lat": "33.0709004791696"
    },
    {
      "id": "pt.ine.add.MAD.48341",
      "street": "R PICO DA GANDAIA",
      "house": "",
      "postcode": "9400-045",
      "city": "PORTO SANTO",
      "lon": "-16.33978948754275",
      "lat": "33.0709004791696"
    },
    {
      "id": "pt.ine.add.MAD.48342",
      "street": "R PICO DA GANDAIA",
      "house": "71",
      "postcode": "9400-045",
      "city": "PORTO SANTO",
      "lon": "-16.339845090291846",
      "lat": "33.07103517073579"
    },
    {
      "id": "pt.ine.add.MAD.48343",
      "street": "R PICO DA GANDAIA",
      "house": "",
      "postcode": "9400-045",
      "city": "PORTO SANTO",
      "lon": "-16.33985689435263",
      "lat": "33.07110719804987"
    },
    {
      "id": "pt.ine.add.MAD.48344",
      "street": "R PICO FACHO",
      "house": "14",
      "postcode": "9400-045",
      "city": "PORTO SANTO",
      "lon": "-16.340136734248276",
      "lat": "33.071194383284194"
    },
    {
      "id": "pt.ine.add.MAD.48345",
      "street": "R PICO FACHO",
      "house": "12",
      "postcode": "9400-045",
      "city": "PORTO SANTO",
      "lon": "-16.340015774359387",
      "lat": "33.070988240126006"
    },
    {
      "id": "pt.ine.add.MAD.48346",
      "street": "R PICO FACHO",
      "house": "6",
      "postcode": "9400-045",
      "city": "PORTO SANTO",
      "lon": "-16.339904568586537",
      "lat": "33.0707188571237"
    },
    {
      "id": "pt.ine.add.MAD.49140",
      "street": "ESTR FRANCISCO BERNARDO JARDIM",
      "house": "",
      "postcode": "9400-133",
      "city": "PORTO SANTO",
      "lon": "-16.33100857092448",
      "lat": "33.07324032531091"
    },
    {
      "id": "pt.ine.add.MAD.49273",
      "street": "ESTR FRANCISCO BERNARDO JARDIM",
      "house": "27",
      "postcode": "9400-133",
      "city": "PORTO SANTO",
      "lon": "-16.333524415290693",
      "lat": "33.066034094544285"
    },
    {
      "id": "pt.ine.add.MAD.49274",
      "street": "ESTR FRANCISCO BERNARDO JARDIM",
      "house": "",
      "postcode": "9400-133",
      "city": "PORTO SANTO",
      "lon": "-16.33349510621978",
      "lat": "33.06551128935327"
    },
    {
      "id": "pt.ine.add.MAD.49275",
      "street": "ESTR FRANCISCO BERNARDO JARDIM",
      "house": "191",
      "postcode": "9400-133",
      "city": "PORTO SANTO",
      "lon": "-16.33355895715744",
      "lat": "33.065483548654704"
    },
    {
      "id": "pt.ine.add.MAD.49276",
      "street": "ESTR FRANCISCO BERNARDO JARDIM",
      "house": "19",
      "postcode": "9400-133",
      "city": "PORTO SANTO",
      "lon": "-16.333461888577016",
      "lat": "33.06543949028082"
    },
    {
      "id": "pt.ine.add.MAD.49277",
      "street": "ESTR FRANCISCO BERNARDO JARDIM",
      "house": "5",
      "postcode": "9400-133",
      "city": "PORTO SANTO",
      "lon": "-16.333525159526967",
      "lat": "33.06466315492713"
    },
    {
      "id": "pt.ine.add.MAD.49278",
      "street": "ESTR FRANCISCO BERNARDO JARDIM",
      "house": "",
      "postcode": "9400-133",
      "city": "PORTO SANTO",
      "lon": "-16.333805109102617",
      "lat": "33.064759372970755"
    },
    {
      "id": "pt.ine.add.MAD.49279",
      "street": "ESTR JOSE DA GLÃ“RIA ROSADO",
      "house": "56",
      "postcode": "9400-192",
      "city": "PORTO SANTO",
      "lon": "-16.333819084039405",
      "lat": "33.06497568638774"
    },
    {
      "id": "pt.ine.add.MAD.49280",
      "street": "ESTR JOSE GLORIA ROSADO",
      "house": "58",
      "postcode": "9400-192",
      "city": "PORTO SANTO",
      "lon": "-16.33384213621528",
      "lat": "33.06508367125425"
    },
    {
      "id": "pt.ine.add.MAD.49281",
      "street": "R SALAO",
      "house": "15",
      "postcode": "9400-194",
      "city": "PORTO SANTO",
      "lon": "-16.336338722049632",
      "lat": "33.06655414189503"
    },
    {
      "id": "pt.ine.add.MAD.49282",
      "street": "R SALAO",
      "house": "13",
      "postcode": "9400-194",
      "city": "PORTO SANTO",
      "lon": "-16.336465332853447",
      "lat": "33.066426515008324"
    },
    {
      "id": "pt.ine.add.MAD.49283",
      "street": "R SALAO",
      "house": "11",
      "postcode": "9400-194",
      "city": "PORTO SANTO",
      "lon": "-16.33656281296302",
      "lat": "33.06649762443066"
    },
    {
      "id": "pt.ine.add.MAD.49284",
      "street": "R SALAO",
      "house": "",
      "postcode": "9400-194",
      "city": "PORTO SANTO",
      "lon": "-16.336604698336398",
      "lat": "33.06643404049662"
    },
    {
      "id": "pt.ine.add.MAD.49285",
      "street": "R SALAO",
      "house": "3",
      "postcode": "9400-194",
      "city": "PORTO SANTO",
      "lon": "-16.33678690357669",
      "lat": "33.06644110657023"
    },
    {
      "id": "pt.ine.add.MAD.49286",
      "street": "R SALAO",
      "house": "",
      "postcode": "9400-194",
      "city": "PORTO SANTO",
      "lon": "-16.33670763270738",
      "lat": "33.066865862564235"
    },
    {
      "id": "pt.ine.add.MAD.49287",
      "street": "R SALAO",
      "house": "",
      "postcode": "9400-194",
      "city": "PORTO SANTO",
      "lon": "-16.336528289666308",
      "lat": "33.06704817060055"
    },
    {
      "id": "pt.ine.add.MAD.49288",
      "street": "R SALAO",
      "house": "",
      "postcode": "9400-194",
      "city": "PORTO SANTO",
      "lon": "-16.33662296872209",
      "lat": "33.06764242821038"
    },
    {
      "id": "pt.ine.add.MAD.49954",
      "street": "ESTR FRANCISCO BERNARDO JARDIM",
      "house": "",
      "postcode": "9400-133",
      "city": "PORTO SANTO",
      "lon": "-16.331388861151122",
      "lat": "33.07288451310189"
    },
    {
      "id": "pt.ine.add.MAD.49955",
      "street": "ESTR FRANCISCO BERNARDO JARDIM",
      "house": "87",
      "postcode": "9400-133",
      "city": "PORTO SANTO",
      "lon": "-16.331156058129412",
      "lat": "33.07236388053933"
    },
    {
      "id": "pt.ine.add.MAD.49956",
      "street": "ESTR FRANCISCO BERNARDO JARDIM",
      "house": "83",
      "postcode": "9400-133",
      "city": "PORTO SANTO",
      "lon": "-16.331306550928176",
      "lat": "33.07239835085874"
    },
    {
      "id": "pt.ine.add.MAD.49957",
      "street": "ESTR FRANCISCO BERNARDO JARDIM",
      "house": "83 A",
      "postcode": "9400-133",
      "city": "PORTO SANTO",
      "lon": "-16.331457043838352",
      "lat": "33.072432820993306"
    },
    {
      "id": "pt.ine.add.MAD.49958",
      "street": "ESTR FRANCISCO BERNARDO JARDIM",
      "house": "83 A",
      "postcode": "9400-133",
      "city": "PORTO SANTO",
      "lon": "-16.331457043838352",
      "lat": "33.072432820993306"
    },
    {
      "id": "pt.ine.add.MAD.49959",
      "street": "ESTR FRANCISCO BERNARDO JARDIM",
      "house": "",
      "postcode": "9400-133",
      "city": "PORTO SANTO",
      "lon": "-16.331735905753852",
      "lat": "33.071744377447935"
    },
    {
      "id": "pt.ine.add.MAD.49960",
      "street": "ESTR FRANCISCO BERNARDO JARDIM",
      "house": "",
      "postcode": "9400-133",
      "city": "PORTO SANTO",
      "lon": "-16.33168017888383",
      "lat": "33.0716006641475"
    },
    {
      "id": "pt.ine.add.MAD.49967",
      "street": "R FONTE DO TANQUE",
      "house": "",
      "postcode": "9400-050",
      "city": "PORTO SANTO",
      "lon": "-16.34343867922847",
      "lat": "33.067839759424686"
    },
    {
      "id": "pt.ine.add.MAD.49984",
      "street": "ESTR FRANCISCO BERNARDO JARDIM",
      "house": "59",
      "postcode": "9400-133",
      "city": "PORTO SANTO",
      "lon": "-16.33271034131449",
      "lat": "33.069587376876136"
    },
    {
      "id": "pt.ine.add.MAD.49985",
      "street": "ESTR FRANCISCO BERNARDO JARDIM",
      "house": "",
      "postcode": "9400-133",
      "city": "PORTO SANTO",
      "lon": "-16.332941617141437",
      "lat": "33.06929628766209"
    },
    {
      "id": "pt.ine.add.MAD.49986",
      "street": "R SARAMAGOS",
      "house": "1",
      "postcode": "9400-197",
      "city": "PORTO SANTO",
      "lon": "-16.333639827161456",
      "lat": "33.06942411094629"
    },
    {
      "id": "pt.ine.add.MAD.49987",
      "street": "R TERCAS",
      "house": "43",
      "postcode": "9400-197",
      "city": "PORTO SANTO",
      "lon": "-16.333179793566373",
      "lat": "33.068752584325686"
    },
    {
      "id": "pt.ine.add.MAD.49988",
      "street": "R TERCAS",
      "house": "",
      "postcode": "9400-197",
      "city": "PORTO SANTO",
      "lon": "-16.333507321437935",
      "lat": "33.06845144563778"
    },
    {
      "id": "pt.ine.add.MAD.49989",
      "street": "R TERCAS",
      "house": "",
      "postcode": "9400-197",
      "city": "PORTO SANTO",
      "lon": "-16.333623637020345",
      "lat": "33.06835098952647"
    },
    {
      "id": "pt.ine.add.MAD.49990",
      "street": "R TERCAS",
      "house": "",
      "postcode": "9400-197",
      "city": "PORTO SANTO",
      "lon": "-16.334036979120686",
      "lat": "33.06805795090457"
    },
    {
      "id": "pt.ine.add.MAD.49991",
      "street": "R TERCAS",
      "house": "",
      "postcode": "9400-197",
      "city": "PORTO SANTO",
      "lon": "-16.33421687382773",
      "lat": "33.06791171760406"
    },
    {
      "id": "pt.ine.add.MAD.49992",
      "street": "R SEMENTEIRAS",
      "house": "",
      "postcode": "9400-197",
      "city": "PORTO SANTO",
      "lon": "-16.334061801695118",
      "lat": "33.068283167395364"
    },
    {
      "id": "pt.ine.add.MAD.49993",
      "street": "SIT TERCAS",
      "house": "",
      "postcode": "9400-197",
      "city": "PORTO SANTO",
      "lon": "-16.33359585994271",
      "lat": "33.06863990366257"
    },
    {
      "id": "pt.ine.add.MAD.49994",
      "street": "R LEVADA",
      "house": "",
      "postcode": "9400-197",
      "city": "PORTO SANTO",
      "lon": "-16.333449861862725",
      "lat": "33.06890302426879"
    },
    {
      "id": "pt.ine.add.MAD.49995",
      "street": "R LEVADA",
      "house": "",
      "postcode": "9400-197",
      "city": "PORTO SANTO",
      "lon": "-16.333353877703193",
      "lat": "33.06893110855184"
    },
    {
      "id": "pt.ine.add.MAD.50039",
      "street": "ESTR MANUEL FRANCISCO COELHO",
      "house": "",
      "postcode": "9400-045",
      "city": "PORTO SANTO",
      "lon": "-16.339393493303415",
      "lat": "33.06880324320892"
    },
    {
      "id": "pt.ine.add.MAD.50040",
      "street": "R DRAGOAL",
      "house": "",
      "postcode": "9400-045",
      "city": "PORTO SANTO",
      "lon": "-16.339465152772227",
      "lat": "33.06716998470909"
    },
    {
      "id": "pt.ine.add.MAD.50041",
      "street": "ESTR AEROPORTO",
      "house": "",
      "postcode": "9400-045",
      "city": "PORTO SANTO",
      "lon": "-16.340431104581167",
      "lat": "33.06729489367474"
    },
    {
      "id": "pt.ine.add.MAD.50042",
      "street": "ESTR AEROPORTO",
      "house": "",
      "postcode": "9400-045",
      "city": "PORTO SANTO",
      "lon": "-16.34062443199578",
      "lat": "33.06732889236465"
    },
    {
      "id": "pt.ine.add.MAD.50043",
      "street": "ESTR AEROPORTO",
      "house": "",
      "postcode": "9400-045",
      "city": "PORTO SANTO",
      "lon": "-16.34066768238037",
      "lat": "33.06735548517268"
    },
    {
      "id": "pt.ine.add.MAD.50044",
      "street": "ESTR AEROPORTO",
      "house": "",
      "postcode": "9400-174",
      "city": "PORTO SANTO",
      "lon": "-16.340709565135597",
      "lat": "33.06729189993284"
    },
    {
      "id": "pt.ine.add.MAD.50045",
      "street": "ER 235",
      "house": "",
      "postcode": "9400-174",
      "city": "PORTO SANTO",
      "lon": "-16.3371162489094",
      "lat": "33.066969712891385"
    },
    {
      "id": "pt.ine.add.MAD.50046",
      "street": "ER 235",
      "house": "",
      "postcode": "9400-174",
      "city": "PORTO SANTO",
      "lon": "-16.336976473408996",
      "lat": "33.0669351345455"
    },
    {
      "id": "pt.ine.add.MAD.50047",
      "street": "R SALAO",
      "house": "",
      "postcode": "9400-194",
      "city": "PORTO SANTO",
      "lon": "-16.336440761006322",
      "lat": "33.06763536196104"
    },
    {
      "id": "pt.ine.add.MAD.50796",
      "street": "R FONTE DO TANQUE",
      "house": "",
      "postcode": "9400-050",
      "city": "PORTO SANTO",
      "lon": "-16.343274328309235",
      "lat": "33.067598009784646"
    },
    {
      "id": "pt.ine.add.MAD.50797",
      "street": "R FONTE DO TANQUE",
      "house": "",
      "postcode": "9400-050",
      "city": "PORTO SANTO",
      "lon": "-16.343328289642002",
      "lat": "33.06762448626723"
    },
    {
      "id": "pt.ine.add.MAD.50798",
      "street": "R FONTE DO TANQUE",
      "house": "",
      "postcode": "9400-050",
      "city": "PORTO SANTO",
      "lon": "-16.34314087523786",
      "lat": "33.06727475365689"
    },
    {
      "id": "pt.ine.add.MAD.50799",
      "street": "R PONTE DO TANQUE",
      "house": "",
      "postcode": "9400-050",
      "city": "PORTO SANTO",
      "lon": "-16.34219866815156",
      "lat": "33.067302937778315"
    },
    {
      "id": "pt.ine.add.MAD.50800",
      "street": "R PONTE DO TANQUE",
      "house": "",
      "postcode": "9400-050",
      "city": "PORTO SANTO",
      "lon": "-16.34222751212484",
      "lat": "33.06708616477562"
    },
    {
      "id": "pt.ine.add.MAD.50801",
      "street": "R PONTE DO TANQUE",
      "house": "",
      "postcode": "9400-050",
      "city": "PORTO SANTO",
      "lon": "-16.34194094331215",
      "lat": "33.067260615330675"
    },
    {
      "id": "pt.ine.add.MAD.50802",
      "street": "R FONTE DO TANQUE",
      "house": "",
      "postcode": "9400-050",
      "city": "PORTO SANTO",
      "lon": "-16.341787033787956",
      "lat": "33.06700071271581"
    },
    {
      "id": "pt.ine.add.MAD.50803",
      "street": "R FONTE DO TANQUE",
      "house": "",
      "postcode": "9400-050",
      "city": "PORTO SANTO",
      "lon": "-16.342042124965193",
      "lat": "33.06757520087597"
    },
    {
      "id": "pt.ine.add.MAD.50804",
      "street": "R FONTE DO TANQUE",
      "house": "",
      "postcode": "9400-050",
      "city": "PORTO SANTO",
      "lon": "-16.3419491568601",
      "lat": "33.0678016832325"
    },
    {
      "id": "pt.ine.add.MAD.50811",
      "street": "ER 235",
      "house": "",
      "postcode": "9400-174",
      "city": "PORTO SANTO",
      "lon": "-16.337168025667488",
      "lat": "33.066851907028706"
    },
    {
      "id": "pt.ine.add.MAD.50812",
      "street": "ER 235",
      "house": "",
      "postcode": "9400-174",
      "city": "PORTO SANTO",
      "lon": "-16.33715322369335",
      "lat": "33.06658148736175"
    },
    {
      "id": "pt.ine.add.MAD.50813",
      "street": "ER 235",
      "house": "",
      "postcode": "9400-174",
      "city": "PORTO SANTO",
      "lon": "-16.337499080056435",
      "lat": "33.06678522151411"
    },
    {
      "id": "pt.ine.add.MAD.50814",
      "street": "ER 235",
      "house": "",
      "postcode": "9400-174",
      "city": "PORTO SANTO",
      "lon": "-16.337691177291628",
      "lat": "33.06673806447415"
    },
    {
      "id": "pt.ine.add.MAD.50815",
      "street": "SIT TERCAS",
      "house": "",
      "postcode": "9400-174",
      "city": "PORTO SANTO",
      "lon": "-16.334315213771834",
      "lat": "33.06874945853289"
    },
    {
      "id": "pt.ine.add.MAD.50816",
      "street": "SIT TERCAS",
      "house": "",
      "postcode": "9400-174",
      "city": "PORTO SANTO",
      "lon": "-16.334632572075467",
      "lat": "33.06848450289403"
    },
    {
      "id": "pt.ine.add.MAD.50817",
      "street": "SIT TERCAS",
      "house": "",
      "postcode": "9400-174",
      "city": "PORTO SANTO",
      "lon": "-16.334812194271052",
      "lat": "33.06832023309975"
    },
    {
      "id": "pt.ine.add.MAD.50818",
      "street": "SIT TERCAS",
      "house": "21",
      "postcode": "9400-174",
      "city": "PORTO SANTO",
      "lon": "-16.334692612350594",
      "lat": "33.06820426250964"
    },
    {
      "id": "pt.ine.add.MAD.50819",
      "street": "SIT TERCAS",
      "house": "41",
      "postcode": "9400-174",
      "city": "PORTO SANTO",
      "lon": "-16.33488430576856",
      "lat": "33.06813005621774"
    },
    {
      "id": "pt.ine.add.MAD.50820",
      "street": "SIT TERCAS",
      "house": "",
      "postcode": "9400-174",
      "city": "PORTO SANTO",
      "lon": "-16.335312711622947",
      "lat": "33.068125469154985"
    },
    {
      "id": "pt.ine.add.MAD.50821",
      "street": "SIT TERCAS",
      "house": "15",
      "postcode": "9400-174",
      "city": "PORTO SANTO",
      "lon": "-16.33517075564483",
      "lat": "33.06794660365927"
    },
    {
      "id": "pt.ine.add.MAD.50822",
      "street": "SIT TERCAS",
      "house": "19",
      "postcode": "9400-133",
      "city": "PORTO SANTO",
      "lon": "-16.33508412128684",
      "lat": "33.06788439632577"
    },
    {
      "id": "pt.ine.add.MAD.50823",
      "street": "ESTR FRANCISCO BERNARDO JARDIM",
      "house": "43",
      "postcode": "9400-133",
      "city": "PORTO SANTO",
      "lon": "-16.333308382378696",
      "lat": "33.06733518182338"
    },
    {
      "id": "pt.ine.add.MAD.50824",
      "street": "ESTR FRANCISCO BERNARDO JARDIM",
      "house": "39",
      "postcode": "9400-133",
      "city": "PORTO SANTO",
      "lon": "-16.333366658031704",
      "lat": "33.06693771013985"
    },
    {
      "id": "pt.ine.add.MAD.50825",
      "street": "ESTR FRANCISCO BERNARDO JARDIM",
      "house": "35",
      "postcode": "9400-133",
      "city": "PORTO SANTO",
      "lon": "-16.333490009141073",
      "lat": "33.06659365821875"
    },
    {
      "id": "pt.ine.add.MAD.50826",
      "street": "ESTR FRANCISCO BERNARDO JARDIM",
      "house": "29",
      "postcode": "9400-133",
      "city": "PORTO SANTO",
      "lon": "-16.33351792218811",
      "lat": "33.0663137618526"
    },
    {
      "id": "pt.ine.add.MAD.54611",
      "street": "ESTR REGIONAL",
      "house": "",
      "postcode": "9400-050",
      "city": "PORTO SANTO",
      "lon": "-16.343354527241903",
      "lat": "33.06723637500663"
    },
    {
      "id": "pt.ine.add.MAD.54612",
      "street": "R FONTE DO TANQUE",
      "house": "",
      "postcode": "9400-050",
      "city": "PORTO SANTO",
      "lon": "-16.343104885718834",
      "lat": "33.0677261048144"
    },
    {
      "id": "pt.ine.add.MAD.54613",
      "street": "R FONTE DO TANQUE",
      "house": "",
      "postcode": "9400-050",
      "city": "PORTO SANTO",
      "lon": "-16.343104885718834",
      "lat": "33.0677261048144"
    },
    {
      "id": "pt.ine.add.MAD.54614",
      "street": "R FONTE DO TANQUE",
      "house": "",
      "postcode": "9400-050",
      "city": "PORTO SANTO",
      "lon": "-16.343104885718834",
      "lat": "33.0677261048144"
    },
    {
      "id": "pt.ine.add.MAD.54615",
      "street": "R FONTE DO TANQUE",
      "house": "",
      "postcode": "9400-050",
      "city": "PORTO SANTO",
      "lon": "-16.3425542898827",
      "lat": "33.06744341765435"
    },
    {
      "id": "pt.ine.add.MAD.54616",
      "street": "R FONTE DO TANQUE",
      "house": "",
      "postcode": "9400-050",
      "city": "PORTO SANTO",
      "lon": "-16.3425542898827",
      "lat": "33.06744341765435"
    },
    {
      "id": "pt.ine.add.MAD.54780",
      "street": "R DRAGOAL",
      "house": "",
      "postcode": "9400-045",
      "city": "PORTO SANTO",
      "lon": "-16.339948052382645",
      "lat": "33.069347460606735"
    },
    {
      "id": "pt.ine.add.MAD.54781",
      "street": "R PICO DA GANDAIA",
      "house": "",
      "postcode": "9400-045",
      "city": "PORTO SANTO",
      "lon": "-16.339319730235346",
      "lat": "33.07100473798237"
    },
    {
      "id": "pt.ine.add.MAD.54782",
      "street": "R DRAGOAL",
      "house": "2",
      "postcode": "9400-045",
      "city": "PORTO SANTO",
      "lon": "-16.33940620098005",
      "lat": "33.069641899103765"
    },
    {
      "id": "pt.ine.add.MAD.54783",
      "street": "R DRAGOAL",
      "house": "2",
      "postcode": "9400-045",
      "city": "PORTO SANTO",
      "lon": "-16.33940620098005",
      "lat": "33.069641899103765"
    },
    {
      "id": "pt.ine.add.MAD.54950",
      "street": "R FRANCISCO BERNARDO JARDIM",
      "house": "",
      "postcode": "9400-174",
      "city": "PORTO SANTO",
      "lon": "-16.33440280138731",
      "lat": "33.06887479115458"
    },
    {
      "id": "pt.ine.add.MAD.58170",
      "street": "ESTR MANUEL FRANCISCO COELHO",
      "house": "",
      "postcode": "9400-045",
      "city": "PORTO SANTO",
      "lon": "-16.340171782635117",
      "lat": "33.07067990820378"
    },
    {
      "id": "pt.ine.add.MAD.58571",
      "street": "ESTR FRANCISCO BERNARDO JARDIM",
      "house": "MIE",
      "postcode": "9400-133",
      "city": "PORTO SANTO",
      "lon": "-16.333959790739858",
      "lat": "33.06720194477265"
    },
    {
      "id": "pt.ine.add.MAD.58572",
      "street": "ESTR FRANCISCO BERNARDO JARDIM",
      "house": "MID",
      "postcode": "9400-133",
      "city": "PORTO SANTO",
      "lon": "-16.333658277074118",
      "lat": "33.06709693858523"
    },
    {
      "id": "pt.ine.add.MAD.58573",
      "street": "ESTR FRANCISCO BERNARDO JARDIM",
      "house": "",
      "postcode": "9400-133",
      "city": "PORTO SANTO",
      "lon": "-16.333497010508026",
      "lat": "33.06563753900622"
    },
    {
      "id": "pt.ine.add.MAD.61451",
      "street": "ESTR MANUEL FRANCISCO COELHO",
      "house": "8",
      "postcode": "9400-045",
      "city": "PORTO SANTO",
      "lon": "-16.33871389148802",
      "lat": "33.06778234414099"
    },
    {
      "id": "pt.ine.add.MAD.61452",
      "street": "ESTR MANUEL FRANCISCO COELHO",
      "house": "",
      "postcode": "9400-045",
      "city": "PORTO SANTO",
      "lon": "-16.338966177642817",
      "lat": "33.06887998683255"
    },
    {
      "id": "pt.ine.add.MAD.61645",
      "street": "R SARAMAGOS",
      "house": "",
      "postcode": "9400-197",
      "city": "PORTO SANTO",
      "lon": "-16.333158135172656",
      "lat": "33.069447300657885"
    },
    {
      "id": "pt.ine.add.MAD.61839",
      "street": "ESTR AEROPORTO",
      "house": "",
      "postcode": "9400-045",
      "city": "PORTO SANTO",
      "lon": "-16.340537384313937",
      "lat": "33.06723963548539"
    },
    {
      "id": "pt.ine.add.MAD.61840",
      "street": "ESTR AEROPORTO",
      "house": "",
      "postcode": "9400-045",
      "city": "PORTO SANTO",
      "lon": "-16.340655741512794",
      "lat": "33.06727444009372"
    },
    {
      "id": "pt.ine.add.MAD.61841",
      "street": "SIT TERCAS",
      "house": "4",
      "postcode": "9400-174",
      "city": "PORTO SANTO",
      "lon": "-16.334491297525172",
      "lat": "33.06835072573714"
    },
    {
      "id": "pt.ine.add.MAD.61842",
      "street": "ESTR FRANCISCO BERNARDO JARDIM",
      "house": "",
      "postcode": "9400-133",
      "city": "PORTO SANTO",
      "lon": "-16.333793174939927",
      "lat": "33.06467832703303"
    },
    {
      "id": "pt.ine.add.MAD.63809",
      "street": "ESTR FRANCISCO BERNARDO JARDIM",
      "house": "83 C",
      "postcode": "9400-133",
      "city": "PORTO SANTO",
      "lon": "-16.331673159688147",
      "lat": "33.07255678287659"
    },
    {
      "id": "pt.ine.add.MAD.63810",
      "street": "R FONTE DO TANQUE",
      "house": "",
      "postcode": "9400-050",
      "city": "PORTO SANTO",
      "lon": "-16.342054067149828",
      "lat": "33.06765624578488"
    },
    {
      "id": "pt.ine.add.MAD.66386",
      "street": "ER 120",
      "house": "",
      "postcode": "9400-243",
      "city": "PORTO SANTO",
      "lon": "-16.34177236249526",
      "lat": "33.07238537413163"
    },
    {
      "id": "pt.ine.add.MAD.66387",
      "street": "R DRAGOEIRO",
      "house": "",
      "postcode": "9400-190",
      "city": "PORTO SANTO",
      "lon": "-16.33905071156603",
      "lat": "33.069510428199614"
    },
    {
      "id": "pt.ine.add.MAD.66388",
      "street": "R PICO DO FACHO",
      "house": "9",
      "postcode": "9400-045",
      "city": "PORTO SANTO",
      "lon": "-16.339941942178466",
      "lat": "33.07035768467117"
    },
    {
      "id": "pt.ine.add.MAD.66389",
      "street": "R DRAGOEIRO",
      "house": "",
      "postcode": "9400-190",
      "city": "PORTO SANTO",
      "lon": "-16.338411797430265",
      "lat": "33.071176834244675"
    },
    {
      "id": "pt.ine.add.MAD.66574",
      "street": "R SEMENTEIRAS",
      "house": "",
      "postcode": "9400-197",
      "city": "PORTO SANTO",
      "lon": "-16.33382998788338",
      "lat": "33.068538187265816"
    },
    {
      "id": "pt.ine.add.MAD.66582",
      "street": "ESTR FRANCISCO BERNARDO JARDIM",
      "house": "",
      "postcode": "9400-133",
      "city": "PORTO SANTO",
      "lon": "-16.333629944362787",
      "lat": "33.064508706406464"
    },
    {
      "id": "pt.ine.add.MAD.69486",
      "street": "ESTR FRANCISCO BERNARDO JARDIM",
      "house": "89",
      "postcode": "9400-133",
      "city": "PORTO SANTO",
      "lon": "-16.331201888922664",
      "lat": "33.0725618154062"
    },
    {
      "id": "pt.ine.add.MAD.69487",
      "street": "R FONTE DO TANQUE",
      "house": "",
      "postcode": "9400-050",
      "city": "PORTO SANTO",
      "lon": "-16.342362467861683",
      "lat": "33.067508617749304"
    },
    {
      "id": "pt.ine.add.MAD.69674",
      "street": "ER 120",
      "house": "",
      "postcode": "9400-243",
      "city": "PORTO SANTO",
      "lon": "-16.33982198944629",
      "lat": "33.06951116216427"
    },
    {
      "id": "pt.ine.add.MAD.69675",
      "street": "ESTR MANUEL FRANCISCO COELHO",
      "house": "",
      "postcode": "9400-045",
      "city": "PORTO SANTO",
      "lon": "-16.33861531582479",
      "lat": "33.06763909401128"
    },
    {
      "id": "pt.ine.add.MAD.69676",
      "street": "R DRAGOEIRO",
      "house": "",
      "postcode": "9400-190",
      "city": "PORTO SANTO",
      "lon": "-16.338999209121035",
      "lat": "33.0696462703835"
    },
    {
      "id": "pt.ine.add.MAD.69677",
      "street": "R DRAGOEIRO",
      "house": "",
      "postcode": "9400-190",
      "city": "PORTO SANTO",
      "lon": "-16.338999209121035",
      "lat": "33.0696462703835"
    },
    {
      "id": "pt.ine.add.MAD.69678",
      "street": "R DRAGOEIRO",
      "house": "",
      "postcode": "9400-190",
      "city": "PORTO SANTO",
      "lon": "-16.338999209121035",
      "lat": "33.0696462703835"
    },
    {
      "id": "pt.ine.add.MAD.69679",
      "street": "R DRAGOEIRO",
      "house": "",
      "postcode": "9400-190",
      "city": "PORTO SANTO",
      "lon": "-16.338999209121035",
      "lat": "33.0696462703835"
    },
    {
      "id": "pt.ine.add.MAD.69680",
      "street": "R DRAGOEIRO",
      "house": "",
      "postcode": "9400-190",
      "city": "PORTO SANTO",
      "lon": "-16.338477075421803",
      "lat": "33.070535765178576"
    },
    {
      "id": "pt.ine.add.MAD.69681",
      "street": "R DRAGOEIRO",
      "house": "",
      "postcode": "9400-190",
      "city": "PORTO SANTO",
      "lon": "-16.338477075421803",
      "lat": "33.070535765178576"
    },
    {
      "id": "pt.ine.add.MAD.69682",
      "street": "R PICO FACHO",
      "house": "12",
      "postcode": "9400-045",
      "city": "PORTO SANTO",
      "lon": "-16.340080857509076",
      "lat": "33.07104165626499"
    },
    {
      "id": "pt.ine.add.MAD.69683",
      "street": "R PICO DO FACHO",
      "house": "8",
      "postcode": "9400-045",
      "city": "PORTO SANTO",
      "lon": "-16.339982275843767",
      "lat": "33.070898407438015"
    },
    {
      "id": "pt.ine.add.MAD.69887",
      "street": "R LEVADA",
      "house": "3",
      "postcode": "9400-197",
      "city": "PORTO SANTO",
      "lon": "-16.333300054410014",
      "lat": "33.06891364552986"
    },
    {
      "id": "pt.ine.add.MAD.69889",
      "street": "R DRAGOAL",
      "house": "",
      "postcode": "9400-045",
      "city": "PORTO SANTO",
      "lon": "-16.33957211623288",
      "lat": "33.06715981636912"
    },
    {
      "id": "pt.ine.add.MAD.69890",
      "street": "SIT TERCAS",
      "house": "",
      "postcode": "9400-174",
      "city": "PORTO SANTO",
      "lon": "-16.33446229807691",
      "lat": "33.06855847957492"
    },
    {
      "id": "pt.ine.add.MAD.69891",
      "street": "ESTR FRANCISCO BERNARDO JARDIM",
      "house": "37",
      "postcode": "9400-133",
      "city": "PORTO SANTO",
      "lon": "-16.333462640044605",
      "lat": "33.066909625893146"
    },
    {
      "id": "pt.ine.add.MAD.69892",
      "street": "ESTR FRANCISCO BERNARDO JARDIM",
      "house": "31",
      "postcode": "9400-133",
      "city": "PORTO SANTO",
      "lon": "-16.333530808573283",
      "lat": "33.06645793261373"
    },
    {
      "id": "pt.ine.add.MAD.72865",
      "street": "R FONTE DO TANQUE",
      "house": "",
      "postcode": "9400-050",
      "city": "PORTO SANTO",
      "lon": "-16.343380880612866",
      "lat": "33.067560784796115"
    },
    {
      "id": "pt.ine.add.MAD.72866",
      "street": "R FONTE DO TANQUE",
      "house": "",
      "postcode": "9400-010",
      "city": "PORTO SANTO",
      "lon": "-16.34237947702235",
      "lat": "33.06792332108939"
    },
    {
      "id": "pt.ine.add.MAD.73050",
      "street": "R PICO DO FACHO",
      "house": "",
      "postcode": "9400-045",
      "city": "PORTO SANTO",
      "lon": "-16.340284493312765",
      "lat": "33.07104848674419"
    },
    {
      "id": "pt.ine.add.MAD.73051",
      "street": "R PICO DA GANDAIA",
      "house": "",
      "postcode": "9400-045",
      "city": "PORTO SANTO",
      "lon": "-16.339467131721392",
      "lat": "33.07012828525941"
    },
    {
      "id": "pt.ine.add.MAD.73052",
      "street": "R PICO DA GANDAIA",
      "house": "",
      "postcode": "9400-045",
      "city": "PORTO SANTO",
      "lon": "-16.339467131721392",
      "lat": "33.07012828525941"
    },
    {
      "id": "pt.ine.add.MAD.73228",
      "street": "ESTR AEROPORTO",
      "house": "",
      "postcode": "9400-045",
      "city": "PORTO SANTO",
      "lon": "-16.340462277468042",
      "lat": "33.067231423645076"
    },
    {
      "id": "pt.ine.add.MAD.73229",
      "street": "ESTR FRANCISCO BERNARDO JARDIM",
      "house": "MIC",
      "postcode": "9400-133",
      "city": "PORTO SANTO",
      "lon": "-16.333841027856398",
      "lat": "33.0671400802511"
    },
    {
      "id": "pt.ine.add.MAD.74764",
      "street": "ESTR AEROPORTO",
      "house": "",
      "postcode": "9400-045",
      "city": "PORTO SANTO",
      "lon": "-16.340386897170692",
      "lat": "33.06720517614997"
    },
    {
      "id": "pt.ine.add.MAD.74765",
      "street": "ESTR AEROPORTO",
      "house": "",
      "postcode": "9400-045",
      "city": "PORTO SANTO",
      "lon": "-16.340495638199638",
      "lat": "33.067312238474486"
    },
    {
      "id": "pt.ine.add.MAD.74766",
      "street": "ESTR FRANCISCO BERNARDO JARDIM",
      "house": "23",
      "postcode": "9400-133",
      "city": "PORTO SANTO",
      "lon": "-16.333520606590252",
      "lat": "33.06578159525464"
    },
    {
      "id": "pt.ine.add.MAD.77159",
      "street": "R FONTE DO TANQUE",
      "house": "",
      "postcode": "9400-050",
      "city": "PORTO SANTO",
      "lon": "-16.3423476498347",
      "lat": "33.06723819913449"
    },
    {
      "id": "pt.ine.add.MAD.77160",
      "street": "R PONTE DO TANQUE",
      "house": "",
      "postcode": "9400-050",
      "city": "PORTO SANTO",
      "lon": "-16.342205133730946",
      "lat": "33.067023270758355"
    },
    {
      "id": "pt.ine.add.MAD.77345",
      "street": "ER 120",
      "house": "82",
      "postcode": "9400-243",
      "city": "PORTO SANTO",
      "lon": "-16.342076231210555",
      "lat": "33.072643662342784"
    },
    {
      "id": "pt.ine.add.MAD.77346",
      "street": "R DRAGOEIRO",
      "house": "",
      "postcode": "9400-190",
      "city": "PORTO SANTO",
      "lon": "-16.33874830760442",
      "lat": "33.07005483181486"
    },
    {
      "id": "pt.ine.add.MAD.77347",
      "street": "R DRAGOEIRO",
      "house": "",
      "postcode": "9400-190",
      "city": "PORTO SANTO",
      "lon": "-16.33874830760442",
      "lat": "33.07005483181486"
    },
    {
      "id": "pt.ine.add.MAD.79893",
      "street": "R FONTE DO TANQUE",
      "house": "",
      "postcode": "9400-050",
      "city": "PORTO SANTO",
      "lon": "-16.34346505341975",
      "lat": "33.067460665957476"
    },
    {
      "id": "pt.ine.add.MAD.79894",
      "street": "R FONTE DO TANQUE",
      "house": "",
      "postcode": "9400-050",
      "city": "PORTO SANTO",
      "lon": "-16.342634902542265",
      "lat": "33.06710883664856"
    },
    {
      "id": "pt.ine.add.MAD.79903",
      "street": "R DRAGOEIRO",
      "house": "",
      "postcode": "9400-190",
      "city": "PORTO SANTO",
      "lon": "-16.339037405757317",
      "lat": "33.06933920489849"
    },
    {
      "id": "pt.ine.add.MAD.80064",
      "street": "R DRAGOEIRO",
      "house": "",
      "postcode": "9400-190",
      "city": "PORTO SANTO",
      "lon": "-16.338894291467135",
      "lat": "33.06979170540315"
    },
    {
      "id": "pt.ine.add.MAD.80065",
      "street": "R DRAGOEIRO",
      "house": "",
      "postcode": "9400-190",
      "city": "PORTO SANTO",
      "lon": "-16.338894291467135",
      "lat": "33.06979170540315"
    },
    {
      "id": "pt.ine.add.MAD.80066",
      "street": "R DRAGOEIRO",
      "house": "",
      "postcode": "9400-190",
      "city": "PORTO SANTO",
      "lon": "-16.338894291467135",
      "lat": "33.06979170540315"
    },
    {
      "id": "pt.ine.add.MAD.80067",
      "street": "R DRAGOEIRO",
      "house": "",
      "postcode": "9400-190",
      "city": "PORTO SANTO",
      "lon": "-16.338894291467135",
      "lat": "33.06979170540315"
    },
    {
      "id": "pt.ine.add.MAD.80068",
      "street": "R PICO FACHO",
      "house": "5",
      "postcode": "9400-045",
      "city": "PORTO SANTO",
      "lon": "-16.339874945891026",
      "lat": "33.07017801920978"
    },
    {
      "id": "pt.ine.add.MAD.80069",
      "street": "R DRAGOAL",
      "house": "",
      "postcode": "9400-045",
      "city": "PORTO SANTO",
      "lon": "-16.340425370586726",
      "lat": "33.0711552035507"
    },
    {
      "id": "pt.ine.add.MAD.80070",
      "street": "R PICO DA GANDAIA",
      "house": "",
      "postcode": "9400-045",
      "city": "PORTO SANTO",
      "lon": "-16.33886551910185",
      "lat": "33.070720999426065"
    },
    {
      "id": "pt.ine.add.MAD.80071",
      "street": "R PICO DA GANDAIA",
      "house": "20",
      "postcode": "9400-045",
      "city": "PORTO SANTO",
      "lon": "-16.338771037301346",
      "lat": "33.070848283736375"
    },
    {
      "id": "pt.ine.add.MAD.80247",
      "street": "R SARAMAGOS",
      "house": "",
      "postcode": "9400-197",
      "city": "PORTO SANTO",
      "lon": "-16.33341259810281",
      "lat": "33.06927321334172"
    },
    {
      "id": "pt.ine.add.MAD.80253",
      "street": "ER 235",
      "house": "",
      "postcode": "9400-174",
      "city": "PORTO SANTO",
      "lon": "-16.337033160318335",
      "lat": "33.06714197015908"
    },
    {
      "id": "pt.ine.add.MAD.80254",
      "street": "SIT TERCAS",
      "house": "14",
      "postcode": "9400-174",
      "city": "PORTO SANTO",
      "lon": "-16.334303006235753",
      "lat": "33.06865037707019"
    },
    {
      "id": "pt.ine.add.MAD.80654",
      "street": "R PICO JULIANA",
      "house": "N 05",
      "postcode": "9400-191",
      "city": "PORTO SANTO",
      "lon": "-16.338848445204416",
      "lat": "33.069593773679635"
    },
    {
      "id": "pt.ine.add.MAD.80655",
      "street": "R DRAGOEIRO",
      "house": "",
      "postcode": "9400-190",
      "city": "PORTO SANTO",
      "lon": "-16.33823366396227",
      "lat": "33.070024279325615"
    },
    {
      "id": "pt.ine.add.MAD.80656",
      "street": "R DRAGOAL",
      "house": "",
      "postcode": "9400-045",
      "city": "PORTO SANTO",
      "lon": "-16.34007156064743",
      "lat": "33.07042844582192"
    },
    {
      "id": "pt.ine.add.MAD.80816",
      "street": "R SARAMAGOS",
      "house": "",
      "postcode": "9400-197",
      "city": "PORTO SANTO",
      "lon": "-16.333098905312042",
      "lat": "33.06978164736006"
    },
    {
      "id": "pt.ine.add.MAD.80817",
      "street": "R SARAMAGOS",
      "house": "5",
      "postcode": "9400-197",
      "city": "PORTO SANTO",
      "lon": "-16.333374381881598",
      "lat": "33.06958027760133"
    },
    {
      "id": "pt.ine.add.MAD.80818",
      "street": "ESTR FRANCISCO BERNARDO JARDIM CASA A",
      "house": "CASA A",
      "postcode": "9400-133",
      "city": "PORTO SANTO",
      "lon": "-16.33367936478188",
      "lat": "33.06849470200297"
    },
    {
      "id": "pt.ine.add.MAD.80822",
      "street": "SIT TERCAS",
      "house": "",
      "postcode": "9400-174",
      "city": "PORTO SANTO",
      "lon": "-16.335225668359172",
      "lat": "33.06803620846164"
    },
    {
      "id": "pt.ine.add.MAD.85723",
      "street": "R DRAGOEIRO",
      "house": "",
      "postcode": "9400-190",
      "city": "PORTO SANTO",
      "lon": "-16.338240080794105",
      "lat": "33.07044811630847"
    },
    {
      "id": "pt.ine.add.MAD.85724",
      "street": "R DRAGOEIRO",
      "house": "",
      "postcode": "9400-190",
      "city": "PORTO SANTO",
      "lon": "-16.338240080794105",
      "lat": "33.07044811630847"
    },
    {
      "id": "pt.ine.add.MAD.85935",
      "street": "R PICO DA GANDAIA",
      "house": "",
      "postcode": "9400-045",
      "city": "PORTO SANTO",
      "lon": "-16.33889172092796",
      "lat": "33.07103639257648"
    },
    {
      "id": "pt.ine.add.MAD.85936",
      "street": "R PICO DA GANDAIA",
      "house": "",
      "postcode": "9400-045",
      "city": "PORTO SANTO",
      "lon": "-16.33889172092796",
      "lat": "33.07103639257648"
    },
    {
      "id": "pt.ine.add.MAD.85937",
      "street": "R PICO DA GANDAIA",
      "house": "",
      "postcode": "9400-045",
      "city": "PORTO SANTO",
      "lon": "-16.33889172092796",
      "lat": "33.07103639257648"
    },
    {
      "id": "pt.ine.add.MAD.85948",
      "street": "R FEITEIRA",
      "house": "",
      "postcode": "9400-197",
      "city": "PORTO SANTO",
      "lon": "-16.333918527161526",
      "lat": "33.06872664503927"
    },
    {
      "id": "pt.ine.add.MAD.86150",
      "street": "ESTR FRANCISCO BERNARDO JARDIM",
      "house": "MIG",
      "postcode": "9400-133",
      "city": "PORTO SANTO",
      "lon": "-16.334133192772804",
      "lat": "33.06733537885319"
    },
    {
      "id": "pt.ine.add.MAD.86151",
      "street": "ESTR FRANCISCO BERNARDO JARDIM",
      "house": "17",
      "postcode": "9400-133",
      "city": "PORTO SANTO",
      "lon": "-16.333502959623168",
      "lat": "33.06532180033835"
    },
    {
      "id": "pt.ine.add.MAD.86152",
      "street": "ESTR JOSE GLORIA ROSADO",
      "house": "54",
      "postcode": "9400-192",
      "city": "PORTO SANTO",
      "lon": "-16.333764310785615",
      "lat": "33.06489509867101"
    },
    {
      "id": "pt.ine.add.MAD.86153",
      "street": "R SALAO",
      "house": "",
      "postcode": "9400-194",
      "city": "PORTO SANTO",
      "lon": "-16.33652398753473",
      "lat": "33.067472122878826"
    },
    {
      "id": "pt.ine.add.MAD.89544",
      "street": "R DRAGOAL",
      "house": "",
      "postcode": "9400-045",
      "city": "PORTO SANTO",
      "lon": "-16.33850220729277",
      "lat": "33.06724346004333"
    },
    {
      "id": "pt.ine.add.MAD.89557",
      "street": "R DRAGOEIRO",
      "house": "",
      "postcode": "9400-190",
      "city": "PORTO SANTO",
      "lon": "-16.33808603958925",
      "lat": "33.07017919130947"
    },
    {
      "id": "pt.ine.add.MAD.89558",
      "street": "R DRAGOEIRO",
      "house": "",
      "postcode": "9400-190",
      "city": "PORTO SANTO",
      "lon": "-16.33855710122048",
      "lat": "33.07086861917048"
    },
    {
      "id": "pt.ine.add.MAD.89592",
      "street": "ESTR FRANCISCO BERNARDO JARDIM",
      "house": "33",
      "postcode": "9400-133",
      "city": "PORTO SANTO",
      "lon": "-16.3334703575109",
      "lat": "33.066711119085966"
    },
    {
      "id": "pt.ine.add.MAD.90653",
      "street": "R DRAGOEIRO",
      "house": "",
      "postcode": "9400-190",
      "city": "PORTO SANTO",
      "lon": "-16.3388006301601",
      "lat": "33.06997309656634"
    },
    {
      "id": "pt.ine.add.MAD.90651",
      "street": "ER 120",
      "house": "",
      "postcode": "9400-243",
      "city": "PORTO SANTO",
      "lon": "-16.342315015795833",
      "lat": "33.07284853490483"
    },
    {
      "id": "pt.ine.add.MAD.90652",
      "street": "ESTR MANUEL FRANCISCO COELHO",
      "house": "6",
      "postcode": "9400-045",
      "city": "PORTO SANTO",
      "lon": "-16.338568788734932",
      "lat": "33.067396073019324"
    },
    {
      "id": "pt.ine.add.MAD.91039",
      "street": "ESTR MANUEL FRANCISCO COELHO",
      "house": "",
      "postcode": "9400-045",
      "city": "PORTO SANTO",
      "lon": "-16.339284205167402",
      "lat": "33.06866010873451"
    },
    {
      "id": "pt.ine.add.MAD.91040",
      "street": "ESTR AEROPORTO",
      "house": "",
      "postcode": "9400-045",
      "city": "PORTO SANTO",
      "lon": "-16.340311790364915",
      "lat": "33.06719696421785"
    },
    {
      "id": "pt.ine.add.MAD.91041",
      "street": "SIT TERCAS",
      "house": "",
      "postcode": "9400-174",
      "city": "PORTO SANTO",
      "lon": "-16.334992496734017",
      "lat": "33.06820105217476"
    },
    {
      "id": "pt.ine.add.MAD.91042",
      "street": "SIT TERCAS",
      "house": "",
      "postcode": "9400-174",
      "city": "PORTO SANTO",
      "lon": "-16.335133771775283",
      "lat": "33.068334828753635"
    },
    {
      "id": "pt.ine.add.MAD.95912",
      "street": "R PICO DA GANDAIA",
      "house": "5",
      "postcode": "9400-045",
      "city": "PORTO SANTO",
      "lon": "-16.3397443220456",
      "lat": "33.070747636884605"
    },
    {
      "id": "pt.ine.add.MAD.95913",
      "street": "R PICO DA GANDAIA",
      "house": "5",
      "postcode": "9400-045",
      "city": "PORTO SANTO",
      "lon": "-16.3397443220456",
      "lat": "33.070747636884605"
    },
    {
      "id": "pt.ine.add.MAD.95914",
      "street": "R PICO FACHO",
      "house": "4",
      "postcode": "9400-045",
      "city": "PORTO SANTO",
      "lon": "-16.339848419186197",
      "lat": "33.070548094367744"
    },
    {
      "id": "pt.ine.add.MAD.95931",
      "street": "R TERCAS",
      "house": "",
      "postcode": "9400-197",
      "city": "PORTO SANTO",
      "lon": "-16.333295837883906",
      "lat": "33.068634092847944"
    },
    {
      "id": "pt.ine.add.MAD.95934",
      "street": "ESTR AEROPORTO",
      "house": "",
      "postcode": "9400-045",
      "city": "PORTO SANTO",
      "lon": "-16.340355724237586",
      "lat": "33.0672686461622"
    },
    {
      "id": "pt.ine.add.MAD.95935",
      "street": "SIT TERCAS",
      "house": "15",
      "postcode": "9400-174",
      "city": "PORTO SANTO",
      "lon": "-16.334953605427888",
      "lat": "33.068463027705356"
    },
    {
      "id": "pt.ine.add.MAD.95936",
      "street": "R SALAO",
      "house": "5",
      "postcode": "9400-194",
      "city": "PORTO SANTO",
      "lon": "-16.33669215037719",
      "lat": "33.06655035371176"
    },
    {
      "id": "pt.ine.add.MAD.100784",
      "street": "R DRAGOEIRO",
      "house": "",
      "postcode": "9400-190",
      "city": "PORTO SANTO",
      "lon": "-16.3388006301601",
      "lat": "33.06997309656634"
    },
    {
      "id": "pt.ine.add.MAD.97382",
      "street": "ESTR MANUEL FRANCISCO COELHO",
      "house": "",
      "postcode": "9400-045",
      "city": "PORTO SANTO",
      "lon": "-16.338928993104076",
      "lat": "33.068546672973355"
    },
    {
      "id": "pt.ine.add.MAD.97768",
      "street": "ESTR FRANCISCO BERNARDO JARDIM",
      "house": "",
      "postcode": "9400-133",
      "city": "PORTO SANTO",
      "lon": "-16.33376998690365",
      "lat": "33.064561324313644"
    },
    {
      "id": "pt.ine.add.MAD.98211",
      "street": "R TERCAS",
      "house": "",
      "postcode": "9400-197",
      "city": "PORTO SANTO",
      "lon": "-16.33389951623542",
      "lat": "33.06817667218786"
    },
    {
      "id": "pt.ine.add.MAD.98213",
      "street": "ESTR AEROPORTO",
      "house": "",
      "postcode": "9400-045",
      "city": "PORTO SANTO",
      "lon": "-16.340560035092224",
      "lat": "33.06732056543636"
    },
    {
      "id": "pt.ine.add.MAD.99229",
      "street": "R DRAGOEIRO",
      "house": "",
      "postcode": "9400-190",
      "city": "PORTO SANTO",
      "lon": "-16.338328828393134",
      "lat": "33.06994208445028"
    },
    {
      "id": "pt.ine.add.MAD.99230",
      "street": "R DRAGOAL",
      "house": "4",
      "postcode": "9400-045",
      "city": "PORTO SANTO",
      "lon": "-16.339471282751987",
      "lat": "33.06969531560681"
    },
    {
      "id": "pt.ine.add.MAD.99431",
      "street": "R DRAGOEIRO",
      "house": "1",
      "postcode": "9400-190",
      "city": "PORTO SANTO",
      "lon": "-16.338894291467135",
      "lat": "33.06979170540315"
    },
    {
      "id": "pt.ine.add.MAD.99974",
      "street": "ESTR FRANCISCO BERNARDO JARDIM",
      "house": "41 B",
      "postcode": "9400-133",
      "city": "PORTO SANTO",
      "lon": "-16.333478519051727",
      "lat": "33.067252188909684"
    },
    {
      "id": "pt.ine.add.MAD.99991",
      "street": "ER 120",
      "house": "",
      "postcode": "9400-243",
      "city": "PORTO SANTO",
      "lon": "-16.342541583977024",
      "lat": "33.072954326635646"
    },
    {
      "id": "pt.ine.add.MAD.100224",
      "street": "R PONTE DO TANQUE",
      "house": "",
      "postcode": "9400-050",
      "city": "PORTO SANTO",
      "lon": "-16.343324178648515",
      "lat": "33.067353952467855"
    },
    {
      "id": "pt.ine.add.MAD.101065",
      "street": "R TERCAS",
      "house": "44",
      "postcode": "9400-197",
      "city": "PORTO SANTO",
      "lon": "-16.33310563793598",
      "lat": "33.06880749287394"
    },
    {
      "id": "pt.ine.add.MAD.101256",
      "street": "R DRAGOEIRO",
      "house": "",
      "postcode": "9400-190",
      "city": "PORTO SANTO",
      "lon": "-16.33913210462276",
      "lat": "33.06993345989872"
    },
    {
      "id": "pt.ine.add.MAD.102047",
      "street": "ESTR AEROPORTO",
      "house": "",
      "postcode": "9400-045",
      "city": "PORTO SANTO",
      "lon": "-16.340591344646736",
      "lat": "33.067266113180615"
    },
    {
      "id": "pt.ine.add.MAD.102070",
      "street": "ESTR AEROPORTO",
      "house": "",
      "postcode": "9400-045",
      "city": "PORTO SANTO",
      "lon": "-16.34028061737989",
      "lat": "33.06726043421267"
    },
    {
      "id": "pt.ine.add.MAD.103070",
      "street": "ER 235",
      "house": "",
      "postcode": "9400-174",
      "city": "PORTO SANTO",
      "lon": "-16.337251795787292",
      "lat": "33.066724738761415"
    },
    {
      "id": "pt.ine.add.MAD.103267",
      "street": "ESTR FRANCISCO BERNARDO JARDIM",
      "house": "43",
      "postcode": "9400-133",
      "city": "PORTO SANTO",
      "lon": "-16.333308382378696",
      "lat": "33.06733518182338"
    },
    {
      "id": "pt.ine.add.MAD.103928",
      "street": "R DRAGOAL",
      "house": "",
      "postcode": "9400-045",
      "city": "PORTO SANTO",
      "lon": "-16.34021872636681",
      "lat": "33.07094998171605"
    },
    {
      "id": "pt.ine.add.MAD.103929",
      "street": "R PICO DA GANDAIA",
      "house": "",
      "postcode": "9400-045",
      "city": "PORTO SANTO",
      "lon": "-16.339271885663976",
      "lat": "33.069968035669476"
    },
    {
      "id": "pt.ine.add.MAD.104113",
      "street": "ESTR MANUEL FRANCISCO COELHO",
      "house": "",
      "postcode": "9400-045",
      "city": "PORTO SANTO",
      "lon": "-16.338867600289728",
      "lat": "33.06873673696842"
    },
    {
      "id": "pt.ine.add.MAD.104114",
      "street": "R DRAGOAL",
      "house": "7",
      "postcode": "9400-045",
      "city": "PORTO SANTO",
      "lon": "-16.339173799308668",
      "lat": "33.0705643611372"
    },
    {
      "id": "pt.ine.add.MAD.104374",
      "street": "R SALAO",
      "house": "",
      "postcode": "9400-194",
      "city": "PORTO SANTO",
      "lon": "-16.33616695394261",
      "lat": "33.0665289247662"
    },
    {
      "id": "pt.ine.add.MAD.104542",
      "street": "ESTR FRANCISCO BERNARDO JARDIM",
      "house": "93",
      "postcode": "9400-133",
      "city": "PORTO SANTO",
      "lon": "-16.331388861151122",
      "lat": "33.07288451310189"
    },
    {
      "id": "pt.ine.add.MAD.104544",
      "street": "SIT PE PICO",
      "house": "",
      "postcode": "9400-133",
      "city": "PORTO SANTO",
      "lon": "-16.33310036760459",
      "lat": "33.06916832053596"
    },
    {
      "id": "pt.ine.add.MAD.104876",
      "street": "ESTR FRANCISCO BERNARDO JARDIM",
      "house": "41B",
      "postcode": "9400-133",
      "city": "PORTO SANTO",
      "lon": "-16.333486100457517",
      "lat": "33.06704466428202"
    },
    {
      "id": "pt.ine.add.MAD.104948",
      "street": "R SEMENTEIRAS",
      "house": "",
      "postcode": "9400-197",
      "city": "PORTO SANTO",
      "lon": "-16.334263797668523",
      "lat": "33.06818179397469"
    },
    {
      "id": "pt.ine.add.MAD.105280",
      "street": "ER 120",
      "house": "",
      "postcode": "9400-045",
      "city": "PORTO SANTO",
      "lon": "-16.338315222143947",
      "lat": "33.06692077308839"
    },
    {
      "id": "pt.ine.add.MAD.105314",
      "street": "ER 120",
      "house": "",
      "postcode": "9400-243",
      "city": "PORTO SANTO",
      "lon": "-16.342617654780895",
      "lat": "33.07302566160272"
    },
    {
      "id": "pt.ine.add.MAD.105346",
      "street": "R SEMENTEIRAS",
      "house": "",
      "postcode": "9400-197",
      "city": "PORTO SANTO",
      "lon": "-16.3334474132761",
      "lat": "33.06874070336793"
    },
    {
      "id": "pt.ine.add.MAD.105896",
      "street": "R FONTE DO TANQUE",
      "house": "",
      "postcode": "9400-050",
      "city": "PORTO SANTO",
      "lon": "-16.342455845445254",
      "lat": "33.067309188499515"
    },
    {
      "id": "pt.ine.add.MAD.106233",
      "street": "R PICO DA GANDAIA",
      "house": "5",
      "postcode": "9400-045",
      "city": "PORTO SANTO",
      "lon": "-16.3397443220456",
      "lat": "33.070747636884605"
    },
    {
      "id": "pt.ine.add.MAD.117550",
      "street": "R ÃLAMOS",
      "house": "",
      "postcode": "9400-045",
      "city": "PORTO SANTO",
      "lon": "-16.338906939256113",
      "lat": "33.07133386510691"
    },
    {
      "id": "pt.ine.add.MAD.117522",
      "street": "R ÃLAMOS",
      "house": "5",
      "postcode": "9400-045",
      "city": "PORTO SANTO",
      "lon": "-16.3391425706394",
      "lat": "33.07133133458839"
    },
    {
      "id": "pt.ine.add.MAD.117523",
      "street": "R ÃLAMOS",
      "house": "",
      "postcode": "9400-045",
      "city": "PORTO SANTO",
      "lon": "-16.3391425706394",
      "lat": "33.07133133458839"
    },
    {
      "id": "pt.ine.add.MAD.117524",
      "street": "R ÃLAMOS",
      "house": "",
      "postcode": "9400-045",
      "city": "PORTO SANTO",
      "lon": "-16.339581018419842",
      "lat": "33.07128152842631"
    },
    {
      "id": "pt.ine.add.MAD.117525",
      "street": "R ÃLAMOS",
      "house": "",
      "postcode": "9400-045",
      "city": "PORTO SANTO",
      "lon": "-16.339945449099826",
      "lat": "33.071295651075076"
    },
    {
      "id": "pt.ine.add.MAD.117540",
      "street": "R ÃLAMOS",
      "house": "7",
      "postcode": "9400-045",
      "city": "PORTO SANTO",
      "lon": "-16.33937820199321",
      "lat": "33.071328803624816"
    },
    {
      "id": "pt.ine.add.MAD.117541",
      "street": "R ÃLAMOS",
      "house": "7",
      "postcode": "9400-045",
      "city": "PORTO SANTO",
      "lon": "-16.33937820199321",
      "lat": "33.071328803624816"
    },
    {
      "id": "pt.ine.add.MAD.128449",
      "street": "R DRAGOEIRO",
      "house": "",
      "postcode": "9400-190",
      "city": "PORTO SANTO",
      "lon": "-16.33838185069886",
      "lat": "33.07132146405026"
    },
    {
      "id": "pt.ine.add.MAD.128157",
      "street": "R SEMENTEIRAS",
      "house": "",
      "postcode": "9400-197",
      "city": "PORTO SANTO",
      "lon": "-16.333870651507013",
      "lat": "33.068393443754346"
    },
    {
      "id": "pt.ine.add.MAD.128654",
      "street": "ESTR FRANCISCO BERNARDO JARDIM",
      "house": "",
      "postcode": "9400-133",
      "city": "PORTO SANTO",
      "lon": "-16.331723972309653",
      "lat": "33.07166333137644"
    },
    {
      "id": "pt.ine.add.MAD.128656",
      "street": "ER 235",
      "house": "",
      "postcode": "9400-174",
      "city": "PORTO SANTO",
      "lon": "-16.336916986645196",
      "lat": "33.067251447149104"
    },
    {
      "id": "pt.ine.add.MAD.128836",
      "street": "R PONTE DO TANQUE",
      "house": "",
      "postcode": "9400-050",
      "city": "PORTO SANTO",
      "lon": "-16.3432189967838",
      "lat": "33.06748135534126"
    },
    {
      "id": "pt.ine.add.MAD.129257",
      "street": "R DRAGOAL",
      "house": "",
      "postcode": "9400-045",
      "city": "PORTO SANTO",
      "lon": "-16.33905319933514",
      "lat": "33.06755321889725"
    },
    {
      "id": "pt.ine.add.MAD.129330",
      "street": "R ÃLAMOS",
      "house": "11",
      "postcode": "9400-045",
      "city": "PORTO SANTO",
      "lon": "-16.340416848188994",
      "lat": "33.07129960347221"
    },
    {
      "id": "pt.ine.add.MAD.129646",
      "street": "R DRAGOEIRO",
      "house": "",
      "postcode": "9400-190",
      "city": "PORTO SANTO",
      "lon": "-16.338477075421803",
      "lat": "33.070535765178576"
    },
    {
      "id": "pt.ine.add.MAD.129703",
      "street": "ESTR FRANCISCO BERNARDO JARDIM",
      "house": "83 B",
      "postcode": "9400-133",
      "city": "PORTO SANTO",
      "lon": "-16.331586794793395",
      "lat": "33.072512608867974"
    }
  ]
}