{
  "data": {
    "distrito": "Vila Real",
    "concelho": "Chaves",
    "freguesia": "Santa Maria Maior",
    "OBJECTID": 951,
    "BGRI2021": "17035000616",
    "DT21": "17",
    "DTMN21": "1703",
    "DTMNFR21": "170350",
    "DTMNFRSEC21": "170350006",
    "SECNUM21": "006",
    "SSNUM21": "16",
    "SECSSNUM21": "00616",
    "OBJECTID_1": 180832,
    "DT": "17",
    "CC": "03",
    "fr": "50",
    "SEC": "006",
    "SS": "16"
  },
  "addresses": [
    {
      "id": "pt.ine.add.PTCONT.5294188",
      "street": "TV DA FORMIGUINHA",
      "house": "44",
      "postcode": "5400-267",
      "city": "CHAVES",
      "lon": "-7.465542785701692",
      "lat": "41.749322211806586"
    },
    {
      "id": "pt.ine.add.PTCONT.5300341",
      "street": "PCT FORMIGUINHA",
      "house": "16",
      "postcode": "5400-265",
      "city": "CHAVES",
      "lon": "-7.464675452714203",
      "lat": "41.74832679636724"
    },
    {
      "id": "pt.ine.add.PTCONT.5300342",
      "street": "TV FORMIGUINHA",
      "house": "16A",
      "postcode": "5400-267",
      "city": "CHAVES",
      "lon": "-7.464675452714203",
      "lat": "41.74832679636724"
    },
    {
      "id": "pt.ine.add.PTCONT.5300343",
      "street": "TV FORMIGUINHA",
      "house": "16A",
      "postcode": "5400-267",
      "city": "CHAVES",
      "lon": "-7.464675452714203",
      "lat": "41.74832679636724"
    },
    {
      "id": "pt.ine.add.PTCONT.5300344",
      "street": "TV FORMIGUINHA",
      "house": "161",
      "postcode": "5400-267",
      "city": "CHAVES",
      "lon": "-7.464675452714203",
      "lat": "41.74832679636724"
    },
    {
      "id": "pt.ine.add.PTCONT.5300345",
      "street": "TV FORMIGUINHA",
      "house": "16A",
      "postcode": "5400-267",
      "city": "CHAVES",
      "lon": "-7.464675452714203",
      "lat": "41.74832679636724"
    },
    {
      "id": "pt.ine.add.PTCONT.5300346",
      "street": "TV FORMIGUINHA",
      "house": "16A",
      "postcode": "5400-267",
      "city": "CHAVES",
      "lon": "-7.464675452714203",
      "lat": "41.74832679636724"
    },
    {
      "id": "pt.ine.add.PTCONT.5300347",
      "street": "PCT FORMIGUINHA",
      "house": "161",
      "postcode": "5400-265",
      "city": "CHAVES",
      "lon": "-7.464675452714203",
      "lat": "41.74832679636724"
    },
    {
      "id": "pt.ine.add.PTCONT.5300724",
      "street": "PCT FORMIGUINHA",
      "house": "161",
      "postcode": "5400-265",
      "city": "CHAVES",
      "lon": "-7.464675452714203",
      "lat": "41.74832679636724"
    },
    {
      "id": "pt.ine.add.PTCONT.5300773",
      "street": "PCT FORMIGUINHA",
      "house": "16",
      "postcode": "5400-265",
      "city": "CHAVES",
      "lon": "-7.464675452714203",
      "lat": "41.74832679636724"
    },
    {
      "id": "pt.ine.add.PTCONT.5300808",
      "street": "URB FORMIGUINHA",
      "house": "16",
      "postcode": "5400-266",
      "city": "CHAVES",
      "lon": "-7.464675452714203",
      "lat": "41.74832679636724"
    },
    {
      "id": "pt.ine.add.PTCONT.5312579",
      "street": "PCT FORMIGUINHA",
      "house": "6",
      "postcode": "5400-265",
      "city": "CHAVES",
      "lon": "-7.464996681326038",
      "lat": "41.74865278675972"
    },
    {
      "id": "pt.ine.add.PTCONT.5312580",
      "street": "TV FORMIGUINHA",
      "house": "6",
      "postcode": "5400-267",
      "city": "CHAVES",
      "lon": "-7.464996681326038",
      "lat": "41.74865278675972"
    },
    {
      "id": "pt.ine.add.PTCONT.5312581",
      "street": "PCT FORMIGUINHA",
      "house": "6",
      "postcode": "5400-265",
      "city": "CHAVES",
      "lon": "-7.464996681326038",
      "lat": "41.74865278675972"
    },
    {
      "id": "pt.ine.add.PTCONT.5312582",
      "street": "TV FORMIGUINHA",
      "house": "6",
      "postcode": "5400-267",
      "city": "CHAVES",
      "lon": "-7.464996681326038",
      "lat": "41.74865278675972"
    },
    {
      "id": "pt.ine.add.PTCONT.5312583",
      "street": "TV FORMIGUINHA",
      "house": "6",
      "postcode": "5400-267",
      "city": "CHAVES",
      "lon": "-7.464996681326038",
      "lat": "41.74865278675972"
    },
    {
      "id": "pt.ine.add.PTCONT.5313402",
      "street": "TV FORMIGUINHA",
      "house": "6",
      "postcode": "5400-267",
      "city": "CHAVES",
      "lon": "-7.464996681326038",
      "lat": "41.74865278675972"
    },
    {
      "id": "pt.ine.add.PTCONT.5313494",
      "street": "TV FORMIGUINHA",
      "house": "6",
      "postcode": "5400-267",
      "city": "CHAVES",
      "lon": "-7.464996681326038",
      "lat": "41.74865278675972"
    },
    {
      "id": "pt.ine.add.PTCONT.5313495",
      "street": "TV FORMIGUINHA",
      "house": "6",
      "postcode": "5400-267",
      "city": "CHAVES",
      "lon": "-7.464996681326038",
      "lat": "41.74865278675972"
    },
    {
      "id": "pt.ine.add.PTCONT.5313496",
      "street": "TV FORMIGUINHA",
      "house": "6",
      "postcode": "5400-267",
      "city": "CHAVES",
      "lon": "-7.464996681326038",
      "lat": "41.74865278675972"
    },
    {
      "id": "pt.ine.add.PTCONT.5313497",
      "street": "PCT FORMIGUINHA",
      "house": "6",
      "postcode": "5400-265",
      "city": "CHAVES",
      "lon": "-7.464996681326038",
      "lat": "41.74865278675972"
    },
    {
      "id": "pt.ine.add.PTCONT.5321284",
      "street": "PCT FORMIGUINHA",
      "house": "4",
      "postcode": "5400-265",
      "city": "CHAVES",
      "lon": "-7.465282500516855",
      "lat": "41.748915546706435"
    },
    {
      "id": "pt.ine.add.PTCONT.5321285",
      "street": "PCT FORMIGUINHA",
      "house": "4",
      "postcode": "5400-265",
      "city": "CHAVES",
      "lon": "-7.465282500516855",
      "lat": "41.748915546706435"
    },
    {
      "id": "pt.ine.add.PTCONT.5321286",
      "street": "URB FORMIGUINHA",
      "house": "4",
      "postcode": "5400-266",
      "city": "CHAVES",
      "lon": "-7.465282500516855",
      "lat": "41.748915546706435"
    },
    {
      "id": "pt.ine.add.PTCONT.5321287",
      "street": "PCT FORMIGUINHA",
      "house": "4",
      "postcode": "5400-265",
      "city": "CHAVES",
      "lon": "-7.465282500516855",
      "lat": "41.748915546706435"
    },
    {
      "id": "pt.ine.add.PTCONT.5321288",
      "street": "URB FORMIGUINHA",
      "house": "4",
      "postcode": "5400-266",
      "city": "CHAVES",
      "lon": "-7.465282500516855",
      "lat": "41.748915546706435"
    },
    {
      "id": "pt.ine.add.PTCONT.5321591",
      "street": "PCT FORMIGUINHA",
      "house": "4",
      "postcode": "5400-265",
      "city": "CHAVES",
      "lon": "-7.465282500516855",
      "lat": "41.748915546706435"
    },
    {
      "id": "pt.ine.add.PTCONT.5321592",
      "street": "URB FORMIGUINHA",
      "house": "4",
      "postcode": "5400-266",
      "city": "CHAVES",
      "lon": "-7.465282500516855",
      "lat": "41.748915546706435"
    },
    {
      "id": "pt.ine.add.PTCONT.5321593",
      "street": "PCT FORMIGUINHA",
      "house": "4",
      "postcode": "5400-265",
      "city": "CHAVES",
      "lon": "-7.465282500516855",
      "lat": "41.748915546706435"
    },
    {
      "id": "pt.ine.add.PTCONT.5321594",
      "street": "URB FORMIGUINHA",
      "house": "42",
      "postcode": "5400-266",
      "city": "CHAVES",
      "lon": "-7.465282500516855",
      "lat": "41.748915546706435"
    },
    {
      "id": "pt.ine.add.PTCONT.5321596",
      "street": "PCT FORMIGUINHA",
      "house": "4",
      "postcode": "5400-265",
      "city": "CHAVES",
      "lon": "-7.465282500516855",
      "lat": "41.748915546706435"
    },
    {
      "id": "pt.ine.add.PTCONT.5322197",
      "street": "PCT FORMIGUINHA ENTRA",
      "house": "ENTRA10",
      "postcode": "5400-265",
      "city": "CHAVES",
      "lon": "-7.464929964735084",
      "lat": "41.748130202154776"
    },
    {
      "id": "pt.ine.add.PTCONT.5322210",
      "street": "PCT FORMIGUINHA",
      "house": "10",
      "postcode": "5400-265",
      "city": "CHAVES",
      "lon": "-7.464929964735084",
      "lat": "41.748130202154776"
    },
    {
      "id": "pt.ine.add.PTCONT.5322211",
      "street": "URB FORMIGUINHA",
      "house": "10",
      "postcode": "5400-266",
      "city": "CHAVES",
      "lon": "-7.464929964735084",
      "lat": "41.748130202154776"
    },
    {
      "id": "pt.ine.add.PTCONT.5322212",
      "street": "URB FORMIGUINHA",
      "house": "10",
      "postcode": "5400-266",
      "city": "CHAVES",
      "lon": "-7.464929964735084",
      "lat": "41.748130202154776"
    },
    {
      "id": "pt.ine.add.PTCONT.5322213",
      "street": "TV FORMIGUINHA",
      "house": "10",
      "postcode": "5400-267",
      "city": "CHAVES",
      "lon": "-7.464929964735084",
      "lat": "41.748130202154776"
    },
    {
      "id": "pt.ine.add.PTCONT.5322667",
      "street": "URB FORMIGUINHA",
      "house": "2 DT",
      "postcode": "5400-266",
      "city": "CHAVES",
      "lon": "-7.464929964735084",
      "lat": "41.748130202154776"
    },
    {
      "id": "pt.ine.add.PTCONT.5337087",
      "street": "TV DA FORMIGUINHA",
      "house": "45",
      "postcode": "5400-267",
      "city": "CHAVES",
      "lon": "-7.4654593779431355",
      "lat": "41.74924970005476"
    },
    {
      "id": "pt.ine.add.PTCONT.5341482",
      "street": "TV DA FORMIGUINHA",
      "house": "47",
      "postcode": "5400-267",
      "city": "CHAVES",
      "lon": "-7.465364414884148",
      "lat": "41.749132104140635"
    },
    {
      "id": "pt.ine.add.PTCONT.5344492",
      "street": "TV FORMIGUINHA",
      "house": "3",
      "postcode": "5400-267",
      "city": "CHAVES",
      "lon": "-7.4655231256655625",
      "lat": "41.74889893827976"
    },
    {
      "id": "pt.ine.add.PTCONT.5344493",
      "street": "PCT FORMIGUINHA",
      "house": "3",
      "postcode": "5400-265",
      "city": "CHAVES",
      "lon": "-7.4655231256655625",
      "lat": "41.74889893827976"
    },
    {
      "id": "pt.ine.add.PTCONT.5344550",
      "street": "TV FORMIGUINHA",
      "house": "3",
      "postcode": "5400-267",
      "city": "CHAVES",
      "lon": "-7.4655231256655625",
      "lat": "41.74889893827976"
    },
    {
      "id": "pt.ine.add.PTCONT.5344551",
      "street": "TV FORMIGUINHA",
      "house": "3",
      "postcode": "5400-267",
      "city": "CHAVES",
      "lon": "-7.4655231256655625",
      "lat": "41.74889893827976"
    },
    {
      "id": "pt.ine.add.PTCONT.5344552",
      "street": "TV FORMIGUINHA",
      "house": "3",
      "postcode": "5400-267",
      "city": "CHAVES",
      "lon": "-7.4655231256655625",
      "lat": "41.74889893827976"
    },
    {
      "id": "pt.ine.add.PTCONT.5344553",
      "street": "TV FORMIGUINHA",
      "house": "3",
      "postcode": "5400-267",
      "city": "CHAVES",
      "lon": "-7.4655231256655625",
      "lat": "41.74889893827976"
    },
    {
      "id": "pt.ine.add.PTCONT.5344554",
      "street": "PCT FORMIGUINHA",
      "house": "3",
      "postcode": "5400-265",
      "city": "CHAVES",
      "lon": "-7.4655231256655625",
      "lat": "41.74889893827976"
    },
    {
      "id": "pt.ine.add.PTCONT.5344915",
      "street": "TV FORMIGUINHA",
      "house": "3",
      "postcode": "5400-267",
      "city": "CHAVES",
      "lon": "-7.4655231256655625",
      "lat": "41.74889893827976"
    },
    {
      "id": "pt.ine.add.PTCONT.5344980",
      "street": "TV FORMIGUINHA",
      "house": "3",
      "postcode": "5400-267",
      "city": "CHAVES",
      "lon": "-7.4655231256655625",
      "lat": "41.74889893827976"
    },
    {
      "id": "pt.ine.add.PTCONT.5344981",
      "street": "TV FORMIGUINHA",
      "house": "3",
      "postcode": "5400-267",
      "city": "CHAVES",
      "lon": "-7.4655231256655625",
      "lat": "41.74889893827976"
    },
    {
      "id": "pt.ine.add.PTCONT.5353176",
      "street": "PCT FORMIGUINHA",
      "house": "8",
      "postcode": "5400-265",
      "city": "CHAVES",
      "lon": "-7.465240851465668",
      "lat": "41.74829407070586"
    },
    {
      "id": "pt.ine.add.PTCONT.5353177",
      "street": "PCT FORMIGUINHA",
      "house": "8",
      "postcode": "5400-265",
      "city": "CHAVES",
      "lon": "-7.465240851465668",
      "lat": "41.74829407070586"
    },
    {
      "id": "pt.ine.add.PTCONT.5353186",
      "street": "TV FORMIGUINHA",
      "house": "8",
      "postcode": "5400-267",
      "city": "CHAVES",
      "lon": "-7.465240851465668",
      "lat": "41.74829407070586"
    },
    {
      "id": "pt.ine.add.PTCONT.5353187",
      "street": "URB FORMIGUINHA",
      "house": "8",
      "postcode": "5400-266",
      "city": "CHAVES",
      "lon": "-7.465240851465668",
      "lat": "41.74829407070586"
    },
    {
      "id": "pt.ine.add.PTCONT.5353188",
      "street": "TV FORMIGUINHA",
      "house": "8",
      "postcode": "5400-267",
      "city": "CHAVES",
      "lon": "-7.465240851465668",
      "lat": "41.74829407070586"
    },
    {
      "id": "pt.ine.add.PTCONT.5353189",
      "street": "PCT FORMIGUINHA",
      "house": "8",
      "postcode": "5400-265",
      "city": "CHAVES",
      "lon": "-7.465240851465668",
      "lat": "41.74829407070586"
    },
    {
      "id": "pt.ine.add.PTCONT.5353190",
      "street": "PCT FORMIGUINHA",
      "house": "8",
      "postcode": "5400-265",
      "city": "CHAVES",
      "lon": "-7.465240851465668",
      "lat": "41.74829407070586"
    },
    {
      "id": "pt.ine.add.PTCONT.5353191",
      "street": "PCT FORMIGUINHA",
      "house": "8",
      "postcode": "5400-265",
      "city": "CHAVES",
      "lon": "-7.465240851465668",
      "lat": "41.74829407070586"
    },
    {
      "id": "pt.ine.add.PTCONT.5353192",
      "street": "URB FORMIGUINHA",
      "house": "3",
      "postcode": "5400-266",
      "city": "CHAVES",
      "lon": "-7.465240851465668",
      "lat": "41.74829407070586"
    },
    {
      "id": "pt.ine.add.PTCONT.5356224",
      "street": "PCT DA FORMIGUINHA",
      "house": "1",
      "postcode": "5400-265",
      "city": "CHAVES",
      "lon": "-7.46583886562531",
      "lat": "41.74859465712658"
    },
    {
      "id": "pt.ine.add.PTCONT.5356225",
      "street": "PCT DA FORMIGUINHA",
      "house": "1",
      "postcode": "5400-265",
      "city": "CHAVES",
      "lon": "-7.46583886562531",
      "lat": "41.74859465712658"
    },
    {
      "id": "pt.ine.add.PTCONT.5356226",
      "street": "PCT DA FORMIGUINHA",
      "house": "1",
      "postcode": "5400-265",
      "city": "CHAVES",
      "lon": "-7.46583886562531",
      "lat": "41.74859465712658"
    },
    {
      "id": "pt.ine.add.PTCONT.5356239",
      "street": "PCT DA FORMIGUINHA",
      "house": "1",
      "postcode": "5400-265",
      "city": "CHAVES",
      "lon": "-7.46583886562531",
      "lat": "41.74859465712658"
    },
    {
      "id": "pt.ine.add.PTCONT.5356240",
      "street": "PCT DA FORMIGUINHA",
      "house": "1",
      "postcode": "5400-265",
      "city": "CHAVES",
      "lon": "-7.46583886562531",
      "lat": "41.74859465712658"
    },
    {
      "id": "pt.ine.add.PTCONT.5356241",
      "street": "PCT DA FORMIGUINHA",
      "house": "1",
      "postcode": "5400-265",
      "city": "CHAVES",
      "lon": "-7.46583886562531",
      "lat": "41.74859465712658"
    },
    {
      "id": "pt.ine.add.PTCONT.5356242",
      "street": "PCT DA FORMIGUINHA",
      "house": "1",
      "postcode": "5400-265",
      "city": "CHAVES",
      "lon": "-7.46583886562531",
      "lat": "41.74859465712658"
    },
    {
      "id": "pt.ine.add.PTCONT.5356243",
      "street": "PCT DA FORMIGUINHA",
      "house": "1",
      "postcode": "5400-265",
      "city": "CHAVES",
      "lon": "-7.46583886562531",
      "lat": "41.74859465712658"
    },
    {
      "id": "pt.ine.add.PTCONT.5356701",
      "street": "PCT DA FORMIGUINHA",
      "house": "1",
      "postcode": "5400-265",
      "city": "CHAVES",
      "lon": "-7.46583886562531",
      "lat": "41.74859465712658"
    },
    {
      "id": "pt.ine.add.PTCONT.5356702",
      "street": "PCT DA FORMIGUINHA",
      "house": "1",
      "postcode": "5400-265",
      "city": "CHAVES",
      "lon": "-7.46583886562531",
      "lat": "41.74859465712658"
    },
    {
      "id": "pt.ine.add.PTCONT.5357595",
      "street": "TV FORMIGUINHA",
      "house": "7",
      "postcode": "5400-267",
      "city": "CHAVES",
      "lon": "-7.465455844875215",
      "lat": "41.74843037105975"
    },
    {
      "id": "pt.ine.add.PTCONT.5357596",
      "street": "URB FORMIGUINHA",
      "house": "7",
      "postcode": "5400-266",
      "city": "CHAVES",
      "lon": "-7.465455844875215",
      "lat": "41.74843037105975"
    },
    {
      "id": "pt.ine.add.PTCONT.5357597",
      "street": "TV FORMIGUINHA",
      "house": "7",
      "postcode": "5400-267",
      "city": "CHAVES",
      "lon": "-7.465455844875215",
      "lat": "41.74843037105975"
    },
    {
      "id": "pt.ine.add.PTCONT.5357598",
      "street": "TV FORMIGUINHA",
      "house": "7",
      "postcode": "5400-267",
      "city": "CHAVES",
      "lon": "-7.465455844875215",
      "lat": "41.74843037105975"
    },
    {
      "id": "pt.ine.add.PTCONT.5357599",
      "street": "PCT FORMIGUINHA",
      "house": "7",
      "postcode": "5400-265",
      "city": "CHAVES",
      "lon": "-7.465455844875215",
      "lat": "41.74843037105975"
    },
    {
      "id": "pt.ine.add.PTCONT.5357743",
      "street": "PCT FORMIGUINHA",
      "house": "7",
      "postcode": "5400-265",
      "city": "CHAVES",
      "lon": "-7.465455844875215",
      "lat": "41.74843037105975"
    },
    {
      "id": "pt.ine.add.PTCONT.5361728",
      "street": "TV DA FORMIGUINHA",
      "house": "48",
      "postcode": "5400-267",
      "city": "CHAVES",
      "lon": "-7.465304864871907",
      "lat": "41.74907773770446"
    },
    {
      "id": "pt.ine.add.PTCONT.5361754",
      "street": "URB FORMIGUINHA",
      "house": "1 TRAS",
      "postcode": "5400-266",
      "city": "CHAVES",
      "lon": "-7.46507338610426",
      "lat": "41.74821206663829"
    },
    {
      "id": "pt.ine.add.PTCONT.5361755",
      "street": "TV FORMIGUINHA",
      "house": "9",
      "postcode": "5400-267",
      "city": "CHAVES",
      "lon": "-7.46507338610426",
      "lat": "41.74821206663829"
    },
    {
      "id": "pt.ine.add.PTCONT.5361756",
      "street": "TV FORMIGUINHA",
      "house": "9",
      "postcode": "5400-267",
      "city": "CHAVES",
      "lon": "-7.46507338610426",
      "lat": "41.74821206663829"
    },
    {
      "id": "pt.ine.add.PTCONT.5361757",
      "street": "TV FORMIGUINHA",
      "house": "9",
      "postcode": "5400-267",
      "city": "CHAVES",
      "lon": "-7.46507338610426",
      "lat": "41.74821206663829"
    },
    {
      "id": "pt.ine.add.PTCONT.5361758",
      "street": "PCT FORMIGUINHA",
      "house": "9",
      "postcode": "5400-265",
      "city": "CHAVES",
      "lon": "-7.46507338610426",
      "lat": "41.74821206663829"
    },
    {
      "id": "pt.ine.add.PTCONT.5361759",
      "street": "PCT FORMIGUINHA",
      "house": "2",
      "postcode": "5400-265",
      "city": "CHAVES",
      "lon": "-7.46507338610426",
      "lat": "41.74821206663829"
    },
    {
      "id": "pt.ine.add.PTCONT.5361760",
      "street": "TV FORMIGUINHA",
      "house": "9",
      "postcode": "5400-267",
      "city": "CHAVES",
      "lon": "-7.46507338610426",
      "lat": "41.74821206663829"
    },
    {
      "id": "pt.ine.add.PTCONT.5361761",
      "street": "TV FORMIGUINHA",
      "house": "9",
      "postcode": "5400-267",
      "city": "CHAVES",
      "lon": "-7.46507338610426",
      "lat": "41.74821206663829"
    },
    {
      "id": "pt.ine.add.PTCONT.5361762",
      "street": "PCT FORMIGUINHA",
      "house": "9",
      "postcode": "5400-265",
      "city": "CHAVES",
      "lon": "-7.46507338610426",
      "lat": "41.74821206663829"
    },
    {
      "id": "pt.ine.add.PTCONT.5379448",
      "street": "TV FORMIGUINHA",
      "house": "2",
      "postcode": "5400-267",
      "city": "CHAVES",
      "lon": "-7.4657170617163",
      "lat": "41.74874700731296"
    },
    {
      "id": "pt.ine.add.PTCONT.5379449",
      "street": "TV FORMIGUINHA",
      "house": "2",
      "postcode": "5400-267",
      "city": "CHAVES",
      "lon": "-7.4657170617163",
      "lat": "41.74874700731296"
    },
    {
      "id": "pt.ine.add.PTCONT.5379450",
      "street": "PCT FORMIGUINHA B",
      "house": "B 2",
      "postcode": "5400-265",
      "city": "CHAVES",
      "lon": "-7.4657170617163",
      "lat": "41.74874700731296"
    },
    {
      "id": "pt.ine.add.PTCONT.5379451",
      "street": "TV FORMIGUINHA",
      "house": "2",
      "postcode": "5400-267",
      "city": "CHAVES",
      "lon": "-7.4657170617163",
      "lat": "41.74874700731296"
    },
    {
      "id": "pt.ine.add.PTCONT.5379452",
      "street": "TV FORMIGUINHA",
      "house": "2",
      "postcode": "5400-267",
      "city": "CHAVES",
      "lon": "-7.4657170617163",
      "lat": "41.74874700731296"
    },
    {
      "id": "pt.ine.add.PTCONT.5379453",
      "street": "TV FORMIGUINHA",
      "house": "2",
      "postcode": "5400-267",
      "city": "CHAVES",
      "lon": "-7.4657170617163",
      "lat": "41.74874700731296"
    },
    {
      "id": "pt.ine.add.PTCONT.5379454",
      "street": "URB FORMIGUINHA",
      "house": "2",
      "postcode": "5400-266",
      "city": "CHAVES",
      "lon": "-7.4657170617163",
      "lat": "41.74874700731296"
    },
    {
      "id": "pt.ine.add.PTCONT.5379534",
      "street": "TV FORMIGUINHA",
      "house": "2",
      "postcode": "5400-267",
      "city": "CHAVES",
      "lon": "-7.4657170617163",
      "lat": "41.74874700731296"
    },
    {
      "id": "pt.ine.add.PTCONT.5379535",
      "street": "TV FORMIGUINHA",
      "house": "2",
      "postcode": "5400-267",
      "city": "CHAVES",
      "lon": "-7.4657170617163",
      "lat": "41.74874700731296"
    },
    {
      "id": "pt.ine.add.PTCONT.5379536",
      "street": "TV FORMIGUINHA",
      "house": "2",
      "postcode": "5400-267",
      "city": "CHAVES",
      "lon": "-7.4657170617163",
      "lat": "41.74874700731296"
    },
    {
      "id": "pt.ine.add.PTCONT.5379537",
      "street": "TV FORMIGUINHA",
      "house": "2",
      "postcode": "5400-267",
      "city": "CHAVES",
      "lon": "-7.4657170617163",
      "lat": "41.74874700731296"
    },
    {
      "id": "pt.ine.add.PTCONT.5379538",
      "street": "TV FORMIGUINHA",
      "house": "2",
      "postcode": "5400-267",
      "city": "CHAVES",
      "lon": "-7.4657170617163",
      "lat": "41.74874700731296"
    },
    {
      "id": "pt.ine.add.PTCONT.5380501",
      "street": "TV FORMIGUINHA",
      "house": "2",
      "postcode": "5400-267",
      "city": "CHAVES",
      "lon": "-7.4657170617163",
      "lat": "41.74874700731296"
    },
    {
      "id": "pt.ine.add.PTCONT.5380502",
      "street": "URB FORMIGUINHA",
      "house": "2",
      "postcode": "5400-266",
      "city": "CHAVES",
      "lon": "-7.4657170617163",
      "lat": "41.74874700731296"
    },
    {
      "id": "pt.ine.add.PTCONT.5386368",
      "street": "URB FORMIGUINHA",
      "house": "49",
      "postcode": "5400-234",
      "city": "CHAVES",
      "lon": "-7.465245221645641",
      "lat": "41.7490323740846"
    },
    {
      "id": "pt.ine.add.PTCONT.5391905",
      "street": "URB FORMIGUINHA",
      "house": "16",
      "postcode": "5400-266",
      "city": "CHAVES",
      "lon": "-7.464613195411785",
      "lat": "41.74853351213338"
    },
    {
      "id": "pt.ine.add.PTCONT.5391906",
      "street": "PCT FORMIGUINHA",
      "house": "16",
      "postcode": "5400-265",
      "city": "CHAVES",
      "lon": "-7.464613195411785",
      "lat": "41.74853351213338"
    },
    {
      "id": "pt.ine.add.PTCONT.5391907",
      "street": "TV FORMIGUINHA",
      "house": "16",
      "postcode": "5400-267",
      "city": "CHAVES",
      "lon": "-7.464613195411785",
      "lat": "41.74853351213338"
    },
    {
      "id": "pt.ine.add.PTCONT.5391908",
      "street": "PCT FORMIGUINHA",
      "house": "16",
      "postcode": "5400-265",
      "city": "CHAVES",
      "lon": "-7.464613195411785",
      "lat": "41.74853351213338"
    },
    {
      "id": "pt.ine.add.PTCONT.5391909",
      "street": "URB FORMIGUINHA",
      "house": "16",
      "postcode": "5400-266",
      "city": "CHAVES",
      "lon": "-7.464613195411785",
      "lat": "41.74853351213338"
    },
    {
      "id": "pt.ine.add.PTCONT.5391910",
      "street": "TV FORMIGUINHA",
      "house": "16",
      "postcode": "5400-267",
      "city": "CHAVES",
      "lon": "-7.464613195411785",
      "lat": "41.74853351213338"
    },
    {
      "id": "pt.ine.add.PTCONT.5391984",
      "street": "URB FORMIGUINHA",
      "house": "16",
      "postcode": "5400-266",
      "city": "CHAVES",
      "lon": "-7.464613195411785",
      "lat": "41.74853351213338"
    },
    {
      "id": "pt.ine.add.PTCONT.5391985",
      "street": "URB FORMIGUINHA",
      "house": "16",
      "postcode": "5400-266",
      "city": "CHAVES",
      "lon": "-7.464613195411785",
      "lat": "41.74853351213338"
    },
    {
      "id": "pt.ine.add.PTCONT.5391986",
      "street": "R FORMIGUINHA",
      "house": "16",
      "postcode": "5400-266",
      "city": "CHAVES",
      "lon": "-7.464613195411785",
      "lat": "41.74853351213338"
    },
    {
      "id": "pt.ine.add.PTCONT.5391987",
      "street": "URB FORMIGUINHA",
      "house": "16",
      "postcode": "5400-266",
      "city": "CHAVES",
      "lon": "-7.464613195411785",
      "lat": "41.74853351213338"
    },
    {
      "id": "pt.ine.add.PTCONT.5407303",
      "street": "PCT FORMIGUINHA",
      "house": "4",
      "postcode": "5400-265",
      "city": "CHAVES",
      "lon": "-7.465187724910309",
      "lat": "41.74877994495077"
    },
    {
      "id": "pt.ine.add.PTCONT.5407304",
      "street": "PCT FORMIGUINHA",
      "house": "1",
      "postcode": "5400-265",
      "city": "CHAVES",
      "lon": "-7.465187724910309",
      "lat": "41.74877994495077"
    },
    {
      "id": "pt.ine.add.PTCONT.5407305",
      "street": "PCT FORMIGUINHA",
      "house": "4",
      "postcode": "5400-265",
      "city": "CHAVES",
      "lon": "-7.465187724910309",
      "lat": "41.74877994495077"
    },
    {
      "id": "pt.ine.add.PTCONT.5407306",
      "street": "PCT FORMIGUINHA",
      "house": "4",
      "postcode": "5400-265",
      "city": "CHAVES",
      "lon": "-7.465187724910309",
      "lat": "41.74877994495077"
    },
    {
      "id": "pt.ine.add.PTCONT.5407366",
      "street": "PCT FORMIGUINHA",
      "house": "4",
      "postcode": "5400-265",
      "city": "CHAVES",
      "lon": "-7.465187724910309",
      "lat": "41.74877994495077"
    },
    {
      "id": "pt.ine.add.PTCONT.5408228",
      "street": "URB FORMIGUINHA",
      "house": "5",
      "postcode": "5400-266",
      "city": "CHAVES",
      "lon": "-7.465187724910309",
      "lat": "41.74877994495077"
    },
    {
      "id": "pt.ine.add.PTCONT.5408230",
      "street": "PCT FORMIGUINHA",
      "house": "4",
      "postcode": "5400-265",
      "city": "CHAVES",
      "lon": "-7.465187724910309",
      "lat": "41.74877994495077"
    },
    {
      "id": "pt.ine.add.PTCONT.5408231",
      "street": "PCT FORMIGUINHA",
      "house": "4",
      "postcode": "5400-265",
      "city": "CHAVES",
      "lon": "-7.465187724910309",
      "lat": "41.74877994495077"
    },
    {
      "id": "pt.ine.add.PTCONT.5408889",
      "street": "AV DO EST√ÅDIO",
      "house": "15",
      "postcode": "5400-234",
      "city": "CHAVES",
      "lon": "-7.466305016838654",
      "lat": "41.748858461679816"
    },
    {
      "id": "pt.ine.add.PTCONT.5417315",
      "street": "TV DA FORMIGUINHA",
      "house": "46",
      "postcode": "5400-267",
      "city": "CHAVES",
      "lon": "-7.465411943016316",
      "lat": "41.749186400683975"
    },
    {
      "id": "pt.ine.add.PTCONT.5424562",
      "street": "PCT FORMIGUINHA",
      "house": "4",
      "postcode": "5400-265",
      "city": "CHAVES",
      "lon": "-7.465187724910309",
      "lat": "41.74877994495077"
    },
    {
      "id": "pt.ine.add.PTCONT.5424660",
      "street": "PCT FORMIGUINHA",
      "house": "4",
      "postcode": "5400-265",
      "city": "CHAVES",
      "lon": "-7.465187724910309",
      "lat": "41.74877994495077"
    },
    {
      "id": "pt.ine.add.PTCONT.5425738",
      "street": "TV FORMIGUINHA",
      "house": "2",
      "postcode": "5400-267",
      "city": "CHAVES",
      "lon": "-7.4657170617163",
      "lat": "41.74874700731296"
    }
  ]
}