{
  "data": {
    "distrito": "Guarda",
    "concelho": "Sabugal",
    "freguesia": "Alfaiates",
    "OBJECTID": 792,
    "BGRI2021": "09110700104",
    "DT21": "09",
    "DTMN21": "0911",
    "DTMNFR21": "091107",
    "DTMNFRSEC21": "091107001",
    "SECNUM21": "001",
    "SSNUM21": "04",
    "SECSSNUM21": "00104",
    "OBJECTID_1": 80745,
    "DT": "09",
    "CC": "11",
    "fr": "07",
    "SEC": "001",
    "SS": "04"
  },
  "addresses": [
    {
      "id": "pt.ine.add.PTCONT.1899231",
      "street": "R ESCOLAS",
      "house": "",
      "postcode": "6320-081",
      "city": "ALFAIATES",
      "lon": "-6.911491770698115",
      "lat": "40.3879981294727"
    },
    {
      "id": "pt.ine.add.PTCONT.1903370",
      "street": "R ESCOLAS",
      "house": "21",
      "postcode": "6320-081",
      "city": "ALFAIATES",
      "lon": "-6.912868996150072",
      "lat": "40.38868806696369"
    },
    {
      "id": "pt.ine.add.PTCONT.1909663",
      "street": "R JARDIM",
      "house": "",
      "postcode": "6320-081",
      "city": "ALFAIATES",
      "lon": "-6.912290010967077",
      "lat": "40.38814163946017"
    },
    {
      "id": "pt.ine.add.PTCONT.1912194",
      "street": "R FONTE DE CIMA",
      "house": "",
      "postcode": "6320-081",
      "city": "ALFAIATES",
      "lon": "-6.9104673220685155",
      "lat": "40.3873389223126"
    },
    {
      "id": "pt.ine.add.PTCONT.1916428",
      "street": "R BUQUEIROSO",
      "house": "20",
      "postcode": "6320-081",
      "city": "ALFAIATES",
      "lon": "-6.9128125599236165",
      "lat": "40.388552392430114"
    },
    {
      "id": "pt.ine.add.PTCONT.1917341",
      "street": "R ESCOLAS",
      "house": "",
      "postcode": "6320-081",
      "city": "ALFAIATES",
      "lon": "-6.911397410468884",
      "lat": "40.38800613773023"
    },
    {
      "id": "pt.ine.add.PTCONT.1926227",
      "street": "R BOQUEIROSO",
      "house": "9",
      "postcode": "6320-081",
      "city": "ALFAIATES",
      "lon": "-6.913937498103051",
      "lat": "40.38821305448751"
    },
    {
      "id": "pt.ine.add.PTCONT.1926232",
      "street": "R ESCOLAS",
      "house": "46",
      "postcode": "6320-081",
      "city": "ALFAIATES",
      "lon": "-6.912183550686236",
      "lat": "40.38816753112063"
    },
    {
      "id": "pt.ine.add.PTCONT.1932337",
      "street": "R HORTAS",
      "house": "35",
      "postcode": "6320-081",
      "city": "ALFAIATES",
      "lon": "-6.912828885292121",
      "lat": "40.38830041741848"
    },
    {
      "id": "pt.ine.add.PTCONT.1932348",
      "street": "R FONTE DE CIMA",
      "house": "7",
      "postcode": "6320-081",
      "city": "ALFAIATES",
      "lon": "-6.910540411774307",
      "lat": "40.387204616241746"
    },
    {
      "id": "pt.ine.add.PTCONT.1934421",
      "street": "R BUQUEIROSO",
      "house": "",
      "postcode": "6320-081",
      "city": "ALFAIATES",
      "lon": "-6.913340151326072",
      "lat": "40.388684033147335"
    },
    {
      "id": "pt.ine.add.PTCONT.1938516",
      "street": "R ESCOLAS",
      "house": "40",
      "postcode": "6320-081",
      "city": "ALFAIATES",
      "lon": "-6.9122869217365706",
      "lat": "40.388312706802836"
    },
    {
      "id": "pt.ine.add.PTCONT.1938565",
      "street": "R HORTOS",
      "house": "",
      "postcode": "6320-081",
      "city": "ALFAIATES",
      "lon": "-6.913264063666867",
      "lat": "40.38833202524329"
    },
    {
      "id": "pt.ine.add.PTCONT.1941580",
      "street": "R HORTAS",
      "house": "29",
      "postcode": "6320-081",
      "city": "ALFAIATES",
      "lon": "-6.912949232837295",
      "lat": "40.38815760331705"
    },
    {
      "id": "pt.ine.add.PTCONT.1943639",
      "street": "R ESCOLAS",
      "house": "4",
      "postcode": "6320-081",
      "city": "ALFAIATES",
      "lon": "-6.910983668678888",
      "lat": "40.3880918178611"
    },
    {
      "id": "pt.ine.add.PTCONT.1945320",
      "street": "R EIRAS",
      "house": "",
      "postcode": "6320-081",
      "city": "ALFAIATES",
      "lon": "-6.911837140338976",
      "lat": "40.38778565169445"
    },
    {
      "id": "pt.ine.add.PTCONT.1948566",
      "street": "R BOQUEIROSO",
      "house": "",
      "postcode": "6320-081",
      "city": "ALFAIATES",
      "lon": "-6.913506623098111",
      "lat": "40.38859573662158"
    },
    {
      "id": "pt.ine.add.PTCONT.1949566",
      "street": "R ESCOLAS",
      "house": "",
      "postcode": "6320-081",
      "city": "ALFAIATES",
      "lon": "-6.9117861379809105",
      "lat": "40.38800123924138"
    },
    {
      "id": "pt.ine.add.PTCONT.1950129",
      "street": "R ESCOLAS",
      "house": "6",
      "postcode": "6320-081",
      "city": "ALFAIATES",
      "lon": "-6.911124476901845",
      "lat": "40.38812032188912"
    },
    {
      "id": "pt.ine.add.PTCONT.1952792",
      "street": "R EIRAS",
      "house": "",
      "postcode": "6320-081",
      "city": "ALFAIATES",
      "lon": "-6.911423888535826",
      "lat": "40.38784432280408"
    },
    {
      "id": "pt.ine.add.PTCONT.1954486",
      "street": "R JARDIM",
      "house": "",
      "postcode": "6320-081",
      "city": "ALFAIATES",
      "lon": "-6.9125866546719115",
      "lat": "40.3880186975679"
    },
    {
      "id": "pt.ine.add.PTCONT.1956361",
      "street": "R ESCOLAS",
      "house": "42",
      "postcode": "6320-081",
      "city": "ALFAIATES",
      "lon": "-6.912169824682758",
      "lat": "40.38827544931189"
    },
    {
      "id": "pt.ine.add.PTCONT.1960396",
      "street": "R HORTAS",
      "house": "37",
      "postcode": "6320-081",
      "city": "ALFAIATES",
      "lon": "-6.912733712109447",
      "lat": "40.388353444491486"
    },
    {
      "id": "pt.ine.add.PTCONT.1963843",
      "street": "R BOQUEIROSO",
      "house": "11",
      "postcode": "6320-081",
      "city": "ALFAIATES",
      "lon": "-6.9136501945063475",
      "lat": "40.38847117728218"
    },
    {
      "id": "pt.ine.add.PTCONT.1965261",
      "street": "R ESLOLAS",
      "house": "26",
      "postcode": "6320-081",
      "city": "ALFAIATES",
      "lon": "-6.912563176057651",
      "lat": "40.3886668285211"
    },
    {
      "id": "pt.ine.add.PTCONT.1965262",
      "street": "R HORTAS",
      "house": "33",
      "postcode": "6320-081",
      "city": "ALFAIATES",
      "lon": "-6.912888246572341",
      "lat": "40.38827402811642"
    },
    {
      "id": "pt.ine.add.PTCONT.1968036",
      "street": "R EIRAS",
      "house": "",
      "postcode": "6320-081",
      "city": "ALFAIATES",
      "lon": "-6.910638132019458",
      "lat": "40.38831329655511"
    },
    {
      "id": "pt.ine.add.PTCONT.1968480",
      "street": "R LARGO DAS EIRAS",
      "house": "",
      "postcode": "6320-081",
      "city": "ALFAIATES",
      "lon": "-6.911724561920205",
      "lat": "40.38880205698548"
    },
    {
      "id": "pt.ine.add.PTCONT.1970952",
      "street": "R ESCOLAS",
      "house": "44",
      "postcode": "6320-081",
      "city": "ALFAIATES",
      "lon": "-6.912159025592143",
      "lat": "40.388221303710615"
    },
    {
      "id": "pt.ine.add.PTCONT.1974241",
      "street": "R BOQUEIROSO",
      "house": "",
      "postcode": "6320-081",
      "city": "ALFAIATES",
      "lon": "-6.913408526008426",
      "lat": "40.38881082810349"
    },
    {
      "id": "pt.ine.add.PTCONT.1976642",
      "street": "R BOQUEIROSO",
      "house": "19",
      "postcode": "6320-081",
      "city": "ALFAIATES",
      "lon": "-6.913115292412302",
      "lat": "40.38874469758965"
    },
    {
      "id": "pt.ine.add.PTCONT.1853564",
      "street": "R JARDIM",
      "house": "16",
      "postcode": "6320-081",
      "city": "ALFAIATES",
      "lon": "-6.91205728116268",
      "lat": "40.38798609247906"
    },
    {
      "id": "pt.ine.add.PTCONT.1855168",
      "street": "R ESLOLAS",
      "house": "36",
      "postcode": "6320-081",
      "city": "ALFAIATES",
      "lon": "-6.912531427963498",
      "lat": "40.38846837763889"
    },
    {
      "id": "pt.ine.add.PTCONT.1855170",
      "street": "R BOQUEIROSO",
      "house": "",
      "postcode": "6320-081",
      "city": "ALFAIATES",
      "lon": "-6.914175427981531",
      "lat": "40.38808048413069"
    },
    {
      "id": "pt.ine.add.PTCONT.1856465",
      "street": "R JARDIM",
      "house": "",
      "postcode": "6320-081",
      "city": "ALFAIATES",
      "lon": "-6.911991186627294",
      "lat": "40.38773324713903"
    },
    {
      "id": "pt.ine.add.PTCONT.1859577",
      "street": "R EIRAS",
      "house": "",
      "postcode": "6320-081",
      "city": "ALFAIATES",
      "lon": "-6.910762228413458",
      "lat": "40.387963403394906"
    },
    {
      "id": "pt.ine.add.PTCONT.1860272",
      "street": "R EIRAS",
      "house": "5",
      "postcode": "6320-081",
      "city": "ALFAIATES",
      "lon": "-6.9109396624843855",
      "lat": "40.38792025275762"
    },
    {
      "id": "pt.ine.add.PTCONT.1861209",
      "street": "R EIRAS",
      "house": "14",
      "postcode": "6320-081",
      "city": "ALFAIATES",
      "lon": "-6.911632416279359",
      "lat": "40.38803563642507"
    },
    {
      "id": "pt.ine.add.PTCONT.1866505",
      "street": "R ESCOLAS",
      "house": "",
      "postcode": "6320-081",
      "city": "ALFAIATES",
      "lon": "-6.912018704572361",
      "lat": "40.38816579030309"
    },
    {
      "id": "pt.ine.add.PTCONT.1869540",
      "street": "R BOQUEIROSO",
      "house": "10",
      "postcode": "6320-081",
      "city": "ALFAIATES",
      "lon": "-6.913735865972766",
      "lat": "40.388291975583684"
    },
    {
      "id": "pt.ine.add.PTCONT.1869578",
      "street": "CAM TERRA BATIDA",
      "house": "",
      "postcode": "6320-081",
      "city": "ALFAIATES",
      "lon": "-6.912460661537819",
      "lat": "40.38586510962769"
    },
    {
      "id": "pt.ine.add.PTCONT.1870211",
      "street": "R HORTAS",
      "house": "34",
      "postcode": "6320-081",
      "city": "ALFAIATES",
      "lon": "-6.91301484385886",
      "lat": "40.38843745878916"
    },
    {
      "id": "pt.ine.add.PTCONT.1872563",
      "street": "R HORTAS",
      "house": "31",
      "postcode": "6320-081",
      "city": "ALFAIATES",
      "lon": "-6.912959707550557",
      "lat": "40.38822975594744"
    },
    {
      "id": "pt.ine.add.PTCONT.1876611",
      "street": "BR S PÃ“VOA",
      "house": "39",
      "postcode": "6320-081",
      "city": "ALFAIATES",
      "lon": "-6.913090042085356",
      "lat": "40.3881861049649"
    },
    {
      "id": "pt.ine.add.PTCONT.1877332",
      "street": "R ESLOLAS",
      "house": "38",
      "postcode": "6320-081",
      "city": "ALFAIATES",
      "lon": "-6.912414818227332",
      "lat": "40.38840410975722"
    },
    {
      "id": "pt.ine.add.PTCONT.1877346",
      "street": "R FONTE DE CIMA",
      "house": "",
      "postcode": "6320-081",
      "city": "ALFAIATES",
      "lon": "-6.910549307237422",
      "lat": "40.388015183795375"
    },
    {
      "id": "pt.ine.add.PTCONT.1884186",
      "street": "R BOQUEIROSO",
      "house": "13",
      "postcode": "6320-081",
      "city": "ALFAIATES",
      "lon": "-6.913546657839655",
      "lat": "40.38833500632487"
    },
    {
      "id": "pt.ine.add.PTCONT.1887319",
      "street": "R EIRAS",
      "house": "18",
      "postcode": "6320-081",
      "city": "ALFAIATES",
      "lon": "-6.912367650196056",
      "lat": "40.38775523295075"
    },
    {
      "id": "pt.ine.add.PTCONT.1891998",
      "street": "R EIRAS",
      "house": "7",
      "postcode": "6320-081",
      "city": "ALFAIATES",
      "lon": "-6.911057897491555",
      "lat": "40.38789448669302"
    },
    {
      "id": "pt.ine.add.PTCONT.1897895",
      "street": "R ESCOLAS",
      "house": "8",
      "postcode": "6320-081",
      "city": "ALFAIATES",
      "lon": "-6.911278524488052",
      "lat": "40.38806791830555"
    }
  ]
}