{
  "data": {
    "distrito": "Porto",
    "concelho": "Vila Nova de Gaia",
    "freguesia": "União das freguesias de Sandim, Olival, Lever e Crestuma",
    "OBJECTID": 264,
    "BGRI2021": "13172900813",
    "DT21": "13",
    "DTMN21": "1317",
    "DTMNFR21": "131729",
    "DTMNFRSEC21": "131729008",
    "SECNUM21": "008",
    "SSNUM21": "13",
    "SECSSNUM21": "00813",
    "OBJECTID_1": 143914,
    "DT": "13",
    "CC": "17",
    "fr": "29",
    "SEC": "008",
    "SS": "13"
  },
  "addresses": [
    {
      "id": "pt.ine.add.PTCONT.3557907",
      "street": "TV CAMPO DO SOL",
      "house": "57",
      "postcode": "4415-636",
      "city": "LEVER",
      "lon": "-8.482627254303624",
      "lat": "41.06714826929936"
    },
    {
      "id": "pt.ine.add.PTCONT.3557908",
      "street": "TV CAMPO DO SOL",
      "house": "57",
      "postcode": "4415-636",
      "city": "LEVER",
      "lon": "-8.482627254303624",
      "lat": "41.06714826929936"
    },
    {
      "id": "pt.ine.add.PTCONT.3557912",
      "street": "R CENTRAL",
      "house": "1139",
      "postcode": "4415-638",
      "city": "LEVER",
      "lon": "-8.483362701051732",
      "lat": "41.06673182896382"
    },
    {
      "id": "pt.ine.add.PTCONT.3557913",
      "street": "R CENTRAL",
      "house": "1043 1",
      "postcode": "4415-638",
      "city": "LEVER",
      "lon": "-8.484423775772237",
      "lat": "41.06714280636722"
    },
    {
      "id": "pt.ine.add.PTCONT.3576768",
      "street": "AV IGREJA VELHA",
      "house": "65",
      "postcode": "4415-656",
      "city": "LEVER",
      "lon": "-8.480108582518168",
      "lat": "41.06784022355484"
    },
    {
      "id": "pt.ine.add.PTCONT.3589529",
      "street": "R MOURA CARREIRA COVA",
      "house": "53",
      "postcode": "4415-636",
      "city": "LEVER",
      "lon": "-8.481069251910135",
      "lat": "41.067261038345464"
    },
    {
      "id": "pt.ine.add.PTCONT.3602590",
      "street": "R CENTRAL",
      "house": "1043 3",
      "postcode": "4415-638",
      "city": "LEVER",
      "lon": "-8.484376712912116",
      "lat": "41.06724199941206"
    },
    {
      "id": "pt.ine.add.PTCONT.3602597",
      "street": "VR TERRAS DE STA MARIA",
      "house": "74",
      "postcode": "4415-951",
      "city": "LEVER",
      "lon": "-8.484476973885014",
      "lat": "41.06819617140382"
    },
    {
      "id": "pt.ine.add.PTCONT.3609012",
      "street": "VR PORTAO VERMELHO",
      "house": "4",
      "postcode": "4415-952",
      "city": "LEVER",
      "lon": "-8.485104141587987",
      "lat": "41.067554937478896"
    },
    {
      "id": "pt.ine.add.PTCONT.3641416",
      "street": "VR TAMEGA",
      "house": "12",
      "postcode": "4415-952",
      "city": "LEVER",
      "lon": "-8.484793221681699",
      "lat": "41.067258738059834"
    },
    {
      "id": "pt.ine.add.PTCONT.3653892",
      "street": "AV IGREJA VELHA",
      "house": "81",
      "postcode": "4415-656",
      "city": "LEVER",
      "lon": "-8.480073836309298",
      "lat": "41.0680204183057"
    },
    {
      "id": "pt.ine.add.PTCONT.3658870",
      "street": "R COMPANHIA DOS AGUAS",
      "house": "61",
      "postcode": "4415-642",
      "city": "LEVER",
      "lon": "-8.480248122778116",
      "lat": "41.06948762774852"
    },
    {
      "id": "pt.ine.add.PTCONT.3673447",
      "street": "VR TAMEGA",
      "house": "36",
      "postcode": "4415-952",
      "city": "LEVER",
      "lon": "-8.48462761557629",
      "lat": "41.0674393334789"
    },
    {
      "id": "pt.ine.add.PTCONT.3712441",
      "street": "VR TERRAS DE STA MARIA",
      "house": "23",
      "postcode": "4415-951",
      "city": "LEVER",
      "lon": "-8.484750092864987",
      "lat": "41.068096288750105"
    },
    {
      "id": "pt.ine.add.PTCONT.3732210",
      "street": "TV CAMPO DO SOL",
      "house": "28",
      "postcode": "4415-636",
      "city": "LEVER",
      "lon": "-8.482447552837973",
      "lat": "41.066914697006375"
    },
    {
      "id": "pt.ine.add.PTCONT.3738784",
      "street": "AV IGREJA VELHA",
      "house": "157",
      "postcode": "4415-656",
      "city": "LEVER",
      "lon": "-8.480159960606683",
      "lat": "41.06856042931295"
    },
    {
      "id": "pt.ine.add.PTCONT.3743827",
      "street": "R CENTRAL",
      "house": "1195",
      "postcode": "4415-638",
      "city": "LEVER",
      "lon": "-8.482720145020465",
      "lat": "41.066715771154094"
    },
    {
      "id": "pt.ine.add.PTCONT.3764123",
      "street": "R CENTRAL",
      "house": "1093",
      "postcode": "4415-638",
      "city": "LEVER",
      "lon": "-8.483803479611105",
      "lat": "41.066838542502246"
    },
    {
      "id": "pt.ine.add.PTCONT.3764147",
      "street": "AV IGREJA VELHA",
      "house": "61",
      "postcode": "4415-656",
      "city": "LEVER",
      "lon": "-8.480307952863106",
      "lat": "41.06729034811446"
    },
    {
      "id": "pt.ine.add.PTCONT.3774076",
      "street": "VR TERRAS DE STA MARIA",
      "house": "118",
      "postcode": "4415-951",
      "city": "LEVER",
      "lon": "-8.484084398269788",
      "lat": "41.068206372247055"
    },
    {
      "id": "pt.ine.add.PTCONT.3813791",
      "street": "R CENTRAL",
      "house": "1381",
      "postcode": "4415-638",
      "city": "LEVER",
      "lon": "-8.480758114304253",
      "lat": "41.06691980612282"
    },
    {
      "id": "pt.ine.add.PTCONT.3822432",
      "street": "R CENTRAL",
      "house": "1287",
      "postcode": "4415-638",
      "city": "LEVER",
      "lon": "-8.481721522832457",
      "lat": "41.06686286861837"
    },
    {
      "id": "pt.ine.add.PTCONT.3828939",
      "street": "R CENTRAL",
      "house": "1043",
      "postcode": "4415-638",
      "city": "LEVER",
      "lon": "-8.484306238132207",
      "lat": "41.067413299842805"
    },
    {
      "id": "pt.ine.add.PTCONT.3828951",
      "street": "VR PORTAO VERMELHO",
      "house": "60",
      "postcode": "4415-952",
      "city": "LEVER",
      "lon": "-8.484665418396244",
      "lat": "41.06783541643449"
    },
    {
      "id": "pt.ine.add.PTCONT.3828952",
      "street": "VR TERRAS SANTA MARIA",
      "house": "108",
      "postcode": "4415-951",
      "city": "LEVER",
      "lon": "-8.484310070964758",
      "lat": "41.06813364864998"
    },
    {
      "id": "pt.ine.add.PTCONT.3828965",
      "street": "R CENTRAL",
      "house": "1243",
      "postcode": "4415-638",
      "city": "LEVER",
      "lon": "-8.48216087117884",
      "lat": "41.06669945753019"
    },
    {
      "id": "pt.ine.add.PTCONT.3829455",
      "street": "R CENTRAL",
      "house": "1243",
      "postcode": "4415-638",
      "city": "LEVER",
      "lon": "-8.48216087117884",
      "lat": "41.06669945753019"
    },
    {
      "id": "pt.ine.add.PTCONT.3846722",
      "street": "R CENTRAL",
      "house": "1107",
      "postcode": "4415-638",
      "city": "LEVER",
      "lon": "-8.48367236868709",
      "lat": "41.06679391889213"
    },
    {
      "id": "pt.ine.add.PTCONT.3893353",
      "street": "R CENTRAL",
      "house": "1173",
      "postcode": "4415-638",
      "city": "LEVER",
      "lon": "-8.48300563528485",
      "lat": "41.06670590015968"
    },
    {
      "id": "pt.ine.add.PTCONT.3893354",
      "street": "R CENTRAL",
      "house": "1173",
      "postcode": "4415-638",
      "city": "LEVER",
      "lon": "-8.48300563528485",
      "lat": "41.06670590015968"
    },
    {
      "id": "pt.ine.add.PTCONT.3893355",
      "street": "R CENTRAL",
      "house": "1043 5",
      "postcode": "4415-638",
      "city": "LEVER",
      "lon": "-8.484210866221964",
      "lat": "41.067377572433664"
    },
    {
      "id": "pt.ine.add.PTCONT.3912712",
      "street": "VR TAMEGA",
      "house": "24",
      "postcode": "4415-952",
      "city": "LEVER",
      "lon": "-8.484710370777488",
      "lat": "41.067340031438974"
    },
    {
      "id": "pt.ine.add.PTCONT.3912713",
      "street": "R CENTRAL",
      "house": "1281",
      "postcode": "4415-638",
      "city": "LEVER",
      "lon": "-8.481875380801359",
      "lat": "41.06670932643213"
    },
    {
      "id": "pt.ine.add.PTCONT.3920149",
      "street": "VR TERRAS DE STA MARIA",
      "house": "12",
      "postcode": "4415-951",
      "city": "LEVER",
      "lon": "-8.485130097724037",
      "lat": "41.06796006096263"
    },
    {
      "id": "pt.ine.add.PTCONT.3932909",
      "street": "R CENTRAL",
      "house": "1359",
      "postcode": "4415-638",
      "city": "LEVER",
      "lon": "-8.480959564367275",
      "lat": "41.06676612157205"
    },
    {
      "id": "pt.ine.add.PTCONT.3951664",
      "street": "R CENTRAL",
      "house": "1231",
      "postcode": "4415-638",
      "city": "LEVER",
      "lon": "-8.482351182166445",
      "lat": "41.0666898764149"
    },
    {
      "id": "pt.ine.add.PTCONT.3982364",
      "street": "VR TERRAS DE STA MARIA",
      "house": "28",
      "postcode": "4415-951",
      "city": "LEVER",
      "lon": "-8.485011313370205",
      "lat": "41.06799644178365"
    },
    {
      "id": "pt.ine.add.PTCONT.4015681",
      "street": "R CENTRAL",
      "house": "1125",
      "postcode": "4415-638",
      "city": "LEVER",
      "lon": "-8.483481866422542",
      "lat": "41.066767484739856"
    },
    {
      "id": "pt.ine.add.PTCONT.4015689",
      "street": "VR TERRAS DE STA MARIA",
      "house": "64",
      "postcode": "4415-951",
      "city": "LEVER",
      "lon": "-8.484595806846224",
      "lat": "41.068168795491445"
    },
    {
      "id": "pt.ine.add.PTCONT.4022420",
      "street": "VR TERRAS DE STA MARIA",
      "house": "108",
      "postcode": "4415-951",
      "city": "LEVER",
      "lon": "-8.484191285841263",
      "lat": "41.06817002862769"
    },
    {
      "id": "pt.ine.add.PTCONT.4035302",
      "street": "R CENTRAL",
      "house": "1143",
      "postcode": "4415-638",
      "city": "LEVER",
      "lon": "-8.483243583572303",
      "lat": "41.06670517742662"
    },
    {
      "id": "pt.ine.add.PTCONT.4061807",
      "street": "AV IGREJA VELHA",
      "house": "207",
      "postcode": "4415-656",
      "city": "LEVER",
      "lon": "-8.480150477436723",
      "lat": "41.06901968763109"
    },
    {
      "id": "pt.ine.add.PTCONT.4061812",
      "street": "R CENTRAL",
      "house": "1187",
      "postcode": "4415-638",
      "city": "LEVER",
      "lon": "-8.482862770885353",
      "lat": "41.06668832483733"
    },
    {
      "id": "pt.ine.add.PTCONT.4081376",
      "street": "TV CAMPO DO SOL",
      "house": "55",
      "postcode": "4415-636",
      "city": "LEVER",
      "lon": "-8.482912698734722",
      "lat": "41.067129394165825"
    },
    {
      "id": "pt.ine.add.PTCONT.4081382",
      "street": "R CENTRAL",
      "house": "1043 2",
      "postcode": "4415-638",
      "city": "LEVER",
      "lon": "-8.484483263229627",
      "lat": "41.06714262499641"
    },
    {
      "id": "pt.ine.add.PTCONT.4094593",
      "street": "R CENTRAL",
      "house": "1101",
      "postcode": "4415-638",
      "city": "LEVER",
      "lon": "-8.483731903665",
      "lat": "41.06680274227263"
    },
    {
      "id": "pt.ine.add.PTCONT.4101224",
      "street": "AV IGREJA VELHA",
      "house": "113",
      "postcode": "4415-656",
      "city": "LEVER",
      "lon": "-8.480300791675187",
      "lat": "41.0681908203591"
    },
    {
      "id": "pt.ine.add.PTCONT.4101245",
      "street": "VR PORTAO VERMELHO",
      "house": "48",
      "postcode": "4415-952",
      "city": "LEVER",
      "lon": "-8.48479590835554",
      "lat": "41.067762982221616"
    },
    {
      "id": "pt.ine.add.PTCONT.4101251",
      "street": "R CENTRAL",
      "house": "1337",
      "postcode": "4415-638",
      "city": "LEVER",
      "lon": "-8.48112608088304",
      "lat": "41.06675661430253"
    },
    {
      "id": "pt.ine.add.PTCONT.4137268",
      "street": "R MOURA CARREIRA COVA",
      "house": "35",
      "postcode": "4415-636",
      "city": "LEVER",
      "lon": "-8.480867515958865",
      "lat": "41.06736069689575"
    },
    {
      "id": "pt.ine.add.PTCONT.4153605",
      "street": "VR TERRAS DE STA MARIA",
      "house": "54",
      "postcode": "4415-951",
      "city": "LEVER",
      "lon": "-8.484666953103321",
      "lat": "41.06812355593596"
    },
    {
      "id": "pt.ine.add.PTCONT.4159986",
      "street": "VR PORTAO VERMELHO",
      "house": "28",
      "postcode": "4415-952",
      "city": "LEVER",
      "lon": "-8.4849974475354",
      "lat": "41.067627299381556"
    },
    {
      "id": "pt.ine.add.PTCONT.4168355",
      "street": "TV CAMPO DO SOL",
      "house": "54",
      "postcode": "4415-636",
      "city": "LEVER",
      "lon": "-8.482246582086967",
      "lat": "41.06715842777343"
    },
    {
      "id": "pt.ine.add.PTCONT.4179512",
      "street": "VR TERRAS DE STA MARIA",
      "house": "34",
      "postcode": "4415-951",
      "city": "LEVER",
      "lon": "-8.484868829556627",
      "lat": "41.06805090383858"
    },
    {
      "id": "pt.ine.add.PTCONT.4182620",
      "street": "VR TERRAS SANTA MARIA",
      "house": "20",
      "postcode": "4415-951",
      "city": "LEVER",
      "lon": "-8.485665250930113",
      "lat": "41.067913402419016"
    },
    {
      "id": "pt.ine.add.PTCONT.4199809",
      "street": "TV CAMPO DO SOL",
      "house": "25A",
      "postcode": "4415-636",
      "city": "LEVER",
      "lon": "-8.482601504582998",
      "lat": "41.0667791625851"
    },
    {
      "id": "pt.ine.add.PTCONT.4218945",
      "street": "R MOURA CARREIRA COVA",
      "house": "9",
      "postcode": "4415-636",
      "city": "LEVER",
      "lon": "-8.480905011498745",
      "lat": "41.067702755000035"
    },
    {
      "id": "pt.ine.add.PTCONT.4218973",
      "street": "R CENTRAL",
      "house": "1333",
      "postcode": "4415-638",
      "city": "LEVER",
      "lon": "-8.481292549851876",
      "lat": "41.066738102427955"
    },
    {
      "id": "pt.ine.add.PTCONT.4245111",
      "street": "R CENTRAL",
      "house": "1225",
      "postcode": "4415-638",
      "city": "LEVER",
      "lon": "-8.482422518989896",
      "lat": "41.06668065568844"
    },
    {
      "id": "pt.ine.add.PTCONT.4246893",
      "street": "TV CAMPO DO SOL",
      "house": "44",
      "postcode": "4415-636",
      "city": "LEVER",
      "lon": "-8.482424139147978",
      "lat": "41.06698680404327"
    },
    {
      "id": "pt.ine.add.PTCONT.4258008",
      "street": "R CENTRAL",
      "house": "1043",
      "postcode": "4415-638",
      "city": "LEVER",
      "lon": "-8.484329266611269",
      "lat": "41.06726915755011"
    },
    {
      "id": "pt.ine.add.PTCONT.4264415",
      "street": "TV CAMPO DO SOL",
      "house": "35",
      "postcode": "4415-636",
      "city": "LEVER",
      "lon": "-8.482614403244506",
      "lat": "41.06696821812752"
    },
    {
      "id": "pt.ine.add.PTCONT.4276600",
      "street": "AL GONÇALO FERREIRA MENDONÇA",
      "house": "401",
      "postcode": "4415-950",
      "city": "LEVER",
      "lon": "-8.485497914958092",
      "lat": "41.067769842154874"
    },
    {
      "id": "pt.ine.add.PTCONT.4291874",
      "street": "AV IGREJA VELHA",
      "house": "13",
      "postcode": "4415-656",
      "city": "LEVER",
      "lon": "-8.480249885929444",
      "lat": "41.06756065826638"
    },
    {
      "id": "pt.ine.add.PTCONT.4296896",
      "street": "VR PORTAO VERMELHO",
      "house": "31",
      "postcode": "4415-952",
      "city": "LEVER",
      "lon": "-8.484890753248738",
      "lat": "41.06769966118543"
    },
    {
      "id": "pt.ine.add.PTCONT.4298765",
      "street": "AV IGREJA VELHA",
      "house": "33",
      "postcode": "4415-656",
      "city": "LEVER",
      "lon": "-8.480461483430933",
      "lat": "41.067073777256084"
    },
    {
      "id": "pt.ine.add.PTCONT.4311874",
      "street": "VR TAMEGA",
      "house": "42",
      "postcode": "4415-952",
      "city": "LEVER",
      "lon": "-8.484496934325504",
      "lat": "41.0674757500621"
    },
    {
      "id": "pt.ine.add.PTCONT.4328082",
      "street": "R CENTRAL",
      "house": "1113",
      "postcode": "4415-638",
      "city": "LEVER",
      "lon": "-8.483589038868663",
      "lat": "41.066785167852586"
    },
    {
      "id": "pt.ine.add.PTCONT.4337908",
      "street": "BR BARRAGEM EDP",
      "house": "",
      "postcode": "4415-638",
      "city": "LEVER",
      "lon": "-8.484791542545171",
      "lat": "41.06694358543618"
    },
    {
      "id": "pt.ine.add.PTCONT.4344199",
      "street": "R CENTRAL",
      "house": "1161",
      "postcode": "4415-638",
      "city": "LEVER",
      "lon": "-8.483124704924018",
      "lat": "41.06672354758034"
    },
    {
      "id": "pt.ine.add.PTCONT.4355539",
      "street": "VR TERRAS DE STA MARIA",
      "house": "2",
      "postcode": "4415-951",
      "city": "LEVER",
      "lon": "-8.485510725977425",
      "lat": "41.067940888589"
    },
    {
      "id": "pt.ine.add.PTCONT.4372965",
      "street": "AV IGREJA VELHA",
      "house": "65",
      "postcode": "4415-656",
      "city": "LEVER",
      "lon": "-8.480108582518168",
      "lat": "41.06784022355484"
    },
    {
      "id": "pt.ine.add.PTCONT.4375750",
      "street": "VR TAMEGA",
      "house": "34",
      "postcode": "4415-952",
      "city": "LEVER",
      "lon": "-8.4844497754829",
      "lat": "41.06755693441101"
    },
    {
      "id": "pt.ine.add.PTCONT.4387461",
      "street": "AV IGREJA VELHA",
      "house": "63",
      "postcode": "4415-656",
      "city": "LEVER",
      "lon": "-8.480237325392046",
      "lat": "41.06743463300423"
    }
  ]
}