{
  "data": {
    "distrito": "Lisboa",
    "concelho": "Lisboa",
    "freguesia": "Arroios",
    "OBJECTID": 1450,
    "BGRI2021": "11065600102",
    "DT21": "11",
    "DTMN21": "1106",
    "DTMNFR21": "110656",
    "DTMNFRSEC21": "110656001",
    "SECNUM21": "001",
    "SSNUM21": "02",
    "SECSSNUM21": "00102",
    "OBJECTID_1": 105012,
    "DT": "11",
    "CC": "06",
    "fr": "56",
    "SEC": "001",
    "SS": "02"
  },
  "addresses": [
    {
      "id": "pt.ine.add.PTCONT.2273564",
      "street": "TV PENA",
      "house": "3",
      "postcode": "1150-261",
      "city": "LISBOA",
      "lon": "-9.139340944944413",
      "lat": "38.71738041343883"
    },
    {
      "id": "pt.ine.add.PTCONT.2273565",
      "street": "TV PENA",
      "house": "3",
      "postcode": "1150-261",
      "city": "LISBOA",
      "lon": "-9.139340944944413",
      "lat": "38.71738041343883"
    },
    {
      "id": "pt.ine.add.PTCONT.2273566",
      "street": "TV PENA",
      "house": "3",
      "postcode": "1150-261",
      "city": "LISBOA",
      "lon": "-9.139340944944413",
      "lat": "38.71738041343883"
    },
    {
      "id": "pt.ine.add.PTCONT.2275017",
      "street": "TV PENA",
      "house": "3",
      "postcode": "1150-261",
      "city": "LISBOA",
      "lon": "-9.139340944944413",
      "lat": "38.71738041343883"
    },
    {
      "id": "pt.ine.add.PTCONT.2275464",
      "street": "TV PENA",
      "house": "3",
      "postcode": "1150-261",
      "city": "LISBOA",
      "lon": "-9.139340944944413",
      "lat": "38.71738041343883"
    },
    {
      "id": "pt.ine.add.PTCONT.2277118",
      "street": "TV PENA",
      "house": "3",
      "postcode": "1150-261",
      "city": "LISBOA",
      "lon": "-9.139340944944413",
      "lat": "38.71738041343883"
    },
    {
      "id": "pt.ine.add.PTCONT.2279228",
      "street": "CC SANTANA",
      "house": "155",
      "postcode": "1150-303",
      "city": "LISBOA",
      "lon": "-9.138808447692018",
      "lat": "38.7171237666533"
    },
    {
      "id": "pt.ine.add.PTCONT.2279229",
      "street": "CC SANTANA",
      "house": "155",
      "postcode": "1150-303",
      "city": "LISBOA",
      "lon": "-9.138808447692018",
      "lat": "38.7171237666533"
    },
    {
      "id": "pt.ine.add.PTCONT.2279230",
      "street": "CC SANTANA",
      "house": "155",
      "postcode": "1150-303",
      "city": "LISBOA",
      "lon": "-9.138808447692018",
      "lat": "38.7171237666533"
    },
    {
      "id": "pt.ine.add.PTCONT.2279231",
      "street": "CC SANTANA",
      "house": "155",
      "postcode": "1150-303",
      "city": "LISBOA",
      "lon": "-9.138808447692018",
      "lat": "38.7171237666533"
    },
    {
      "id": "pt.ine.add.PTCONT.2279232",
      "street": "CC SANTANA",
      "house": "155",
      "postcode": "1150-303",
      "city": "LISBOA",
      "lon": "-9.138808447692018",
      "lat": "38.7171237666533"
    },
    {
      "id": "pt.ine.add.PTCONT.2279233",
      "street": "CC SANTANA",
      "house": "155",
      "postcode": "1150-303",
      "city": "LISBOA",
      "lon": "-9.138808447692018",
      "lat": "38.7171237666533"
    },
    {
      "id": "pt.ine.add.PTCONT.2279234",
      "street": "CC SANTANA",
      "house": "155",
      "postcode": "1150-303",
      "city": "LISBOA",
      "lon": "-9.138808447692018",
      "lat": "38.7171237666533"
    },
    {
      "id": "pt.ine.add.PTCONT.2279235",
      "street": "CC SANTANA",
      "house": "155",
      "postcode": "1150-303",
      "city": "LISBOA",
      "lon": "-9.138808447692018",
      "lat": "38.7171237666533"
    },
    {
      "id": "pt.ine.add.PTCONT.2284365",
      "street": "CC SANTANA",
      "house": "155",
      "postcode": "1150-303",
      "city": "LISBOA",
      "lon": "-9.138808447692018",
      "lat": "38.7171237666533"
    },
    {
      "id": "pt.ine.add.PTCONT.2306457",
      "street": "R JOAQUINA",
      "house": "6",
      "postcode": "1150-197",
      "city": "LISBOA",
      "lon": "-9.139962258422225",
      "lat": "38.71741109581664"
    },
    {
      "id": "pt.ine.add.PTCONT.2349088",
      "street": "TV PENA",
      "house": "1",
      "postcode": "1150-261",
      "city": "LISBOA",
      "lon": "-9.139249352239247",
      "lat": "38.71740822537369"
    },
    {
      "id": "pt.ine.add.PTCONT.2349089",
      "street": "TV PENA",
      "house": "1",
      "postcode": "1150-261",
      "city": "LISBOA",
      "lon": "-9.139249352239247",
      "lat": "38.71740822537369"
    },
    {
      "id": "pt.ine.add.PTCONT.2349090",
      "street": "TV PENA",
      "house": "1",
      "postcode": "1150-261",
      "city": "LISBOA",
      "lon": "-9.139249352239247",
      "lat": "38.71740822537369"
    },
    {
      "id": "pt.ine.add.PTCONT.2349091",
      "street": "TV PENA",
      "house": "1",
      "postcode": "1150-261",
      "city": "LISBOA",
      "lon": "-9.139249352239247",
      "lat": "38.71740822537369"
    },
    {
      "id": "pt.ine.add.PTCONT.2349092",
      "street": "TV PENA",
      "house": "1",
      "postcode": "1150-261",
      "city": "LISBOA",
      "lon": "-9.139249352239247",
      "lat": "38.71740822537369"
    },
    {
      "id": "pt.ine.add.PTCONT.2360549",
      "street": "TV BIRBANTES",
      "house": "4-6",
      "postcode": "1150-079",
      "city": "LISBOA",
      "lon": "-9.138921896819417",
      "lat": "38.71701469606626"
    },
    {
      "id": "pt.ine.add.PTCONT.2360550",
      "street": "TV BIRBANTES",
      "house": "4-6",
      "postcode": "1150-079",
      "city": "LISBOA",
      "lon": "-9.138921896819417",
      "lat": "38.71701469606626"
    },
    {
      "id": "pt.ine.add.PTCONT.2360555",
      "street": "TV BIRBANTES",
      "house": "4-6",
      "postcode": "1150-079",
      "city": "LISBOA",
      "lon": "-9.138921896819417",
      "lat": "38.71701469606626"
    },
    {
      "id": "pt.ine.add.PTCONT.2425282",
      "street": "BC BIRBANTES",
      "house": "37",
      "postcode": "1150-078",
      "city": "LISBOA",
      "lon": "-9.13921435775852",
      "lat": "38.71737249499362"
    },
    {
      "id": "pt.ine.add.PTCONT.2433724",
      "street": "TV PENA",
      "house": "9",
      "postcode": "1150-261",
      "city": "LISBOA",
      "lon": "-9.13967497354026",
      "lat": "38.717422577472064"
    },
    {
      "id": "pt.ine.add.PTCONT.2460965",
      "street": "BC S LUIS DA PENA",
      "house": "18",
      "postcode": "1150-336",
      "city": "LISBOA",
      "lon": "-9.139763984465485",
      "lat": "38.71680265055055"
    },
    {
      "id": "pt.ine.add.PTCONT.2460966",
      "street": "BC S LUIS DA PENA",
      "house": "18",
      "postcode": "1150-336",
      "city": "LISBOA",
      "lon": "-9.139763984465485",
      "lat": "38.71680265055055"
    },
    {
      "id": "pt.ine.add.PTCONT.2460967",
      "street": "BC S LUIS DA PENA",
      "house": "18",
      "postcode": "1150-336",
      "city": "LISBOA",
      "lon": "-9.139763984465485",
      "lat": "38.71680265055055"
    },
    {
      "id": "pt.ine.add.PTCONT.2460968",
      "street": "BC S LUIS DA PENA",
      "house": "18",
      "postcode": "1150-336",
      "city": "LISBOA",
      "lon": "-9.139763984465485",
      "lat": "38.71680265055055"
    },
    {
      "id": "pt.ine.add.PTCONT.2460969",
      "street": "BC S LUIS DA PENA",
      "house": "18",
      "postcode": "1150-336",
      "city": "LISBOA",
      "lon": "-9.139763984465485",
      "lat": "38.71680265055055"
    },
    {
      "id": "pt.ine.add.PTCONT.2460970",
      "street": "BC S LUIS DA PENA",
      "house": "18",
      "postcode": "1150-336",
      "city": "LISBOA",
      "lon": "-9.139763984465485",
      "lat": "38.71680265055055"
    },
    {
      "id": "pt.ine.add.PTCONT.2460971",
      "street": "R PORTAS DE SANTO ANTÃO",
      "house": "76",
      "postcode": "1150-261",
      "city": "LISBOA",
      "lon": "-9.140256228990587",
      "lat": "38.7162375387583"
    },
    {
      "id": "pt.ine.add.PTCONT.2460972",
      "street": "R PORTAS DE SANTO ANTÃO",
      "house": "76",
      "postcode": "1150-261",
      "city": "LISBOA",
      "lon": "-9.140256228990587",
      "lat": "38.7162375387583"
    },
    {
      "id": "pt.ine.add.PTCONT.2460973",
      "street": "R PORTAS DE SANTO ANTÃO",
      "house": "76",
      "postcode": "1150-261",
      "city": "LISBOA",
      "lon": "-9.140256228990587",
      "lat": "38.7162375387583"
    },
    {
      "id": "pt.ine.add.PTCONT.2460974",
      "street": "R PORTAS DE SANTO ANTÃO",
      "house": "76",
      "postcode": "1150-261",
      "city": "LISBOA",
      "lon": "-9.140256228990587",
      "lat": "38.7162375387583"
    },
    {
      "id": "pt.ine.add.PTCONT.2506768",
      "street": "R JOAQUINA",
      "house": "",
      "postcode": "1150-197",
      "city": "LISBOA",
      "lon": "-9.139882162382586",
      "lat": "38.717438809235354"
    },
    {
      "id": "pt.ine.add.PTCONT.2569900",
      "street": "CC SANTANA",
      "house": "165",
      "postcode": "1150-303",
      "city": "LISBOA",
      "lon": "-9.138867444576185",
      "lat": "38.71723135375304"
    },
    {
      "id": "pt.ine.add.PTCONT.2569901",
      "street": "CC SANTANA",
      "house": "165",
      "postcode": "1150-303",
      "city": "LISBOA",
      "lon": "-9.138867444576185",
      "lat": "38.71723135375304"
    },
    {
      "id": "pt.ine.add.PTCONT.2569902",
      "street": "CC SANTANA",
      "house": "165",
      "postcode": "1150-303",
      "city": "LISBOA",
      "lon": "-9.138867444576185",
      "lat": "38.71723135375304"
    },
    {
      "id": "pt.ine.add.PTCONT.2578846",
      "street": "BC BIRBANTES",
      "house": "23",
      "postcode": "1150-078",
      "city": "LISBOA",
      "lon": "-9.139141555549342",
      "lat": "38.717239947118905"
    },
    {
      "id": "pt.ine.add.PTCONT.2578847",
      "street": "BC BIRBANTES",
      "house": "23",
      "postcode": "1150-078",
      "city": "LISBOA",
      "lon": "-9.139141555549342",
      "lat": "38.717239947118905"
    },
    {
      "id": "pt.ine.add.PTCONT.2578848",
      "street": "BC BIRBANTES",
      "house": "23",
      "postcode": "1150-078",
      "city": "LISBOA",
      "lon": "-9.139141555549342",
      "lat": "38.717239947118905"
    },
    {
      "id": "pt.ine.add.PTCONT.2578857",
      "street": "TV PENA",
      "house": "12",
      "postcode": "1150-261",
      "city": "LISBOA",
      "lon": "-9.13912769537335",
      "lat": "38.7169318544009"
    },
    {
      "id": "pt.ine.add.PTCONT.2622980",
      "street": "CC SANTANA",
      "house": "173",
      "postcode": "1150-303",
      "city": "LISBOA",
      "lon": "-9.138949813267635",
      "lat": "38.71736576339849"
    },
    {
      "id": "pt.ine.add.PTCONT.2622981",
      "street": "CC SANTANA",
      "house": "173",
      "postcode": "1150-303",
      "city": "LISBOA",
      "lon": "-9.138949813267635",
      "lat": "38.71736576339849"
    },
    {
      "id": "pt.ine.add.PTCONT.2622982",
      "street": "CC SANTANA",
      "house": "173",
      "postcode": "1150-303",
      "city": "LISBOA",
      "lon": "-9.138949813267635",
      "lat": "38.71736576339849"
    },
    {
      "id": "pt.ine.add.PTCONT.2622983",
      "street": "CC SANTANA",
      "house": "173",
      "postcode": "1150-303",
      "city": "LISBOA",
      "lon": "-9.138949813267635",
      "lat": "38.71736576339849"
    },
    {
      "id": "pt.ine.add.PTCONT.2667687",
      "street": "R JOAQUINA",
      "house": "3",
      "postcode": "1150-197",
      "city": "LISBOA",
      "lon": "-9.139801939923634",
      "lat": "38.717457515804085"
    },
    {
      "id": "pt.ine.add.PTCONT.2667697",
      "street": "BC S LUIS DA PENA",
      "house": "14",
      "postcode": "1150-336",
      "city": "LISBOA",
      "lon": "-9.139253902917396",
      "lat": "38.716912752556645"
    },
    {
      "id": "pt.ine.add.PTCONT.2667698",
      "street": "BC S LUIS DA PENA",
      "house": "14",
      "postcode": "1150-336",
      "city": "LISBOA",
      "lon": "-9.139253902917396",
      "lat": "38.716912752556645"
    },
    {
      "id": "pt.ine.add.PTCONT.2667699",
      "street": "BC S LUIS DA PENA",
      "house": "14",
      "postcode": "1150-336",
      "city": "LISBOA",
      "lon": "-9.139253902917396",
      "lat": "38.716912752556645"
    },
    {
      "id": "pt.ine.add.PTCONT.2676294",
      "street": "TV PENA",
      "house": "",
      "postcode": "1150-261",
      "city": "LISBOA",
      "lon": "-9.139741804320458",
      "lat": "38.717268868035504"
    },
    {
      "id": "pt.ine.add.PTCONT.2676295",
      "street": "TV PENA",
      "house": "",
      "postcode": "1150-261",
      "city": "LISBOA",
      "lon": "-9.139741804320458",
      "lat": "38.717268868035504"
    },
    {
      "id": "pt.ine.add.PTCONT.2676296",
      "street": "TV PENA",
      "house": "",
      "postcode": "1150-261",
      "city": "LISBOA",
      "lon": "-9.139741804320458",
      "lat": "38.717268868035504"
    },
    {
      "id": "pt.ine.add.PTCONT.2676297",
      "street": "TV PENA",
      "house": "",
      "postcode": "1150-261",
      "city": "LISBOA",
      "lon": "-9.139741804320458",
      "lat": "38.717268868035504"
    },
    {
      "id": "pt.ine.add.PTCONT.2686924",
      "street": "BC BIRBANTES",
      "house": "25",
      "postcode": "1150-078",
      "city": "LISBOA",
      "lon": "-9.139164800947622",
      "lat": "38.717257762857585"
    },
    {
      "id": "pt.ine.add.PTCONT.2852752",
      "street": "BC BIRBANTES",
      "house": "9-11-13-15",
      "postcode": "1150-078",
      "city": "LISBOA",
      "lon": "-9.139129301499786",
      "lat": "38.717186005257446"
    },
    {
      "id": "pt.ine.add.PTCONT.2852753",
      "street": "BC BIRBANTES",
      "house": "9-11-13-15",
      "postcode": "1150-078",
      "city": "LISBOA",
      "lon": "-9.139129301499786",
      "lat": "38.717186005257446"
    },
    {
      "id": "pt.ine.add.PTCONT.2852754",
      "street": "BC BIRBANTES",
      "house": "9-11-13-15",
      "postcode": "1150-078",
      "city": "LISBOA",
      "lon": "-9.139129301499786",
      "lat": "38.717186005257446"
    },
    {
      "id": "pt.ine.add.PTCONT.2852755",
      "street": "BC BIRBANTES",
      "house": "9-11-13-15",
      "postcode": "1150-078",
      "city": "LISBOA",
      "lon": "-9.139129301499786",
      "lat": "38.717186005257446"
    },
    {
      "id": "pt.ine.add.PTCONT.2852763",
      "street": "BC BIRBANTES",
      "house": "9-11-13-15",
      "postcode": "1150-078",
      "city": "LISBOA",
      "lon": "-9.139129301499786",
      "lat": "38.717186005257446"
    },
    {
      "id": "pt.ine.add.PTCONT.2901193",
      "street": "BC S LUIS DA PENA",
      "house": "6",
      "postcode": "1150-336",
      "city": "LISBOA",
      "lon": "-9.13901311039225",
      "lat": "38.71695986399488"
    },
    {
      "id": "pt.ine.add.PTCONT.2901194",
      "street": "BC S LUIS DA PENA",
      "house": "6",
      "postcode": "1150-336",
      "city": "LISBOA",
      "lon": "-9.13901311039225",
      "lat": "38.71695986399488"
    },
    {
      "id": "pt.ine.add.PTCONT.2901197",
      "street": "BC S LUIS DA PENA",
      "house": "6",
      "postcode": "1150-336",
      "city": "LISBOA",
      "lon": "-9.13901311039225",
      "lat": "38.71695986399488"
    },
    {
      "id": "pt.ine.add.PTCONT.2901198",
      "street": "BC S LUIS DA PENA",
      "house": "6",
      "postcode": "1150-336",
      "city": "LISBOA",
      "lon": "-9.13901311039225",
      "lat": "38.71695986399488"
    },
    {
      "id": "pt.ine.add.PTCONT.2906041",
      "street": "BC S LUIS DA PENA",
      "house": "6",
      "postcode": "1150-336",
      "city": "LISBOA",
      "lon": "-9.13901311039225",
      "lat": "38.71695986399488"
    },
    {
      "id": "pt.ine.add.PTCONT.3019573",
      "street": "BC BIRBANTES",
      "house": "",
      "postcode": "1150-078",
      "city": "LISBOA",
      "lon": "-9.139034931261522",
      "lat": "38.71701566745892"
    },
    {
      "id": "pt.ine.add.PTCONT.3019574",
      "street": "BC BIRBANTES",
      "house": "",
      "postcode": "1150-078",
      "city": "LISBOA",
      "lon": "-9.139034931261522",
      "lat": "38.71701566745892"
    },
    {
      "id": "pt.ine.add.PTCONT.3026187",
      "street": "BC S LUIS DA PENA",
      "house": "20",
      "postcode": "1150-336",
      "city": "LISBOA",
      "lon": "-9.13976196289302",
      "lat": "38.7166585417978"
    },
    {
      "id": "pt.ine.add.PTCONT.3026188",
      "street": "BC S LUIS DA PENA",
      "house": "20",
      "postcode": "1150-336",
      "city": "LISBOA",
      "lon": "-9.13976196289302",
      "lat": "38.7166585417978"
    },
    {
      "id": "pt.ine.add.PTCONT.3026189",
      "street": "BC S LUIS DA PENA",
      "house": "20",
      "postcode": "1150-336",
      "city": "LISBOA",
      "lon": "-9.13976196289302",
      "lat": "38.7166585417978"
    },
    {
      "id": "pt.ine.add.PTCONT.3026190",
      "street": "BC S LUIS DA PENA",
      "house": "20",
      "postcode": "1150-336",
      "city": "LISBOA",
      "lon": "-9.13976196289302",
      "lat": "38.7166585417978"
    },
    {
      "id": "pt.ine.add.PTCONT.3026191",
      "street": "BC S LUIS DA PENA",
      "house": "20",
      "postcode": "1150-336",
      "city": "LISBOA",
      "lon": "-9.13976196289302",
      "lat": "38.7166585417978"
    },
    {
      "id": "pt.ine.add.PTCONT.3026192",
      "street": "BC S LUIS DA PENA",
      "house": "20",
      "postcode": "1150-336",
      "city": "LISBOA",
      "lon": "-9.13976196289302",
      "lat": "38.7166585417978"
    },
    {
      "id": "pt.ine.add.PTCONT.3026611",
      "street": "BC S LUIS DA PENA",
      "house": "20",
      "postcode": "1150-336",
      "city": "LISBOA",
      "lon": "-9.13976196289302",
      "lat": "38.7166585417978"
    },
    {
      "id": "pt.ine.add.PTCONT.3101925",
      "street": "R JOAQUINA",
      "house": "7",
      "postcode": "1150-197",
      "city": "LISBOA",
      "lon": "-9.140031110725333",
      "lat": "38.71740149495007"
    },
    {
      "id": "pt.ine.add.PTCONT.3159506",
      "street": "BC BIRBANTES",
      "house": "13",
      "postcode": "1150-078",
      "city": "LISBOA",
      "lon": "-9.139176080109884",
      "lat": "38.71710258785663"
    },
    {
      "id": "pt.ine.add.PTCONT.3223986",
      "street": "TV PENA",
      "house": "5",
      "postcode": "1150-261",
      "city": "LISBOA",
      "lon": "-9.139439486856434",
      "lat": "38.717028257776015"
    },
    {
      "id": "pt.ine.add.PTCONT.3223987",
      "street": "TV PENA",
      "house": "5",
      "postcode": "1150-261",
      "city": "LISBOA",
      "lon": "-9.139439486856434",
      "lat": "38.717028257776015"
    },
    {
      "id": "pt.ine.add.PTCONT.3223988",
      "street": "TV PENA",
      "house": "5",
      "postcode": "1150-261",
      "city": "LISBOA",
      "lon": "-9.139439486856434",
      "lat": "38.717028257776015"
    },
    {
      "id": "pt.ine.add.PTCONT.3223989",
      "street": "TV PENA",
      "house": "5",
      "postcode": "1150-261",
      "city": "LISBOA",
      "lon": "-9.139439486856434",
      "lat": "38.717028257776015"
    },
    {
      "id": "pt.ine.add.PTCONT.3223990",
      "street": "TV PENA",
      "house": "5",
      "postcode": "1150-261",
      "city": "LISBOA",
      "lon": "-9.139439486856434",
      "lat": "38.717028257776015"
    },
    {
      "id": "pt.ine.add.PTCONT.3223991",
      "street": "TV PENA",
      "house": "5",
      "postcode": "1150-261",
      "city": "LISBOA",
      "lon": "-9.139439486856434",
      "lat": "38.717028257776015"
    },
    {
      "id": "pt.ine.add.PTCONT.3223992",
      "street": "TV PENA",
      "house": "5",
      "postcode": "1150-261",
      "city": "LISBOA",
      "lon": "-9.139439486856434",
      "lat": "38.717028257776015"
    },
    {
      "id": "pt.ine.add.PTCONT.3223993",
      "street": "TV PENA",
      "house": "5",
      "postcode": "1150-261",
      "city": "LISBOA",
      "lon": "-9.139439486856434",
      "lat": "38.717028257776015"
    },
    {
      "id": "pt.ine.add.PTCONT.3223997",
      "street": "TV PENA",
      "house": "5",
      "postcode": "1150-261",
      "city": "LISBOA",
      "lon": "-9.139439486856434",
      "lat": "38.717028257776015"
    },
    {
      "id": "pt.ine.add.PTCONT.3223998",
      "street": "TV PENA",
      "house": "5",
      "postcode": "1150-261",
      "city": "LISBOA",
      "lon": "-9.139439486856434",
      "lat": "38.717028257776015"
    },
    {
      "id": "pt.ine.add.PTCONT.3223999",
      "street": "TV PENA",
      "house": "5",
      "postcode": "1150-261",
      "city": "LISBOA",
      "lon": "-9.139439486856434",
      "lat": "38.717028257776015"
    },
    {
      "id": "pt.ine.add.PTCONT.3224000",
      "street": "CC SANTANA",
      "house": "147",
      "postcode": "1150-303",
      "city": "LISBOA",
      "lon": "-9.138737954598417",
      "lat": "38.71701627840727"
    },
    {
      "id": "pt.ine.add.PTCONT.3224001",
      "street": "CC SANTANA",
      "house": "147",
      "postcode": "1150-303",
      "city": "LISBOA",
      "lon": "-9.138737954598417",
      "lat": "38.71701627840727"
    },
    {
      "id": "pt.ine.add.PTCONT.3224002",
      "street": "CC SANTANA",
      "house": "147",
      "postcode": "1150-303",
      "city": "LISBOA",
      "lon": "-9.138737954598417",
      "lat": "38.71701627840727"
    },
    {
      "id": "pt.ine.add.PTCONT.3224003",
      "street": "CC SANTANA",
      "house": "147",
      "postcode": "1150-303",
      "city": "LISBOA",
      "lon": "-9.138737954598417",
      "lat": "38.71701627840727"
    },
    {
      "id": "pt.ine.add.PTCONT.3224004",
      "street": "CC SANTANA",
      "house": "147",
      "postcode": "1150-303",
      "city": "LISBOA",
      "lon": "-9.138737954598417",
      "lat": "38.71701627840727"
    },
    {
      "id": "pt.ine.add.PTCONT.3224005",
      "street": "CC SANTANA",
      "house": "147",
      "postcode": "1150-303",
      "city": "LISBOA",
      "lon": "-9.138737954598417",
      "lat": "38.71701627840727"
    },
    {
      "id": "pt.ine.add.PTCONT.3224006",
      "street": "BIRBANTES",
      "house": "2",
      "postcode": "1150-079",
      "city": "LISBOA",
      "lon": "-9.138737954598417",
      "lat": "38.71701627840727"
    },
    {
      "id": "pt.ine.add.PTCONT.3251360",
      "street": "BC BIRBANTES",
      "house": "5 7",
      "postcode": "1150-078",
      "city": "LISBOA",
      "lon": "-9.139058681605137",
      "lat": "38.717069510414824"
    },
    {
      "id": "pt.ine.add.PTCONT.3251361",
      "street": "BC BIRBANTES",
      "house": "5 7",
      "postcode": "1150-078",
      "city": "LISBOA",
      "lon": "-9.139058681605137",
      "lat": "38.717069510414824"
    },
    {
      "id": "pt.ine.add.PTCONT.3258112",
      "street": "CC SANTANA",
      "house": "167",
      "postcode": "1150-303",
      "city": "LISBOA",
      "lon": "-9.138902943787315",
      "lat": "38.717303111435385"
    },
    {
      "id": "pt.ine.add.PTCONT.3258113",
      "street": "CC SANTANA",
      "house": "167",
      "postcode": "1150-303",
      "city": "LISBOA",
      "lon": "-9.138902943787315",
      "lat": "38.717303111435385"
    },
    {
      "id": "pt.ine.add.PTCONT.3258114",
      "street": "CC SANTANA",
      "house": "167",
      "postcode": "1150-303",
      "city": "LISBOA",
      "lon": "-9.138902943787315",
      "lat": "38.717303111435385"
    },
    {
      "id": "pt.ine.add.PTCONT.3270014",
      "street": "R PORTAS DE SANTO ANTÃO",
      "house": "9S",
      "postcode": "1150-078",
      "city": "LISBOA",
      "lon": "-9.140383446381815",
      "lat": "38.71629049008248"
    },
    {
      "id": "pt.ine.add.PTCONT.3270015",
      "street": "R PORTAS DE SANTO ANTÃO",
      "house": "9S",
      "postcode": "1150-078",
      "city": "LISBOA",
      "lon": "-9.140383446381815",
      "lat": "38.71629049008248"
    },
    {
      "id": "pt.ine.add.PTCONT.3270016",
      "street": "R PORTAS DE SANTO ANTÃO",
      "house": "9S",
      "postcode": "1150-078",
      "city": "LISBOA",
      "lon": "-9.140383446381815",
      "lat": "38.71629049008248"
    },
    {
      "id": "pt.ine.add.PTCONT.3270017",
      "street": "R PORTAS DE SANTO ANTÃO",
      "house": "9S",
      "postcode": "1150-078",
      "city": "LISBOA",
      "lon": "-9.140383446381815",
      "lat": "38.71629049008248"
    },
    {
      "id": "pt.ine.add.PTCONT.3270018",
      "street": "R PORTAS DE SANTO ANTÃO",
      "house": "9S",
      "postcode": "1150-078",
      "city": "LISBOA",
      "lon": "-9.140383446381815",
      "lat": "38.71629049008248"
    },
    {
      "id": "pt.ine.add.PTCONT.3270019",
      "street": "R PORTAS DE SANTO ANTÃO",
      "house": "9S",
      "postcode": "1150-078",
      "city": "LISBOA",
      "lon": "-9.140383446381815",
      "lat": "38.71629049008248"
    },
    {
      "id": "pt.ine.add.PTCONT.3316563",
      "street": "BC BIRBANTES",
      "house": "27",
      "postcode": "1150-078",
      "city": "LISBOA",
      "lon": "-9.139176928759877",
      "lat": "38.71730269791637"
    },
    {
      "id": "pt.ine.add.PTCONT.3316564",
      "street": "BC BIRBANTES",
      "house": "27",
      "postcode": "1150-078",
      "city": "LISBOA",
      "lon": "-9.139176928759877",
      "lat": "38.71730269791637"
    },
    {
      "id": "pt.ine.add.PTCONT.3316565",
      "street": "BC BIRBANTES",
      "house": "29",
      "postcode": "1150-078",
      "city": "LISBOA",
      "lon": "-9.139176928759877",
      "lat": "38.71730269791637"
    },
    {
      "id": "pt.ine.add.PTCONT.3334820",
      "street": "BC BIRBANTES",
      "house": "31 33",
      "postcode": "1150-078",
      "city": "LISBOA",
      "lon": "-9.139200174187462",
      "lat": "38.71732051364744"
    },
    {
      "id": "pt.ine.add.PTCONT.3334821",
      "street": "TV PENA",
      "house": "9",
      "postcode": "1150-261",
      "city": "LISBOA",
      "lon": "-9.140065600064291",
      "lat": "38.717401197899264"
    },
    {
      "id": "pt.ine.add.PTCONT.3381013",
      "street": "TV PENA",
      "house": "1 A",
      "postcode": "1150-261",
      "city": "LISBOA",
      "lon": "-9.139008810569132",
      "lat": "38.717473350416995"
    },
    {
      "id": "pt.ine.add.PTCONT.3381014",
      "street": "TV PENA",
      "house": "1 A",
      "postcode": "1150-261",
      "city": "LISBOA",
      "lon": "-9.139008810569132",
      "lat": "38.717473350416995"
    },
    {
      "id": "pt.ine.add.PTCONT.3381015",
      "street": "TV PENA",
      "house": "1 A",
      "postcode": "1150-261",
      "city": "LISBOA",
      "lon": "-9.139008810569132",
      "lat": "38.717473350416995"
    },
    {
      "id": "pt.ine.add.PTCONT.3381016",
      "street": "TV PENA",
      "house": "1 A",
      "postcode": "1150-261",
      "city": "LISBOA",
      "lon": "-9.139008810569132",
      "lat": "38.717473350416995"
    },
    {
      "id": "pt.ine.add.PTCONT.3381017",
      "street": "TV PENA",
      "house": "1 A",
      "postcode": "1150-261",
      "city": "LISBOA",
      "lon": "-9.139008810569132",
      "lat": "38.717473350416995"
    },
    {
      "id": "pt.ine.add.PTCONT.3381018",
      "street": "TV PENA",
      "house": "1 A",
      "postcode": "1150-261",
      "city": "LISBOA",
      "lon": "-9.139008810569132",
      "lat": "38.717473350416995"
    },
    {
      "id": "pt.ine.add.PTCONT.3386544",
      "street": "TV PENA",
      "house": "1 A",
      "postcode": "1150-261",
      "city": "LISBOA",
      "lon": "-9.139008810569132",
      "lat": "38.717473350416995"
    },
    {
      "id": "pt.ine.add.PTCONT.3399353",
      "street": "R ÁLVARO COUTINHO",
      "house": "28",
      "postcode": "1150-026",
      "city": "LISBOA",
      "lon": "-9.139737327756741",
      "lat": "38.71654165140478"
    },
    {
      "id": "pt.ine.add.PTCONT.3426113",
      "street": "BC S LUIS DA PENA",
      "house": "24",
      "postcode": "1150-336",
      "city": "LISBOA",
      "lon": "-9.139738464856904",
      "lat": "38.7166227125809"
    },
    {
      "id": "pt.ine.add.PTCONT.3433486",
      "street": "CC SANTANA",
      "house": "155",
      "postcode": "1150-303",
      "city": "LISBOA",
      "lon": "-9.138808447692018",
      "lat": "38.7171237666533"
    },
    {
      "id": "pt.ine.add.PTCONT.3438868",
      "street": "TV PENA",
      "house": "",
      "postcode": "1150-261",
      "city": "LISBOA",
      "lon": "-9.139741804320458",
      "lat": "38.717268868035504"
    }
  ]
}